Coordinates
version=1
nRows=291
nColumns=19
inDegrees=yes

Units are S.I. units (second, meters, Newtons, ...)
If the header above contains a line with 'inDegrees', this indicates whether rotational values are in degrees (yes) or radians (no).

endheader
time	pelvis_to_ground_rx	pelvis_to_ground_ry	pelvis_to_ground_rz	pelvis_to_ground_tx	pelvis_to_ground_ty	pelvis_to_ground_tz	left_hip_abduction	left_hip_rotation	left_hip_flexion	left_knee_flexion	left_ankle_flexion	left_subtalar_angle	right_hip_abduction	right_hip_rotation	right_hip_flexion	right_knee_flexion	right_ankle_flexion	right_subtalar_angle
      0.29000000	    100.62980204	      7.87728396	     -8.11002897	     -1.95427386	     -0.69638996	      0.72981122	    -15.06694567	     -7.10648437	      9.45706898	    -21.37681942	      4.17029537	     -8.93638562	     -0.25147748	    -16.78323171	     33.11197285	    -61.71256521	     -0.91032071	    -13.20820786
      0.30000000	    100.56237634	      8.34285871	     -7.95285840	     -1.94328011	     -0.69715347	      0.72982919	    -14.77997627	     -7.42311764	      8.15792925	    -20.97999592	      4.13482947	     -8.74408807	     -0.46180926	    -16.74914743	     34.70752165	    -60.26396000	     -0.79589384	    -13.27582103
      0.31000000	    100.51282555	      8.81824854	     -7.77549491	     -1.93226649	     -0.69795874	      0.72959628	    -14.51541495	     -7.66387402	      6.86793941	    -20.63755002	      4.14583134	     -8.51521160	     -0.75661802	    -16.74944639	     36.12456771	    -58.48853597	     -0.77210225	    -13.24992342
      0.32000000	    100.47990849	      9.30619030	     -7.59079640	     -1.92119966	     -0.69881548	      0.72910751	    -14.26633286	     -7.86734535	      5.59665268	    -20.35663621	      4.20547874	     -8.26474185	     -1.12629158	    -16.79322067	     37.35378118	    -56.36293411	     -0.87428241	    -13.09634042
      0.33000000	    100.46252940	      9.79846879	     -7.40609887	     -1.91003083	     -0.69972521	      0.72836240	    -14.03058445	     -8.04994661	      4.34868794	    -20.14353688	      4.32768573	     -7.95977077	     -1.56569272	    -16.85963334	     38.37275417	    -53.87562011	     -1.15540028	    -12.75271184
      0.34000000	    100.45065301	     10.28883559	     -7.21222870	     -1.89870516	     -0.70069963	      0.72735729	    -13.79519369	     -8.18280476	      3.13515869	    -20.03837289	      4.53856708	     -7.59515741	     -2.06619335	    -16.92059873	     39.13928071	    -51.03210171	     -1.66410950	    -12.15758299
      0.35000000	    100.41361242	     10.77796483	     -7.07450775	     -1.88718031	     -0.70178206	      0.72610156	    -13.49584723	     -8.10325451	      2.12395841	    -20.18902386	      4.96750715	     -7.00644124	     -2.57330394	    -16.93123994	     39.69487275	    -47.84923171	     -2.38850584	    -11.14899370
      0.36000000	    100.42599628	     11.26325238	     -6.76618996	     -1.87532868	     -0.70289888	      0.72453243	    -13.29094925	     -8.25042089	      0.84745242	    -20.31097243	      5.16887106	     -6.77302421	     -3.25616258	    -16.87396711	     39.77328543	    -44.44853784	     -2.84612633	    -10.58225747
      0.37000000	    100.39594710	     11.76439618	     -6.53830739	     -1.86314728	     -0.70417754	      0.72272979	    -12.97985672	     -8.15073458	     -0.14838107	    -20.79350369	      5.86356727	     -5.89655895	     -3.91062569	    -16.73810305	     39.65099847	    -40.86972727	     -3.56566044	     -9.09527990
      0.38000000	    100.40713959	     12.24947055	     -6.13122714	     -1.85055292	     -0.70551616	      0.72062684	    -12.77037310	     -8.28713642	     -1.39301325	    -21.30947394	      6.00562532	     -5.85391875	     -4.75987832	    -16.40273417	     39.05254345	    -37.29838796	     -4.22292121	     -8.48616685
      0.39000000	    100.36648561	     12.77706582	     -5.79482244	     -1.83755159	     -0.70702613	      0.71834232	    -12.46832568	     -8.38752026	     -2.40558741	    -22.16129657	      6.31391501	     -5.78659893	     -5.56449686	    -15.98245133	     38.29803363	    -33.82985316	     -5.40275149	     -7.42143547
      0.40000000	    100.30237831	     13.28527488	     -5.27098620	     -1.82411655	     -0.70860942	      0.71581575	    -12.16000278	     -8.38411372	     -3.49932617	    -23.27478561	      6.50798525	     -5.75248470	     -6.44362527	    -15.37003292	     37.18949827	    -30.69793663	     -6.10558277	     -6.75239998
      0.41000000	    100.21249103	     13.75887353	     -4.82046154	     -1.81035317	     -0.71030958	      0.71320856	    -11.81739998	     -8.36756025	     -4.37303287	    -24.68225489	      6.70653491	     -5.71465051	     -7.31494169	    -14.50969751	     36.04707475	    -27.99213692	     -6.84349593	     -6.13433086
      0.42000000	    100.03155918	     14.21600133	     -4.32589565	     -1.79627063	     -0.71210949	      0.71056332	    -11.36586030	     -8.23034156	     -5.09230214	    -26.42825298	      6.73694536	     -5.75603267	     -8.05450812	    -13.54394308	     34.85159668	    -25.86104239	     -7.15391546	     -5.86973785
      0.43000000	     99.77191158	     14.61982038	     -3.93276277	     -1.78199423	     -0.71399725	      0.70801673	    -10.82317309	     -8.03386947	     -5.50421507	    -28.49426388	      6.68932243	     -5.82461334	     -8.62455397	    -12.43971560	     33.79767968	    -24.34936392	     -7.35943209	     -5.74250134
      0.44000000	     99.38230142	     14.97100475	     -3.62448083	     -1.76757838	     -0.71598457	      0.70565134	    -10.12953802	     -7.74092404	     -5.59832091	    -30.87129854	      6.54118797	     -5.91102349	     -8.91023934	    -11.30867699	     32.92314747	    -23.47550397	     -7.40258165	     -5.77774740
      0.45000000	     98.84700584	     15.29409061	     -3.43282079	     -1.75308932	     -0.71809523	      0.70353969	     -9.23812864	     -7.29912400	     -5.30486178	    -33.56241770	      6.01183584	     -5.90395851	     -8.84262864	    -10.27878939	     32.27718737	    -23.20093428	     -7.20164259	     -6.51068403
      0.46000000	     98.19441579	     15.48783039	     -3.29683701	     -1.73861265	     -0.72024789	      0.70172326	     -8.23652520	     -6.69184837	     -4.74893916	    -36.45420008	      5.66677166	     -6.03607110	     -8.49832361	     -9.18194125	     31.78634365	    -23.44755560	     -6.98322687	     -6.82211351
      0.47000000	     97.40327496	     15.65778770	     -3.30454026	     -1.72416853	     -0.72251369	      0.70030125	     -7.10537222	     -6.07492669	     -3.84637761	    -39.51884996	      4.61549498	     -6.06963861	     -7.79374499	     -8.26665181	     31.49558416	    -24.06236642	     -6.18425765	     -7.94131792
      0.48000000	     96.49311401	     15.71224621	     -3.32837825	     -1.70982377	     -0.72480522	      0.69923497	     -5.87128526	     -5.25437892	     -2.72918389	    -42.71516664	      3.61510277	     -6.24515278	     -6.79046603	     -7.44658996	     31.26554323	    -24.93756088	     -5.52548532	     -8.77666062
      0.49000000	     95.48469623	     15.68094671	     -3.44350795	     -1.69563678	     -0.72713191	      0.69859836	     -4.58354331	     -4.33671213	     -1.35058279	    -45.99142683	      2.59536748	     -6.38334546	     -5.52042862	     -6.77098349	     31.10624326	    -25.89399062	     -4.76823997	     -9.42988581
      0.50000000	     94.36722550	     15.54257061	     -3.46356123	     -1.68161778	     -0.72944189	      0.69838692	     -3.26318864	     -3.30166726	      0.05366149	    -49.26089168	      1.24760249	     -6.66038714	     -4.03722847	     -6.18373683	     30.77296547	    -26.77911311	     -3.84325023	    -10.05082229
      0.51000000	     93.23363360	     15.33007142	     -3.69839952	     -1.66789111	     -0.73173943	      0.69868880	     -2.01555414	     -2.24366841	      1.80632433	    -52.52976348	      0.19620203	     -6.84547620	     -2.42107437	     -5.77549321	     30.54587323	    -27.47716860	     -3.06351132	    -10.41009547
      0.52000000	     92.07628583	     14.99129823	     -3.90598256	     -1.65444661	     -0.73396179	      0.69945069	     -0.84877432	     -1.06961262	      3.61706668	    -55.71050872	     -0.88893897	     -7.03933110	     -0.75515364	     -5.39781779	     30.14205801	    -27.90291500	     -2.25383054	    -10.62118265
      0.53000000	     90.92833628	     14.56800532	     -4.15989041	     -1.64132330	     -0.73611616	      0.70069405	      0.18546830	      0.12453215	      5.54925404	    -58.77074876	     -1.85603834	     -7.29056716	      0.91463422	     -5.09855412	     29.61704009	    -27.99831132	     -1.50445921	    -10.60201294
      0.54000000	     89.83418552	     14.01615629	     -4.46300225	     -1.62853897	     -0.73815739	      0.70237637	      1.04130227	      1.41137845	      7.59033286	    -61.67379173	     -2.24817816	     -7.45156845	      2.48430442	     -4.72779433	     28.95909650	    -27.74557340	     -1.17467105	    -10.52543894
      0.55000000	     88.82829894	     13.43483691	     -4.83000559	     -1.61608036	     -0.74012574	      0.70446878	      1.67562573	      2.63723576	      9.75144311	    -64.38499253	     -2.62779538	     -7.56498759	      3.93798060	     -4.44309078	     28.19888384	    -27.17206176	     -0.81530396	    -10.38058634
      0.56000000	     87.93265996	     12.80771921	     -5.21635211	     -1.60393023	     -0.74199665	      0.70688700	      2.07235390	      3.82625977	     11.97580086	    -66.86837769	     -2.84591177	     -7.68508339	      5.21977444	     -4.15021135	     27.30755008	    -26.32157192	     -0.51866054	    -10.11427671
      0.57000000	     87.16307102	     12.17095273	     -5.57693551	     -1.59205625	     -0.74377668	      0.70954003	      2.22815921	      4.92741472	     14.21498184	    -69.10032245	     -2.81377444	     -7.89214960	      6.32839441	     -3.91884960	     26.28233444	    -25.27948462	      0.23325063	     -8.68429509
      0.58000000	     86.55122688	     11.48334157	     -5.93924337	     -1.58045676	     -0.74545309	      0.71235456	      2.12119502	      6.00765388	     16.49026450	    -71.05045589	     -2.65640805	     -8.02673213	      7.16239601	     -3.47225115	     25.13948443	    -24.05517037	      0.27623401	     -8.52335316
      0.59000000	     86.08386255	     10.82057797	     -6.27064518	     -1.56908928	     -0.74703987	      0.71524652	      1.77905681	      6.94906088	     18.77252579	    -72.71215380	     -1.95497167	     -8.22908848	      7.78980922	     -2.99807864	     23.90962757	    -22.74719432	      0.19515019	     -7.99105761
      0.60000000	     85.77906753	     10.16570907	     -6.59192251	     -1.55794474	     -0.74852240	      0.71814364	      1.19423849	      7.77143271	     21.07240514	    -74.06047260	     -1.40502925	     -8.43638279	      8.17729909	     -2.38229637	     22.64127503	    -21.42432375	      0.14452252	     -7.62471445
      0.61000000	     85.59334972	      9.50855454	     -6.75334690	     -1.54696742	     -0.74990704	      0.72094562	      0.45828288	      8.50510623	     23.22065327	    -75.08526418	     -1.02836173	     -8.65122537	      8.36286742	     -1.55519061	     21.19413247	    -20.12093470	      0.10410741	     -7.38414747
      0.62000000	     85.54766468	      8.87941659	     -6.99290336	     -1.53621121	     -0.75115541	      0.72357353	     -0.48050309	      9.11060354	     25.49211033	    -75.82215489	     -0.02367028	     -9.18321064	      8.39927805	     -0.75817035	     19.93001030	    -19.00446883	     -0.08981748	     -6.98852961
      0.63000000	     85.58699213	      8.29911502	     -7.07320844	     -1.52557487	     -0.75230126	      0.72603909	     -1.49832084	      9.51755705	     27.57901271	    -76.21394468	      0.75690373	     -9.67643577	      8.30290836	      0.20566841	     18.51626061	    -17.94578274	     -0.19417883	     -6.69982828
      0.64000000	     85.67927105	      7.73936422	     -7.10815179	     -1.51508998	     -0.75333639	      0.72823386	     -2.56172140	      9.83447314	     29.63410089	    -76.31170844	      1.46683897	    -10.23614280	      8.15186480	      1.21364294	     17.15644803	    -17.07278869	     -0.27037368	     -6.49041156
      0.65000000	     85.82151480	      7.20834305	     -7.08634634	     -1.50472467	     -0.75424492	      0.73015678	     -3.64947159	     10.01257300	     31.60811394	    -76.09509094	      2.07920817	    -10.84017106	      7.95640478	      2.24547256	     15.82846651	    -16.36976052	     -0.31636056	     -6.34617119
      0.66000000	     85.99886917	      6.67257708	     -6.99451377	     -1.49446919	     -0.75501313	      0.73175571	     -4.73024563	     10.11993452	     33.47806751	    -75.57250766	      2.63982084	    -11.57916495	      7.74820071	      3.22588357	     14.54843099	    -15.88533453	     -0.33769599	     -6.26019124
      0.67000000	     86.13768667	      6.17899503	     -6.85032890	     -1.48428018	     -0.75571614	      0.73305257	     -5.70355381	     10.12609231	     35.26393396	    -74.76175103	      2.84398459	    -11.87044434	      7.61017793	      4.17521576	     13.27925284	    -15.50412532	     -0.30804010	     -6.16634592
      0.68000000	     86.28219574	      5.70309718	     -6.72383619	     -1.47414855	     -0.75628988	      0.73403742	     -6.62096236	     10.01656272	     36.99723818	    -73.64296991	      3.10962869	    -12.23040566	      7.49601865	      4.98051910	     12.12743293	    -15.29123453	     -0.25310993	     -6.09557688
      0.69000000	     86.41698702	      5.25745385	     -6.57160028	     -1.46403245	     -0.75676138	      0.73468796	     -7.43336436	      9.77393414	     38.60376667	    -72.21649295	      3.48217485	    -13.10608324	      7.42877967	      5.53942233	     11.04569677	    -15.23788182	     -0.07201767	     -6.05415951
      0.70000000	     86.47174218	      4.81432816	     -6.35630025	     -1.45386968	     -0.75719410	      0.73502921	     -8.06228781	      9.54013637	     40.05957389	    -70.51221511	      3.46381228	    -13.20965123	      7.46946866	      6.07979186	      9.91461590	    -15.21184102	      0.00361278	     -5.97547519
      0.71000000	     86.50036991	      4.38081814	     -6.15044316	     -1.44363711	     -0.75755367	      0.73506628	     -8.56246719	      9.23869299	     41.38672273	    -68.50960595	      3.43601067	    -13.27950005	      7.55674558	      6.45009237	      8.84762813	    -15.28310120	      0.13448887	     -5.91069012
      0.72000000	     86.48240333	      3.94929194	     -5.92988338	     -1.43326383	     -0.75786804	      0.73480543	     -8.90118670	      8.90317523	     42.53999600	    -66.22632071	      3.31873494	    -13.26825021	      7.70770287	      6.74482439	      7.78443081	    -15.40882048	      0.34629447	     -5.83398578
      0.73000000	     86.41971099	      3.52419685	     -5.65701404	     -1.42268779	     -0.75815429	      0.73424775	     -9.07216140	      8.55122713	     43.45892134	    -63.68612757	      3.03043616	    -13.09740704	      7.92389251	      6.96782008	      6.67351773	    -15.58103489	      0.67130916	     -5.72772808
      0.74000000	     86.32760422	      3.11937425	     -5.31522521	     -1.41185311	     -0.75841728	      0.73338880	     -9.08516845	      8.16346467	     44.10247232	    -60.92151551	      2.60391312	    -12.74364820	      8.18815694	      7.05421359	      5.50815595	    -15.82620897	      1.05917484	     -5.59381488
      0.75000000	     86.24660473	      2.67635327	     -4.97805763	     -1.40072624	     -0.75862162	      0.73224025	     -9.01098105	      7.79930250	     44.53670055	    -57.96730530	      2.05390612	    -12.17138311	      8.43509474	      7.10650910	      4.38912612	    -16.21666329	      1.55899299	     -5.38022100
      0.76000000	     86.11365768	      2.27459177	     -4.60141306	     -1.38922463	     -0.75884624	      0.73082463	     -8.74720701	      7.34244625	     44.70527245	    -54.90113160	      1.50649972	    -11.47253984	      8.75574092	      7.18453672	      3.19783744	    -16.62694246	      2.07472240	     -5.14378259
      0.77000000	     85.97554363	      1.85732309	     -4.12381345	     -1.37729813	     -0.75905440	      0.72911444	     -8.37163763	      6.90856402	     44.56458161	    -51.80859776	      0.93329247	    -10.75337013	      9.10019996	      7.28420783	      1.90767284	    -17.15073772	      2.54086995	     -4.98805443
      0.78000000	     85.84446292	      1.44751386	     -3.58171948	     -1.36492964	     -0.75925156	      0.72712924	     -7.89721980	      6.42775666	     44.15702425	    -48.77077569	      0.29172319	    -10.03423655	      9.45386718	      7.38073562	      0.56727051	    -17.80791101	      2.97935833	     -4.90233228
      0.79000000	     85.71224852	      1.07463827	     -2.97848840	     -1.35211088	     -0.75945411	      0.72487849	     -7.30029363	      5.80840141	     43.49954603	    -45.88741446	     -0.05088353	     -9.64355410	      9.82687270	      7.43256124	     -0.81321576	    -18.60129176	      3.16947112	     -4.89651013
      0.80000000	     85.66921014	      0.66804529	     -2.35193684	     -1.33883201	     -0.75960094	      0.72242127	     -6.78241471	      5.28038090	     42.68675859	    -43.23037708	     -1.10527079	     -8.74947486	     10.10208379	      7.46713098	     -2.16461707	    -19.59659547	      3.73643323	     -4.86234785
      0.81000000	     85.66048600	      0.33348811	     -1.73329341	     -1.32515291	     -0.75973939	      0.71977379	     -6.19043032	      4.49383631	     41.73393825	    -40.88782301	     -1.39895141	     -8.41079693	     10.32801037	      7.34640509	     -3.44407724	    -20.75816864	      3.87427392	     -4.84897296
      0.82000000	     85.76206244	     -0.01114279	     -1.10355909	     -1.31108141	     -0.75982659	      0.71700283	     -5.74638135	      3.79184871	     40.70457278	    -38.93384799	     -2.28730470	     -7.78895890	     10.41951348	      7.16428043	     -4.66381511	    -22.11482133	      4.27311666	     -4.71852878
      0.83000000	     85.97449530	     -0.29078374	     -0.58928304	     -1.29672514	     -0.75983486	      0.71416612	     -5.37778768	      2.85810650	     39.69788251	    -37.38207994	     -2.47414215	     -7.58216994	     10.31154468	      6.73886763	     -5.64260556	    -23.67557896	      4.30751020	     -4.68615761
      0.84000000	     86.30878307	     -0.54881229	     -0.08013384	     -1.28210136	     -0.75977966	      0.71132757	     -5.20137848	      1.97062135	     38.67055093	    -36.29013138	     -2.85484728	     -7.43020630	     10.02773686	      6.19940240	     -6.53466339	    -25.38006393	      4.31156376	     -4.51220110
      0.85000000	     86.79329858	     -0.74935872	      0.18953813	     -1.26735236	     -0.75959107	      0.70856191	     -5.20675953	      0.90704792	     37.83878028	    -35.62008462	     -2.91829053	     -7.40150429	      9.45431183	      5.42290442	     -7.01987311	    -27.29249877	      4.19189441	     -4.45211316
      0.86000000	     87.41137741	     -0.91111807	      0.46242992	     -1.25247285	     -0.75930036	      0.70591309	     -5.43944469	     -0.12359318	     36.98535548	    -35.37461638	     -2.94492338	     -7.93088978	      8.65895962	      4.46085705	     -7.40516187	    -29.31635176	      3.67741184	     -3.95255769
      0.87000000	     88.16610593	     -1.01883669	      0.57131833	     -1.23759301	     -0.75888017	      0.70344895	     -5.89396133	     -1.20470935	     36.27513664	    -35.49985015	     -2.71691056	     -8.49570693	      7.61906036	      3.33022242	     -7.48183420	    -31.47716751	      3.15705185	     -3.73558238
      0.88000000	     89.05527441	     -1.06885037	      0.57563371	     -1.22277002	     -0.75833465	      0.70123223	     -6.57882799	     -2.29951888	     35.63233870	    -35.91594974	     -2.45554532	     -8.77162044	      6.36513205	      2.05705733	     -7.32315505	    -33.74058000	      2.69521894	     -3.69344053
      0.89000000	     90.02549738	     -1.09811398	      0.53424608	     -1.20804547	     -0.75768105	      0.69924635	     -7.52557854	     -3.10515730	     35.08115448	    -36.67383052	     -1.68566291	     -9.67532141	      4.96459598	      0.66142268	     -6.98723081	    -36.09143088	      1.43009025	     -3.48013120
      0.90000000	     91.07428684	     -1.06287512	      0.42489384	     -1.19352306	     -0.75693440	      0.69761665	     -8.62964931	     -3.88870083	     34.52568233	    -37.53736180	     -1.01907802	    -10.42227669	      3.47197872	     -0.79511911	     -6.46525200	    -38.48640533	      0.25355631	     -3.55312700
      0.91000000	     92.16204408	     -0.97783513	      0.26874100	     -1.17926464	     -0.75612590	      0.69638108	     -9.86767468	     -4.52290459	     33.95719148	    -38.44543875	     -0.26536035	    -11.08376208	      1.95547581	     -2.28084000	     -5.77489777	    -40.90653011	     -1.04716340	     -3.76283191
      0.92000000	     93.26239167	     -0.84733106	      0.06218809	     -1.16533605	     -0.75529290	      0.69560643	    -11.18396680	     -5.00369658	     33.35402799	    -39.28593220	      0.53768606	    -11.63005850	      0.48265094	     -3.74206608	     -4.91141927	    -43.32546716	     -2.41847645	     -4.09727769
      0.93000000	     94.33127602	     -0.67308102	     -0.25454832	     -1.15181713	     -0.75446021	      0.69537423	    -12.48967179	     -5.37885688	     32.75340375	    -39.95362306	      1.26168189	    -11.93936564	     -0.85131011	     -5.10970273	     -3.81262955	    -45.69546695	     -4.12976084	     -5.39434304
      0.94000000	     95.36009357	     -0.45937367	     -0.51250020	     -1.13870162	     -0.75362685	      0.69566056	    -13.78038825	     -5.57834183	     31.97952705	    -40.39732853	      1.98843017	    -12.21954784	     -2.06774049	     -6.44660976	     -2.64460185	    -48.02145841	     -5.20915223	     -5.47229582
      0.95000000	     96.29570921	     -0.22012363	     -0.89706202	     -1.12606824	     -0.75283394	      0.69656044	    -14.93889216	     -5.71268885	     31.20881605	    -40.54419540	      2.69126289	    -12.34182517	     -3.04135220	     -7.64447745	     -1.20908184	    -50.24534289	     -6.33763890	     -5.85824555
      0.96000000	     97.12867040	      0.05788154	     -1.27546313	     -1.11388826	     -0.75210101	      0.69803238	    -15.95896566	     -5.76524449	     30.30881348	    -40.38122487	      3.27918907	    -11.97057681	     -3.77825831	     -8.70311039	      0.33496372	    -52.31672379	     -7.53092736	     -7.02544039
      0.97000000	     97.83051410	      0.34048144	     -1.72214266	     -1.10217424	     -0.75141037	      0.70006635	    -16.77924116	     -5.79971714	     29.36305983	    -39.89228291	      3.58888962	    -11.93770288	     -4.25363288	     -9.63170527	      2.09240136	    -54.24517530	     -8.01585369	     -7.04323028
      0.98000000	     98.39852308	      0.66590597	     -2.10678855	     -1.09086415	     -0.75078049	      0.70256867	    -17.40542468	     -5.85583158	     28.24619960	    -39.11225108	      3.74293916	    -11.82236382	     -4.50229384	    -10.44949139	      3.88493902	    -55.96940813	     -8.25519344	     -7.11644304
      0.99000000	     98.81667200	      0.97070626	     -2.47556278	     -1.07992996	     -0.75018504	      0.70550773	    -17.81815377	     -5.91375767	     27.02973631	    -38.05734224	      3.83954670	    -11.64875488	     -4.50631557	    -11.05548456	      5.76199089	    -57.46777069	     -8.41766450	     -7.16275673
      1.00000000	     99.08254897	      1.30157887	     -2.79336916	     -1.06934002	     -0.74964718	      0.70874854	    -18.02896819	     -6.00705247	     25.71926668	    -36.82280206	      3.86677650	    -11.42128480	     -4.30902788	    -11.54732616	      7.66346579	    -58.72824095	     -8.48080270	     -7.18795654
      1.01000000	     99.18094493	      1.60439510	     -3.12284308	     -1.05905976	     -0.74916425	      0.71223438	    -18.02700918	     -6.10534206	     24.41942263	    -35.46731668	      3.73344352	    -10.71678328	     -3.88624255	    -11.82881379	      9.64638466	    -59.74105903	     -8.37055128	     -7.09057027
      1.02000000	     99.17837579	      1.95547149	     -3.23041313	     -1.04898393	     -0.74868731	      0.71579048	    -17.88803013	     -6.40205864	     22.84108079	    -33.99168090	      3.70831541	    -10.45956365	     -3.42201011	    -12.05092403	     11.40833046	    -60.50132379	     -8.23392334	     -7.08260997
      1.03000000	     99.02639712	      2.29966903	     -3.30055844	     -1.03913606	     -0.74827064	      0.71936748	    -17.58832333	     -6.70597930	     21.28624251	    -32.54399188	      3.32771249	     -9.60912595	     -2.81377302	    -12.12839007	     13.15545373	    -61.02712140	     -7.43148448	     -6.65384577
      1.04000000	     98.79396865	      2.66312724	     -3.30782089	     -1.02947573	     -0.74787248	      0.72285019	    -17.19207728	     -7.19639863	     19.70085627	    -31.13436423	      3.27983210	     -9.38300187	     -2.17961322	    -12.14197317	     14.83987646	    -61.33488789	     -7.23410252	     -6.62703377
      1.05000000	     98.48862216	      3.04046037	     -3.23732701	     -1.01997731	     -0.74750524	      0.72615437	    -16.73569150	     -7.76661950	     18.11221731	    -29.83432684	      3.07899708	     -9.07786818	     -1.53766028	    -12.09568458	     16.43409040	    -61.44804676	     -6.87973601	     -6.61977275
      1.06000000	     98.13388073	      3.41968111	     -3.11077912	     -1.01062611	     -0.74717436	      0.72919781	    -16.26338864	     -8.25746148	     16.59754824	    -28.72224966	      2.49186275	     -8.58712396	     -0.91460571	    -11.99718391	     17.96089718	    -61.39986151	     -5.96848285	     -6.50175137
      1.07000000	     97.78099041	      3.82087389	     -2.89616984	     -1.00140051	     -0.74684251	      0.73192710	    -15.82383461	     -8.86069837	     15.06643353	    -27.75603700	      2.41351399	     -8.38868687	     -0.38970023	    -11.91386291	     19.37610772	    -61.20435919	     -5.74161332	     -6.49713185
      1.08000000	     97.43986600	      4.23573659	     -2.68507553	     -0.99230542	     -0.74653770	      0.73430535	    -15.42777329	     -9.43825703	     13.65699744	    -26.98856392	      2.24877874	     -8.16145800	      0.05556590	    -11.83840130	     20.78215044	    -60.88441874	     -5.40764689	     -6.57075736
      1.09000000	     97.13908733	      4.65811756	     -2.46680245	     -0.98332906	     -0.74625195	      0.73629337	    -15.10645530	     -9.92653006	     12.35902079	    -26.41791557	      2.05299793	     -7.93275013	      0.38835780	    -11.78826183	     22.16773216	    -60.45510462	     -5.02180513	     -6.70022723
      1.10000000	     96.87975975	      5.08663584	     -2.25072560	     -0.97445703	     -0.74598097	      0.73788169	    -14.85488580	    -10.31936950	     11.17206419	    -26.03130737	      1.88634917	     -7.71969660	      0.61444990	    -11.74822748	     23.53204111	    -59.90779286	     -4.65451796	     -6.86166195
      1.11000000	     96.67918783	      5.50206509	     -2.04710199	     -0.96567353	     -0.74573939	      0.73906123	    -14.68033324	    -10.51217773	     10.11109314	    -25.81672210	      1.70190563	     -7.44350910	      0.72473122	    -11.71347202	     24.88396282	    -59.24049938	     -4.15267349	     -7.12982424
      1.12000000	     96.54581261	      5.95021305	     -1.87340286	     -0.95696820	     -0.74551964	      0.73984368	    -14.58439191	    -10.69916666	      9.14157683	    -25.73137032	      1.71401756	     -7.30392797	      0.72219236	    -11.77575980	     26.23522041	    -58.44158261	     -4.01633177	     -7.23121320
      1.13000000	     96.45026667	      6.38548499	     -1.73384053	     -0.94831614	     -0.74534748	      0.74027776	    -14.52459391	    -10.78720512	      8.26276653	    -25.73502137	      1.75044746	     -7.16610588	      0.65081119	    -11.83335255	     27.56620937	    -57.46692583	     -3.87257866	     -7.34834859
      1.14000000	     96.44110454	      6.82477672	     -1.64676367	     -0.93968976	     -0.74520285	      0.74035574	    -14.54721075	    -10.79861436	      7.47200514	    -25.80850751	      1.83170260	     -7.01724678	      0.47124652	    -11.93748776	     28.89131092	    -56.32879021	     -3.73485674	     -7.46719996
      1.15000000	     96.46428737	      7.24520604	     -1.58894608	     -0.93105682	     -0.74511346	      0.74014617	    -14.59206947	    -10.74190304	      6.73033287	    -25.91905871	      1.97894447	     -6.84949903	      0.24769651	    -12.03716147	     30.15713917	    -54.97464991	     -3.62887764	     -7.56027360
      1.16000000	     96.51094751	      7.65107273	     -1.54055464	     -0.92237466	     -0.74507670	      0.73968257	    -14.65108915	    -10.64187441	      6.00008137	    -26.04595646	      2.16234121	     -6.69773232	     -0.00722618	    -12.13478874	     31.32040676	    -53.38931804	     -3.58923778	     -7.58844148
      1.17000000	     96.60892720	      8.03422021	     -1.50666665	     -0.91361550	     -0.74508342	      0.73897014	    -14.74693724	    -10.40662613	      5.31271829	    -26.23393752	      3.12696847	     -5.82702898	     -0.30949675	    -12.24950391	     32.38332280	    -51.59546932	     -3.73509037	     -7.49571928
      1.18000000	     96.70543592	      8.41963618	     -1.51092238	     -0.90472780	     -0.74517665	      0.73813700	    -14.83526984	    -10.40449952	      4.57058686	    -26.31732567	      3.19401084	     -5.70194246	     -0.59417991	    -12.35011656	     33.32026019	    -49.54197859	     -3.78464068	     -7.41325097
      1.19000000	     96.80346915	      8.78864285	     -1.50337046	     -0.89566860	     -0.74533438	      0.73717385	    -14.92333374	    -10.45221278	      3.77906897	    -26.37830519	      3.44707324	     -5.59247413	     -0.87086008	    -12.42645974	     34.07398302	    -47.26644393	     -4.03347808	     -7.17058905
      1.20000000	     96.85574369	      9.12927025	     -1.47083823	     -0.88638456	     -0.74559591	      0.73610301	    -14.93036953	    -10.33764252	      2.99895843	    -26.48658186	      3.53304106	     -5.57379414	     -1.09187727	    -12.43207898	     34.61477033	    -44.78604959	     -4.10722934	     -7.06327446
      1.21000000	     96.93940218	      9.49061010	     -1.39673605	     -0.87687364	     -0.74588641	      0.73496079	    -15.01410758	    -10.53660949	      2.06866996	    -26.53713603	      4.14014429	     -5.43418680	     -1.34089156	    -12.45466305	     34.92727493	    -42.18267474	     -5.02768692	     -6.34092933
      1.22000000	     96.99233612	      9.86772489	     -1.26391803	     -0.86705363	     -0.74627541	      0.73375411	    -15.06099079	    -10.73433965	      1.06708793	    -26.60615727	      4.42039876	     -5.30076157	     -1.55662578	    -12.45353238	     34.98570996	    -39.50132369	     -5.54842041	     -5.93208341
      1.23000000	     97.01445811	     10.22131482	     -1.13636036	     -0.85693346	     -0.74673626	      0.73252394	    -15.06367260	    -10.90855855	      0.08904579	    -26.73528435	      4.73515621	     -5.18365172	     -1.74807479	    -12.31973490	     34.85638034	    -36.79196230	     -6.31597550	     -5.41152867
      1.24000000	     97.03206808	     10.59824335	     -0.89936746	     -0.84646206	     -0.74722820	      0.73124394	    -15.09198383	    -11.14616338	     -1.02827682	    -26.89302167	      4.88438684	     -5.10888020	     -1.96154687	    -12.15678679	     34.44432806	    -34.17909555	     -6.82021090	     -5.06976578
      1.25000000	     97.00409817	     10.99802476	     -0.65745111	     -0.83567520	     -0.74778429	      0.72996746	    -15.05925251	    -11.36060642	     -2.09667003	    -27.17161216	      5.05161544	     -5.04294804	     -2.12714590	    -11.95479008	     33.87241876	    -31.69616681	     -7.58135780	     -4.61392633
      1.26000000	     96.91323351	     11.45151438	     -0.44964463	     -0.82455863	     -0.74839998	      0.72872057	    -14.93158826	    -11.54991885	     -3.03880951	    -27.63213877	      5.20650544	     -4.93686485	     -2.19457883	    -11.81639949	     33.21005020	    -29.41030732	     -8.55525124	     -4.12291858
      1.27000000	     96.80053567	     11.88725888	     -0.27193996	     -0.81316135	     -0.74902036	      0.72751037	    -14.76180668	    -11.67396846	     -3.86688880	    -28.24256044	      5.25597238	     -4.79309431	     -2.27386935	    -11.50752801	     32.43866792	    -27.36272427	     -9.27788048	     -3.80053333
      1.28000000	     96.63663813	     12.32869750	     -0.13514477	     -0.80149322	     -0.74964585	      0.72635525	    -14.50376981	    -11.70731874	     -4.52444063	    -29.06340889	      5.20965724	     -4.63230376	     -2.30231411	    -11.12790328	     31.59782235	    -25.58371668	     -9.84560458	     -3.57335478
      1.29000000	     96.42997559	     12.75158758	     -0.10672723	     -0.78958984	     -0.75026257	      0.72529197	    -14.15933994	    -11.66993404	     -4.93559475	    -30.09253056	      5.09721008	     -4.53426190	     -2.30026581	    -10.58088841	     30.74842526	    -24.06262346	    -10.09568609	     -3.44160350
      1.30000000	     96.13758966	     13.17990269	     -0.10494902	     -0.77744586	     -0.75088353	      0.72429037	    -13.65673969	    -11.43362657	     -5.11912120	    -31.39134561	      4.85753382	     -4.38687073	     -2.18695378	    -10.01212706	     29.84990922	    -22.82010354	    -10.31329641	     -3.36608479
      1.31000000	     95.77603611	     13.57736211	     -0.18395913	     -0.76510228	     -0.75148892	      0.72337010	    -13.02167730	    -11.03215573	     -5.02691514	    -32.94351430	      4.51100447	     -4.22060278	     -1.99708247	     -9.29664106	     28.94836684	    -21.82013518	    -10.35703720	     -3.38766460
      1.32000000	     95.33217606	     13.95909848	     -0.35205070	     -0.75257498	     -0.75211911	      0.72252408	    -12.21177960	    -10.40834383	     -4.61506072	    -34.76974663	      3.61541882	     -3.57666399	     -1.69675662	     -8.47662401	     28.07268546	    -21.04149214	    -10.13035678	     -3.83660770
      1.33000000	     94.80799462	     14.26310901	     -0.53662126	     -0.73990131	     -0.75273508	      0.72172182	    -11.27435958	     -9.55759372	     -3.98372263	    -36.82945123	      2.91809994	     -3.17089330	     -1.32541801	     -7.39479488	     27.15226403	    -20.45029210	     -9.63807187	     -4.33497256
      1.34000000	     94.19122565	     14.49348626	     -0.72017089	     -0.72710566	     -0.75335957	      0.72095519	    -10.20011108	     -8.47145749	     -3.14594750	    -39.11614504	      2.04736069	     -2.80154740	     -0.83931812	     -6.12443376	     26.20348747	    -20.02667864	     -8.94143715	     -4.88832689
      1.35000000	     93.47571748	     14.65453807	     -0.89342937	     -0.71422160	     -0.75402069	      0.72020865	     -8.99368689	     -7.17128948	     -2.11575155	    -41.61887413	      0.99993126	     -2.45371478	     -0.20587913	     -4.73669974	     25.24983246	    -19.75126958	     -8.05418124	     -5.52340270
      1.36000000	     92.68351891	     14.73863548	     -1.01918683	     -0.70130070	     -0.75469675	      0.71942849	     -7.69079044	     -5.64168089	     -0.94024351	    -44.32410882	     -0.29358383	     -2.10037809	      0.59453014	     -3.40523710	     24.32363418	    -19.68026431	     -6.96533804	     -6.30541596
      1.37000000	     91.81322386	     14.71830579	     -1.14258887	     -0.68840564	     -0.75540957	      0.71871185	     -6.33479902	     -4.00262737	      0.37309007	    -47.15352067	     -1.63769377	     -1.87167882	      1.51867396	     -1.95654134	     23.41007815	    -19.66170090	     -5.84930790	     -7.04137866
      1.38000000	     90.88003857	     14.60368351	     -1.26245725	     -0.67559608	     -0.75615648	      0.71804881	     -4.95625864	     -2.28539348	      1.81218834	    -50.08940766	     -3.03405319	     -1.75113374	      2.58105448	     -0.56890574	     22.54606464	    -19.70783809	     -4.70011257	     -7.72624614
      1.39000000	     89.90890956	     14.37284096	     -1.35916237	     -0.66292844	     -0.75691369	      0.71744874	     -3.60008284	     -0.50263752	      3.32719579	    -53.08269001	     -4.42956653	     -1.78263140	      3.75227686	      0.70188214	     21.71485900	    -19.80074679	     -3.59743215	     -8.31299496
      1.40000000	     88.92128178	     14.04752117	     -1.48268350	     -0.65046098	     -0.75768410	      0.71696590	     -2.30977440	      1.26246027	      4.94899694	    -56.09381420	     -5.75464682	     -1.95886460	      5.00127227	      1.78634695	     20.94711840	    -19.88375083	     -2.56734323	     -8.77257167
      1.41000000	     87.94385990	     13.63154786	     -1.64434711	     -0.63823583	     -0.75845361	      0.71662957	     -1.12903168	      2.97424912	      6.66861740	    -59.07614342	     -6.94333525	     -2.28880304	      6.28538568	      2.64884843	     20.23682834	    -19.92391546	     -1.64765706	     -9.06771788
      1.42000000	     87.01002808	     13.13505679	     -1.86440731	     -0.62628509	     -0.75920336	      0.71647062	     -0.10433010	      4.60269309	      8.48993576	    -61.98241628	     -7.94205072	     -2.76018977	      7.55230427	      3.27293811	     19.58434726	    -19.89396886	     -0.84586532	     -9.17925836
      1.43000000	     86.12581827	     12.57376897	     -2.06939542	     -0.61459186	     -0.75992792	      0.71648819	      0.76362181	      6.11916187	     10.31876486	    -64.75986000	     -8.79644668	     -3.61319412	      8.78727697	      3.64611407	     18.89182921	    -19.76756797	     -0.09286651	     -8.92655279
      1.44000000	     85.34835717	     11.96548757	     -2.41397902	     -0.60320090	     -0.76061202	      0.71673231	      1.39641747	      7.52234586	     12.32720016	    -67.39192933	     -8.92660094	     -3.86639529	      9.89485609	      3.86489390	     18.29479636	    -19.51956783	      0.09755348	     -8.85119071
      1.45000000	     84.68220522	     11.34842160	     -2.79989006	     -0.59206226	     -0.76125895	      0.71718278	      1.80387452	      8.75487893	     14.39571457	    -69.81711985	     -8.98229591	     -4.21601201	     10.87494741	      3.90159679	     17.68719623	    -19.15883967	      0.36389250	     -8.70145659
      1.46000000	     84.12747233	     10.75281540	     -3.15853213	     -0.58113563	     -0.76187034	      0.71779322	      2.00522068	      9.76011342	     16.44028251	    -72.00006974	     -8.78649660	     -5.22703297	     11.73560673	      3.72918732	     17.01603529	    -18.72896852	      0.98411529	     -7.85325589
      1.47000000	     83.72088490	     10.15966983	     -3.57367053	     -0.57041438	     -0.76242372	      0.71859247	      1.96682817	     10.62214720	     18.55562373	    -73.91516193	     -8.41000502	     -5.68738628	     12.39753215	      3.59379971	     16.33373345	    -18.19533595	      1.15897642	     -7.38700295
      1.48000000	     83.45780936	      9.57528329	     -4.00132800	     -0.55986402	     -0.76291229	      0.71953540	      1.71370894	     11.33207036	     20.68495180	    -75.53452764	     -7.97431200	     -6.03225216	     12.86475246	      3.56040840	     15.60832501	    -17.59818589	      1.22941364	     -7.18090041
      1.49000000	     83.31531451	      9.07523611	     -4.36698331	     -0.54942859	     -0.76336175	      0.72057093	      1.30254862	     11.78064565	     22.74536986	    -76.85209887	     -6.96284529	     -6.70041863	     13.18797692	      3.48481926	     14.79338099	    -16.96986781	      1.32596188	     -6.77013581
      1.50000000	     83.28809506	      8.58325510	     -4.68656181	     -0.53911205	     -0.76374504	      0.72167548	      0.75803931	     12.11331565	     24.74462607	    -77.85153289	     -6.01776507	     -7.32940806	     13.34565101	      3.64604414	     13.89433767	    -16.32708191	      1.45649774	     -6.40063578
      1.51000000	     83.36907286	      8.11264454	     -4.97144826	     -0.52890236	     -0.76404201	      0.72280826	      0.09424389	     12.31606133	     26.68952303	    -78.53854709	     -5.04440711	     -7.98425998	     13.35844623	      3.98120999	     12.95892063	    -15.72564087	      1.57227652	     -6.12829746
      1.52000000	     83.51712947	      7.67032963	     -5.17800648	     -0.51878723	     -0.76426970	      0.72393173	     -0.61933606	     12.39775236	     28.53387282	    -78.92615993	     -4.05145975	     -8.70015488	     13.27921978	      4.50109773	     11.94223899	    -15.15242959	      1.68604976	     -5.92564543
      1.53000000	     83.75363751	      7.24310554	     -5.36039577	     -0.50877080	     -0.76439410	      0.72503462	     -1.41226621	     12.35702470	     30.31241968	    -79.00652578	     -3.05424956	     -9.48678450	     13.09277340	      5.15859385	     10.93239248	    -14.66620178	      1.78929183	     -5.80371479
      1.54000000	     84.00710520	      6.82529413	     -5.50419125	     -0.49886809	     -0.76443047	      0.72606595	     -2.19451831	     12.24964407	     32.03463473	    -78.82252910	     -2.19476053	    -10.24642936	     12.88358150	      5.90944565	      9.92136085	    -14.24805864	      1.87237068	     -5.74346508
      1.55000000	     84.29107617	      6.38107363	     -5.58276037	     -0.48906246	     -0.76435515	      0.72699454	     -2.97074977	     12.12508451	     33.65070331	    -78.36930269	     -1.37007239	    -11.10493977	     12.64608471	      6.69624994	      8.90237194	    -13.94534778	      1.93889074	     -5.72250159
      1.56000000	     84.56826058	      5.89208997	     -5.61627886	     -0.47938180	     -0.76414296	      0.72778352	     -3.70841100	     12.00964644	     35.19404581	    -77.67910266	     -0.68177850	    -12.06795867	     12.41649327	      7.44238033	      7.91132149	    -13.75945747	      1.97968885	     -5.72331859
      1.57000000	     84.82162000	      5.42373123	     -5.69917524	     -0.46980912	     -0.76386630	      0.72847198	     -4.39193019	     11.81473148	     36.75928529	    -76.74776172	     -0.21965148	    -12.75727409	     12.21133013	      8.10694679	      7.02214630	    -13.62088511	      2.00404336	     -5.68269556
      1.58000000	     85.03290057	      4.86057816	     -5.71272360	     -0.46032684	     -0.76347077	      0.72896619	     -4.99416540	     11.76235023	     38.23170844	    -75.60164063	      0.07587617	    -13.16307999	     12.05037544	      8.73017743	      6.12818145	    -13.59038273	      2.01739911	     -5.60782870
      1.59000000	     85.24421297	      4.30140278	     -5.73471662	     -0.45092373	     -0.76294050	      0.72928347	     -5.55088121	     11.62042927	     39.64145563	    -74.20623525	      0.60320499	    -14.19364713	     11.87738287	      9.01861776	      5.34622904	    -13.68806883	      2.03881176	     -5.49546838
      1.60000000	     85.38171289	      3.69916543	     -5.77756461	     -0.44156506	     -0.76235881	      0.72943786	     -5.99322665	     11.54084626	     41.02952521	    -72.58624967	      0.68544941	    -14.42768110	     11.77138043	      9.36322091	      4.58933234	    -13.77144330	      2.05411527	     -5.39885640
      1.61000000	     85.49736354	      3.07262628	     -5.83112575	     -0.43221251	     -0.76166771	      0.72938580	     -6.36564623	     11.46214559	     42.34081688	    -70.71713309	      0.81234842	    -14.68010837	     11.66880073	      9.52532644	      3.90752473	    -13.94378010	      2.07538987	     -5.28416160
      1.62000000	     85.57380100	      2.42832516	     -5.86473499	     -0.42281092	     -0.76090430	      0.72911380	     -6.63595773	     11.39633617	     43.52588543	    -68.60041453	      0.88127843	    -14.82643480	     11.59769756	      9.60650121	      3.23016060	    -14.15619040	      2.11512096	     -5.16711854
      1.63000000	     85.62078555	      1.77413495	     -5.89375928	     -0.41331087	     -0.76007013	      0.72862165	     -6.80762358	     11.31882341	     44.56734007	    -66.22554251	      0.87938550	    -14.84042518	     11.54711375	      9.65974991	      2.55899476	    -14.40307519	      2.17930663	     -5.06150028
      1.64000000	     85.64496886	      1.11990005	     -5.93551661	     -0.40365649	     -0.75916653	      0.72790872	     -6.88255436	     11.20863684	     45.45314529	    -63.59357502	      0.78636405	    -14.69939375	     11.51088085	      9.73543456	      1.89665562	    -14.67603428	      2.29199169	     -4.95595402
      1.65000000	     85.64718022	      0.47158525	     -5.96696830	     -0.39378352	     -0.75821412	      0.72695618	     -6.84594432	     11.05273054	     46.13362139	    -60.72717173	      0.53514692	    -14.28695422	     11.50032982	      9.87514095	      1.20651835	    -14.97715002	      2.50531379	     -4.84646376
      1.66000000	     85.63964562	     -0.15803105	     -5.86799098	     -0.38361623	     -0.75721274	      0.72570899	     -6.68866093	     10.86493030	     46.47386238	    -57.68208776	      0.18484235	    -13.49295242	     11.51929478	      9.98098827	      0.37649816	    -15.34295400	      2.84141795	     -4.74628062
      1.67000000	     85.61337702	     -0.76005947	     -5.74172844	     -0.37310714	     -0.75616232	      0.72421223	     -6.39933488	     10.57030325	     46.55918113	    -54.50028627	     -0.04227102	    -12.66925753	     11.57273890	     10.18184304	     -0.52487158	    -15.71821349	      3.13594634	     -4.70045604
      1.68000000	     85.60948792	     -1.33951954	     -5.62956673	     -0.36223185	     -0.75503194	      0.72245427	     -6.01906281	     10.12201010	     46.42690148	    -51.25180050	     -0.22906581	    -11.51088340	     11.59669089	     10.39252629	     -1.39295030	    -16.21779492	      3.48937939	     -4.68023698
      1.69000000	     85.59151780	     -1.89271542	     -5.35820562	     -0.35092066	     -0.75389220	      0.72040299	     -5.49454773	      9.58633859	     45.94446936	    -48.08265935	     -0.44919185	    -10.58757638	     11.68340704	     10.64465969	     -2.45661765	    -16.77404440	      3.78388889	     -4.69938601
      1.70000000	     85.60026330	     -2.41094670	     -5.02625992	     -0.33918156	     -0.75271042	      0.71810446	     -4.88642109	      8.89170267	     45.23203209	    -45.08494538	     -0.70507686	     -9.85600365	     11.76166176	     10.87751822	     -3.56302629	    -17.46308636	      4.05023298	     -4.72131695
      1.71000000	     85.64518662	     -2.86963594	     -4.67533448	     -0.32704307	     -0.75149606	      0.71559553	     -4.20348401	      7.95705592	     44.36868046	    -42.37888970	     -0.80612487	     -9.55319809	     11.80250776	     11.00573624	     -4.62839350	    -18.32447974	      4.14309854	     -4.73335342
      1.72000000	     85.77173517	     -3.28842777	     -4.25301407	     -0.31451108	     -0.75026186	      0.71292817	     -3.57968936	      6.93773998	     43.38559053	    -40.09082601	     -0.98533978	     -9.23642914	     11.76310192	     11.01768004	     -5.68287474	    -19.39378129	      4.27084484	     -4.75985979
      1.73000000	     86.00168350	     -3.65501210	     -3.83984633	     -0.30165375	     -0.74900407	      0.71018154	     -3.07924327	      5.82235009	     42.41155382	    -38.30524319	     -1.13493759	     -9.01034501	     11.59047067	     10.87621232	     -6.59535615	    -20.71343739	      4.36715516	     -4.77320529
      1.74000000	     86.35825145	     -3.95677061	     -3.46798690	     -0.28853881	     -0.74772083	      0.70743046	     -2.76168437	      4.61825353	     41.51487481	    -37.07512732	     -1.19939287	     -8.93250140	     11.23822844	     10.53826125	     -7.28932859	    -22.31756994	      4.38323099	     -4.76357726
      1.75000000	     86.85511301	     -4.17955047	     -3.05189602	     -0.27521078	     -0.74642337	      0.70472122	     -2.67513440	      3.37345027	     40.63713012	    -36.42959123	     -1.20225752	     -9.52278006	     10.69689354	      9.94659239	     -7.83672021	    -24.20239515	      4.24116948	     -4.44785656
      1.76000000	     87.51461598	     -4.33001950	     -2.89662812	     -0.26180132	     -0.74504472	      0.70219896	     -2.82572537	      1.96554101	     40.04747450	    -36.26862230	     -1.04469073	    -10.29562171	      9.86865021	      9.14922837	     -7.85769687	    -26.41930516	      3.88749459	     -4.22437904
      1.77000000	     88.33705169	     -4.42201600	     -2.70701330	     -0.24829870	     -0.74361226	      0.69978621	     -3.33867048	      0.73885008	     39.53113788	    -36.65614358	     -1.40151332	    -12.07059137	      8.79344840	      8.05730141	     -7.66686267	    -28.94553553	      3.38989259	     -4.11784087
      1.78000000	     89.29563758	     -4.42693605	     -2.58854063	     -0.23476014	     -0.74214016	      0.69759070	     -4.16415028	     -0.38304737	     39.14172957	    -37.47717235	     -0.82336168	    -12.70273261	      7.51898947	      6.74553134	     -7.18459050	    -31.70913830	      2.53366477	     -3.98191722
      1.79000000	     90.37341717	     -4.34966313	     -2.47378616	     -0.22123439	     -0.74063229	      0.69562778	     -5.26983271	     -1.36947876	     38.76231376	    -38.59488428	     -0.22626526	    -13.52961463	      6.08389315	      5.22023024	     -6.49273470	    -34.67492617	      1.45324837	     -3.94371805
      1.80000000	     91.54433405	     -4.18756492	     -2.35796402	     -0.20777253	     -0.73910039	      0.69393578	     -6.61449234	     -2.19550629	     38.34477939	    -39.87495676	      0.38664122	    -14.38413008	      4.53710447	      3.51748874	     -5.62057706	    -37.78625319	      0.17650570	     -4.03671724
      1.81000000	     92.77235710	     -3.93391827	     -2.25875377	     -0.19443600	     -0.73757444	      0.69257869	     -8.12263330	     -2.87796206	     37.85225080	    -41.16219318	      0.76724514	    -15.41145554	      2.94968827	      1.70143335	     -4.58265484	    -40.96520578	     -1.55733157	     -5.04899647
      1.82000000	     94.02902598	     -3.61058140	     -2.19115400	     -0.18127638	     -0.73605145	      0.69160278	     -9.75765526	     -3.34153326	     37.28139748	    -42.35684660	      1.51813852	    -15.90384763	      1.35180048	     -0.23566135	     -3.35906243	    -44.19849197	     -2.82149533	     -5.01586696
      1.83000000	     95.27511900	     -3.20832688	     -2.16481847	     -0.16834868	     -0.73456867	      0.69107838	    -11.41848116	     -3.65435621	     36.59500895	    -43.32913780	      2.28934900	    -16.28939441	     -0.17081014	     -2.21130028	     -1.97738597	    -47.38871686	     -4.20821011	     -5.32328069
      1.84000000	     96.47854045	     -2.73700959	     -2.21110114	     -0.15570325	     -0.73314616	      0.69105883	    -13.03470413	     -3.83772232	     35.80689542	    -43.99768403	      3.03853486	    -16.46791215	     -1.55911425	     -4.18354532	     -0.41411280	    -50.48177654	     -5.61511574	     -5.95993391
      1.85000000	     97.61297019	     -2.19925217	     -2.29187369	     -0.14336020	     -0.73180954	      0.69155947	    -14.55771921	     -3.89469357	     34.87562711	    -44.32337602	      3.71884530	    -16.08825831	     -2.76730317	     -6.11284124	      1.27320276	    -53.41521602	     -6.99655070	     -7.42529913
      1.86000000	     98.66359566	     -1.65936605	     -2.48724251	     -0.13135100	     -0.73051918	      0.69260449	    -15.93710785	     -3.84972820	     33.88718009	    -44.26641506	      3.87796373	    -16.10097124	     -3.77091765	     -7.95973890	      3.20380267	    -56.20004454	     -7.21897120	     -7.54119666
      1.87000000	     99.55298919	     -1.03672528	     -2.75363439	     -0.11964629	     -0.72937227	      0.69418092	    -17.07477642	     -3.81889598	     32.80669063	    -43.87311306	      4.80742205	    -15.68288632	     -4.46735402	     -9.74927745	      5.27087782	    -58.70219547	     -8.31479645	     -8.18362126
      1.88000000	    100.31472295	     -0.41759958	     -3.08328655	     -0.10825256	     -0.72830256	      0.69623954	    -17.99769305	     -3.78819797	     31.64059456	    -43.12836611	      4.88861095	    -15.49645787	     -4.89623424	    -11.37128602	      7.49851470	    -60.94974250	     -8.32187749	     -8.43772155
      1.89000000	    100.91988160	      0.17642910	     -3.41027925	     -0.09711103	     -0.72733298	      0.69870475	    -18.71793711	     -3.61763560	     30.39089543	    -42.12999911	      5.35890952	    -14.34292444	     -5.04368164	    -12.75071870	      9.79120724	    -62.87926328	     -8.34098406	     -9.25317972
      1.90000000	    101.37660140	      0.76229614	     -3.69306293	     -0.08618327	     -0.72642709	      0.70152752	    -19.18734954	     -3.59429006	     28.96021478	    -40.83601904	      5.44562175	    -14.20514328	     -4.96202052	    -13.91471628	     12.08627980	    -64.47349618	     -8.30045977	     -9.35659121
      1.91000000	    101.62337484	      1.36488642	     -4.07174520	     -0.07549473	     -0.72569268	      0.70459357	    -19.38435143	     -3.63065285	     27.61610904	    -39.44948535	      5.47101798	    -13.73572045	     -4.55229565	    -14.86595592	     14.51955740	    -65.71626032	     -7.91574550	     -9.60855639
      1.92000000	    101.75778133	      1.96100121	     -4.23481974	     -0.06490758	     -0.72499963	      0.70780791	    -19.40733081	     -3.82008101	     25.96109326	    -37.87844339	      5.48200310	    -13.44976855	     -4.06855178	    -15.56584069	     16.70498638	    -66.59583796	     -7.65483647	     -9.76971208
      1.93000000	    101.72084103	      2.49214479	     -4.47258028	     -0.05448414	     -0.72443404	      0.71112440	    -19.22578226	     -4.02279555	     24.41944080	    -36.28417256	      5.37128249	    -12.77131966	     -3.36848775	    -15.90108436	     18.96520312	    -67.12239148	     -6.85631379	    -10.10405058
      1.94000000	    101.59026402	      3.06040775	     -4.47711804	     -0.04412052	     -0.72393373	      0.71438885	    -18.91246333	     -4.48804371	     22.59493401	    -34.63807441	      5.37476828	    -12.49003440	     -2.69791950	    -16.06458145	     20.90017046	    -67.30380613	     -6.56379001	    -10.23863753
      1.95000000	    101.30672192	      3.60384521	     -4.55931562	     -0.03388178	     -0.72361101	      0.71757960	    -18.43164432	     -5.01000969	     20.94200324	    -33.10146625	      5.21785617	    -11.98632138	     -1.89402903	    -15.92203473	     22.85565565	    -67.14775815	     -5.74316491	    -10.60828222
      1.96000000	    100.99482444	      4.17235600	     -4.41247981	     -0.02367911	     -0.72334277	      0.72054916	    -17.93162496	     -5.71243566	     19.06237782	    -31.60515464	      5.19900130	    -11.73739357	     -1.24707471	    -15.64555044	     24.46600807	    -66.70456291	     -5.43489616	    -10.76397048
      1.97000000	    100.62610948	      4.74587417	     -4.27910203	     -0.01356569	     -0.72320461	      0.72328411	    -17.38530913	     -6.51136003	     17.28198631	    -30.24928074	      5.12357320	    -11.47680223	     -0.65121844	    -15.18640195	     25.99978256	    -65.98484475	     -4.98165579	    -11.03186446
      1.98000000	    100.23872284	      5.34363075	     -4.08463061	     -0.00351742	     -0.72318703	      0.72571027	    -16.84847147	     -7.32381722	     15.53728341	    -29.06139766	      5.04126552	    -11.24870383	     -0.18751271	    -14.59936797	     27.36146163	    -65.01019381	     -4.53909146	    -11.32350301
      1.99000000	     99.87313330	      5.96467820	     -3.85680025	      0.00645984	     -0.72326224	      0.72778454	    -16.36319733	     -8.13323137	     13.85029593	    -28.03375473	      4.95643800	    -11.04726949	      0.09771671	    -13.94352346	     28.58929737	    -63.81285543	     -4.11247616	    -11.63617313
      2.00000000	     99.54070777	      6.61942272	     -3.60455256	      0.01637360	     -0.72343945	      0.72948107	    -15.93822398	     -8.88192623	     12.23976223	    -27.18017276	      4.88983771	    -10.87335445	      0.19686890	    -13.25418445	     29.68826856	    -62.40282355	     -3.76453297	    -11.91371117
      2.01000000	     99.27356454	      7.30892357	     -3.35565716	      0.02622318	     -0.72370114	      0.73079040	    -15.59642516	     -9.55079562	     10.72106206	    -26.47735631	      4.83716792	    -10.71020918	      0.08306674	    -12.57465066	     30.68665645	    -60.79146301	     -3.47845349	    -12.15933701
      2.02000000	     99.07043452	      8.04217823	     -3.11737532	      0.03601999	     -0.72403840	      0.73170712	    -15.32764562	    -10.12366583	      9.29306741	    -25.91041963	      4.81192624	    -10.54646920	     -0.23172159	    -11.93692946	     31.58564107	    -58.98396979	     -3.28630444	    -12.32248617
      2.03000000	     98.95064657	      8.81227264	     -2.91243309	      0.04577621	     -0.72444487	      0.73223970	    -15.13749482	    -10.58186319	      7.96380028	    -25.45034786	      4.81215592	    -10.36657507	     -0.75258386	    -11.36361182	     32.39965795	    -56.98439365	     -3.17136326	    -12.40394864
      2.04000000	     98.90235363	      9.61206151	     -2.74740248	      0.05550967	     -0.72491384	      0.73241114	    -15.00404429	    -10.92746664	      6.72823191	    -25.07654925	      4.84518833	    -10.16835606	     -1.44982810	    -10.86967080	     33.12132515	    -54.78608156	     -3.14595696	    -12.37521267
      2.05000000	     98.93327753	     10.44029954	     -2.62460516	      0.06525541	     -0.72543483	      0.73223518	    -14.92989802	    -11.19674199	      5.55895687	    -24.75262133	      4.92353146	     -9.91452767	     -2.31450396	    -10.46217586	     33.73645597	    -52.40436743	     -3.21892939	    -12.21381057
      2.06000000	     99.02603255	     11.28145512	     -2.54308414	      0.07504314	     -0.72600168	      0.73174334	    -14.89148344	    -11.39264016	      4.44356557	    -24.45679741	      5.05778637	     -9.61667127	     -3.30750067	    -10.14092351	     34.22909840	    -49.84405688	     -3.40413150	    -11.89811684
      2.07000000	     99.15871062	     12.10209577	     -2.52152832	      0.08490327	     -0.72661806	      0.73094281	    -14.84129793	    -11.29595258	      3.48618013	    -24.30286121	      5.90370599	     -8.14047372	     -4.37844158	     -9.85564470	     34.61635345	    -47.13995238	     -3.50167690	    -10.72277915
      2.08000000	     99.32848048	     12.94516888	     -2.50342073	      0.09489851	     -0.72729852	      0.72989665	    -14.82515676	    -11.46126912	      2.42219074	    -24.03457775	      6.01733287	     -8.00680576	     -5.51760876	     -9.64593158	     34.80599520	    -44.30342639	     -3.80648650	    -10.36388640
      2.09000000	     99.50791326	     13.74621176	     -2.51441724	      0.10506626	     -0.72801974	      0.72859294	    -14.77412452	    -11.43625079	      1.45182212	    -23.87614120	      6.59069599	     -7.26569092	     -6.66270113	     -9.44587068	     34.85748451	    -41.42191250	     -4.33625407	     -9.19126392
      2.10000000	     99.70064969	     14.53208186	     -2.55127120	      0.11545057	     -0.72880548	      0.72710415	    -14.73778505	    -11.63684782	      0.42527793	    -23.65533803	      6.84438447	     -7.08816554	     -7.80319053	     -9.25867752	     34.75321426	    -38.53944772	     -4.99693749	     -8.53198489
      2.11000000	     99.90829916	     15.24693534	     -2.57339600	      0.12608038	     -0.72961995	      0.72541372	    -14.71154107	    -11.81854226	     -0.61696761	    -23.48131778	      7.19737271	     -6.84397508	     -8.93090053	     -9.00526132	     34.49410501	    -35.77467070	     -5.70650529	     -7.79301710
      2.12000000	    100.09882794	     15.90399138	     -2.53120169	      0.13700307	     -0.73048573	      0.72357164	    -14.68795763	    -12.07374903	     -1.74943759	    -23.32811388	      7.43380568	     -6.68524133	     -9.99157988	     -8.69834940	     34.05546347	    -33.20855613	     -6.17049236	     -7.33218025
      2.13000000	    100.24725743	     16.49601613	     -2.52520519	      0.14819483	     -0.73141660	      0.72164992	    -14.62137759	    -12.39021985	     -2.80372235	    -23.29144458	      7.73834631	     -6.53164202	    -10.92259141	     -8.33701696	     33.57444195	    -30.90494412	     -6.78979953	     -6.80330439
      2.14000000	    100.30340724	     17.04713493	     -2.52970262	      0.15969195	     -0.73243868	      0.71971401	    -14.46217225	    -12.76438212	     -3.77249171	    -23.41113397	      8.15408597	     -6.32891710	    -11.62262547	     -8.02881495	     33.06389184	    -28.92331209	     -7.53698216	     -6.26157489
      2.15000000	    100.33073835	     17.47695140	     -2.63518396	      0.17140170	     -0.73351749	      0.71778992	    -14.25885915	    -13.08618441	     -4.51555830	    -23.75581434	      8.69195005	     -5.96188098	    -12.19378028	     -7.56525763	     32.63463796	    -27.31713812	     -8.23000561	     -5.93542873
      2.16000000	    100.28335557	     17.82667992	     -2.66315965	      0.18337982	     -0.73462611	      0.71590924	    -14.03872146	    -13.46339236	     -5.27015895	    -24.26119842	      8.88321718	     -5.80888197	    -12.55210275	     -7.10230635	     32.14278691	    -26.13371862	     -8.42274785	     -5.89891022
      2.17000000	    100.15013145	     18.08160868	     -2.83682581	      0.19555675	     -0.73580793	      0.71418268	    -13.71558297	    -13.82005919	     -5.70645705	    -25.04595752	      8.94553253	     -5.76480732	    -12.66947225	     -6.61504258	     31.80487479	    -25.30623779	     -8.46943888	     -5.88783476
      2.18000000	     99.95084550	     18.19302881	     -2.94285228	      0.20789101	     -0.73697019	      0.71254022	    -13.35484429	    -13.96272417	     -6.02041665	    -26.13945003	      9.15357847	     -5.69473786	    -12.61051809	     -6.01189094	     31.43442442	    -24.85750129	     -8.52729168	     -6.10762463
      2.19000000	     99.63371364	     18.23162463	     -3.12979346	      0.22038604	     -0.73818798	      0.71109743	    -12.87394988	    -14.03594787	     -6.05027177	    -27.54189473	      9.23476619	     -5.62419598	    -12.26841707	     -5.48230064	     31.16787644	    -24.70195154	     -8.39706479	     -6.47652880
      2.20000000	     99.22777167	     18.14154765	     -3.29463070	      0.23299512	     -0.73938255	      0.70982810	    -12.33446359	    -13.91320212	     -5.90930260	    -29.22996514	      9.20582846	     -5.57977587	    -11.72341912	     -4.91331246	     30.89948078	    -24.79237548	     -8.11979543	     -6.92848920
      2.21000000	     98.71961901	     17.93729020	     -3.49588091	      0.24568107	     -0.74057962	      0.70879357	    -11.72104540	    -13.64890899	     -5.55381433	    -31.16180575	      9.02582619	     -5.38583121	    -10.99679511	     -4.26006221	     30.65756473	    -25.03132555	     -7.46686493	     -7.93499859
      2.22000000	     98.09056059	     17.59189699	     -3.59810067	      0.25840042	     -0.74172441	      0.70792927	    -10.99896197	    -13.00206654	     -5.05932555	    -33.37772637	      8.69650588	     -5.37026913	    -10.06000405	     -3.59592126	     30.34427880	    -25.40135805	     -6.97509939	     -8.57668199
      2.23000000	     97.35750979	     17.11703736	     -3.66011255	      0.27110632	     -0.74282200	      0.70728327	    -10.20354079	    -12.08208811	     -4.42054189	    -35.80173373	      8.15001298	     -5.43774071	     -8.95778108	     -2.91468649	     29.99003197	    -25.82545524	     -6.31270594	     -9.18741038
      2.24000000	     96.53795937	     16.51105743	     -3.65354277	      0.28375414	     -0.74385337	      0.70684158	     -9.35281881	    -10.85435325	     -3.68330768	    -38.39289818	      7.29667711	     -5.63015066	     -7.71354499	     -2.27265369	     29.57321948	    -26.28277883	     -5.52169391	     -9.76717340
      2.25000000	     95.60289378	     15.77926823	     -3.65578995	      0.29629006	     -0.74485706	      0.70670395	     -8.41414054	     -9.38680304	     -2.78425570	    -41.10011543	      6.25399394	     -5.93495277	     -6.35026431	     -1.55061341	     29.10819570	    -26.62259969	     -4.74437728	    -10.16687872
      2.26000000	     94.59635548	     14.93011618	     -3.61257846	      0.30868066	     -0.74579687	      0.70681961	     -7.44519910	     -7.67539070	     -1.81403892	    -43.87483108	      4.89333640	     -6.46602838	     -4.90297832	     -0.85383357	     28.55578959	    -26.87502356	     -3.95223493	    -10.40071701
      2.27000000	     93.53347001	     13.97531524	     -3.58804513	      0.32087914	     -0.74669334	      0.70722662	     -6.45596570	     -5.76668204	     -0.72443090	    -46.67640656	      3.34185035	     -7.18425123	     -3.40862348	     -0.15839443	     27.94840435	    -26.97525355	     -3.22256748	    -10.44534248
      2.28000000	     92.44814930	     12.94446967	     -3.59317479	      0.33286328	     -0.74753626	      0.70793080	     -5.50218813	     -3.76009154	      0.45758307	    -49.44815763	      1.51292624	     -9.01015228	     -1.90103381	      0.47540288	     27.27704064	    -26.89759141	     -2.55388599	     -9.98343392
      2.29000000	     91.34470194	     11.88862614	     -3.67170074	      0.34461430	     -0.74839133	      0.70892205	     -4.54972481	     -1.60875797	      1.82383052	    -52.22727012	      0.18131955	     -9.24841292	     -0.40571877	      1.07564242	     26.56245325	    -26.60978232	     -2.07472607	     -9.99472942
      2.30000000	     90.26804376	     10.82219004	     -3.80693033	      0.35613187	     -0.74922399	      0.71018258	     -3.69049932	      0.53930188	      3.29415061	    -54.91371894	     -1.41899228	    -10.00840730	      1.03461763	      1.60934180	     25.78429925	    -26.12280322	     -1.62928037	     -9.71959986
      2.31000000	     89.25179005	      9.78145949	     -4.03595017	      0.36740550	     -0.75003909	      0.71168484	     -2.96746692	      2.62626530	      4.91373304	    -57.49145936	     -2.90179135	    -11.12384626	      2.37802956	      2.07826277	     24.97922672	    -25.44502012	     -1.24036958	     -9.23283439
      2.32000000	     88.30144971	      8.80455151	     -4.28586731	      0.37846307	     -0.75085911	      0.71337070	     -2.37747027	      4.62302525	      6.61658004	    -59.94171096	     -4.01161567	    -12.19175031	      3.62309763	      2.47371517	     24.07692678	    -24.59060558	     -0.90441798	     -8.69487895
      2.33000000	     87.43573186	      7.92633813	     -4.57488384	      0.38930497	     -0.75170050	      0.71519078	     -1.93698927	      6.49678153	      8.44484215	    -62.26498225	     -4.23163673	    -12.38816124	      4.73801111	      2.84861749	     23.10395322	    -23.57728496	     -0.82547231	     -8.57074497
      2.34000000	     86.66161603	      7.19830873	     -4.89946580	      0.39996787	     -0.75256897	      0.71713025	     -1.66109989	      8.12832293	     10.38375837	    -64.40998239	     -4.44996761	    -12.54620558	      5.73297082	      3.13870934	     22.07023302	    -22.41866996	     -0.75459367	     -8.41627816
      2.35000000	     86.01639733	      6.58677839	     -5.23586652	      0.41042955	     -0.75343594	      0.71909321	     -1.58421714	      9.55155866	     12.41436584	    -66.36378981	     -4.60132451	    -12.69884045	      6.55896115	      3.44220359	     21.00063868	    -21.21330655	     -0.68799991	     -8.22138606
      2.36000000	     85.49054851	      6.11841001	     -5.56540119	      0.42071966	     -0.75429962	      0.72103227	     -1.68460679	     10.72674262	     14.52083760	    -68.11725463	     -4.62605573	    -12.84826279	      7.23288684	      3.75127948	     19.89699182	    -19.98940379	     -0.62024951	     -8.00048475
      2.37000000	     85.09362841	      5.76394246	     -5.90487444	      0.43083150	     -0.75513159	      0.72288835	     -1.96828305	     11.69208868	     16.72036010	    -69.66186149	     -4.42392398	    -13.01307510	      7.75042373	      4.07107374	     18.82508379	    -18.82652495	     -0.52897220	     -7.69405984
      2.38000000	     84.75725098	      5.59062125	     -6.13550684	      0.44083274	     -0.75599691	      0.72465904	     -2.31873246	     12.33597241	     18.86951521	    -70.98520307	     -4.13867232	    -13.12573463	      8.18569830	      4.46411235	     17.61217705	    -17.62798769	     -0.43459583	     -7.49350519
      2.39000000	     84.51987838	      5.51787891	     -6.35717270	      0.45067375	     -0.75681407	      0.72625951	     -2.79191300	     12.78185460	     21.07657169	    -72.10376063	     -3.62120405	    -13.23653890	      8.50414357	      4.89930624	     16.45384326	    -16.55797012	     -0.32264695	     -7.30600601
      2.40000000	     84.36743951	      5.58287449	     -6.53722945	      0.46036812	     -0.75759234	      0.72765793	     -3.35445015	     12.95449138	     23.28835112	    -73.02402721	     -2.41692742	    -13.27495666	      8.75169140	      5.19480181	     15.34644686	    -15.64961136	     -0.11819378	     -7.09910820
      2.41000000	     84.20919905	      5.67425504	     -6.54482380	      0.46997005	     -0.75834885	      0.72882780	     -3.85403287	     13.08531102	     25.35417353	    -73.74015994	     -2.00719557	    -13.29522624	      8.98970871	      5.73189628	     14.08112101	    -14.80161871	     -0.01203106	     -7.00575519
      2.42000000	     84.11964251	      5.86334358	     -6.57675410	      0.47941692	     -0.75903796	      0.72975805	     -4.42509977	     12.99143777	     27.47220350	    -74.27739940	     -0.74323294	    -13.36073470	      9.17791845	      6.07506021	     12.97170483	    -14.17172411	      0.21042798	     -6.98487908
      2.43000000	     84.03301121	      6.06196353	     -6.51397232	      0.48877462	     -0.75967863	      0.73048523	     -4.95265651	     12.82531898	     29.48478854	    -74.60457361	     -0.36913183	    -13.45575895	      9.36222557	      6.56441746	     11.79154261	    -13.60027327	      0.30629851	     -6.93277229
      2.44000000	     83.99211389	      6.28931622	     -6.45312566	      0.49801485	     -0.76021793	      0.73096759	     -5.50580805	     12.50471257	     31.47883379	    -74.74378658	      0.55640743	    -13.82034480	      9.51746644	      6.86919986	     10.72801261	    -13.22026864	      0.51861972	     -6.94937717
      2.45000000	     83.89656452	      6.47564322	     -6.32707295	      0.50716113	     -0.76071941	      0.73118979	     -5.95476931	     12.25281624	     33.42215041	    -74.72864861	      0.94679873	    -14.06081475	      9.73991937	      7.21999124	      9.65332230	    -12.93227131	      0.64249926	     -6.91165843
      2.46000000	     83.82444350	      6.64103595	     -6.22241471	      0.51623026	     -0.76112234	      0.73120209	     -6.39756989	     11.92390756	     35.34257370	    -74.51283589	      1.46936633	    -14.46871948	      9.94505742	      7.45955861	      8.67518505	    -12.76778805	      0.82805542	     -6.88392787
      2.47000000	     83.75370153	      6.78883771	     -6.03209611	      0.52526303	     -0.76144422	      0.73096820	     -6.77456036	     11.55352568	     37.11841681	    -74.10323163	      2.10109754	    -15.16756550	     10.17315075	      7.46114690	      7.68825572	    -12.72988195	      1.15520362	     -6.80168010
      2.48000000	     83.66320238	      6.85496493	     -5.89180776	      0.53426412	     -0.76167648	      0.73055142	     -7.10051446	     11.23978654	     38.90046691	    -73.49066176	      2.34870391	    -15.78775601	     10.41195474	      7.51132561	      6.78331749	    -12.74820514	      1.49688687	     -6.59362126
      2.49000000	     83.58468370	      6.85764332	     -5.77621799	      0.54327236	     -0.76181326	      0.72999400	     -7.38919427	     10.93522304	     40.61785342	    -72.63681721	      2.42718381	    -15.95599921	     10.63359785	      7.58909763	      5.90868629	    -12.78180987	      1.62451747	     -6.52306411
      2.50000000	     83.51649284	      6.79825744	     -5.68670336	      0.55232841	     -0.76184328	      0.72927181	     -7.63165789	     10.64374660	     42.25626773	    -71.53917111	      2.55413800	    -16.17974543	     10.84062787	      7.58921843	      5.09739611	    -12.89184067	      1.84859214	     -6.45103349
      2.51000000	     83.45418872	      6.68318029	     -5.60051212	      0.56148012	     -0.76178819	      0.72841585	     -7.80411282	     10.36150231	     43.76343295	    -70.17763597	      2.61528435	    -16.31869402	     11.04084158	      7.56902901	      4.29209563	    -13.02506498	      2.10559256	     -6.37121008
      2.52000000	     83.44154800	      6.50327975	     -5.50477479	      0.57077120	     -0.76160540	      0.72744498	     -7.94108071	     10.08641349	     45.07813189	    -68.51814401	      2.52062402	    -16.35541103	     11.18355004	      7.51053629	      3.49234755	    -13.23160552	      2.72076404	     -6.10057123
      2.53000000	     83.41210198	      6.30429942	     -5.40730743	      0.58025735	     -0.76134961	      0.72637502	     -7.95034314	      9.75777483	     46.19871124	    -66.58298188	      2.49359620	    -16.28052418	     11.34861825	      7.51834291	      2.65679224	    -13.41128291	      2.79028227	     -6.05840211
      2.54000000	     83.42563898	      6.00944647	     -5.42165604	      0.58996152	     -0.76095919	      0.72524123	     -7.94261111	      9.50288562	     47.22819621	    -64.35925978	      2.11920726	    -15.60779777	     11.44347822	      7.63657822	      1.93215784	    -13.64985746	      3.26383974	     -5.91764243
      2.55000000	     83.47267847	      5.70664490	     -5.32869039	      0.59998552	     -0.76045863	      0.72400051	     -7.80620648	      9.15710133	     47.87023995	    -61.86171547	      2.10623644	    -15.49437848	     11.51210890	      7.69798269	      1.08246925	    -13.92514162	      3.31118139	     -5.89951828
      2.56000000	     83.52385970	      5.35522238	     -5.31680272	      0.61030123	     -0.75986521	      0.72269826	     -7.56141535	      8.77246057	     48.34314174	    -59.13838195	      1.48674446	    -14.15546794	     11.57902313	      7.99756904	      0.29597342	    -14.26088777	      3.82727797	     -5.81862913
      2.57000000	     83.61309774	      4.95621236	     -5.24619899	      0.62102575	     -0.75913666	      0.72129209	     -7.22610748	      8.38403937	     48.49146351	    -56.25966785	      1.74941905	    -12.46887835	     11.60841200	      8.31952095	     -0.55877582	    -14.67846672	      4.20414349	     -5.48375727
      2.58000000	     83.70202463	      4.58892684	     -5.04407351	      0.63215992	     -0.75833640	      0.71974158	     -6.66853281	      7.77792589	     48.21082217	    -53.28426190	      1.41099198	    -12.02174705	     11.66524689	      8.58615198	     -1.54290353	    -15.18479532	      4.31904063	     -5.49607824
      2.59000000	     83.87904083	      4.14750532	     -4.79653091	      0.64372934	     -0.75737899	      0.71808866	     -6.11328675	      7.21737462	     47.64981457	    -50.30114115	      0.70346973	    -11.11084196	     11.62547969	      8.87022091	     -2.53565572	    -15.87779146	      4.54404594	     -5.50881962
      2.60000000	     84.07082281	      3.73452491	     -4.53204247	      0.65571508	     -0.75634686	      0.71631287	     -5.40777740	      6.42696550	     46.84779499	    -47.43261909	      0.31262284	    -10.42863803	     11.58152990	      9.10293161	     -3.49670964	    -16.73735458	      4.67252983	     -5.46350624
      2.61000000	     84.31246640	      3.32223829	     -4.23219470	      0.66810541	     -0.75522313	      0.71443015	     -4.66202611	      5.52491020	     45.85106991	    -44.79270826	     -0.07524243	     -9.76649027	     11.49187686	      9.27024906	     -4.42539983	    -17.79939570	      4.77868139	     -5.38267019
      2.62000000	     84.62026788	      2.93293726	     -3.91800994	      0.68086356	     -0.75402588	      0.71246440	     -3.92856129	      4.49106217	     44.72933398	    -42.48281993	     -0.35317807	     -9.28927070	     11.33212394	      9.31819443	     -5.27232717	    -19.08983448	      4.81488045	     -5.28041422
      2.63000000	     85.00195312	      2.57895443	     -3.65476471	      0.69392668	     -0.75275123	      0.71045997	     -3.25798725	      3.31367830	     43.59888181	    -40.58755492	     -0.45339099	     -9.06022491	     11.07342686	      9.22029457	     -5.94421748	    -20.61945182	      4.76543444	     -5.23841250
      2.64000000	     85.51219205	      2.26094235	     -3.36348131	      0.70725960	     -0.75139873	      0.70843763	     -2.80713147	      2.14021529	     42.44208104	    -39.17961857	     -0.53328610	     -8.93578690	     10.64346100	      8.86675457	     -6.48865508	    -22.42064918	      4.63226456	     -5.18817134
      2.65000000	     86.14707091	      1.99436041	     -3.12498670	      0.72077641	     -0.74997072	      0.70644890	     -2.60919088	      0.97104985	     41.37446401	    -38.28789996	     -0.53575401	     -8.95792622	     10.02729439	      8.26782747	     -6.80383285	    -24.48504822	      4.39203714	     -5.13100489
      2.66000000	     86.90188361	      1.79609333	     -2.90942388	      0.73443162	     -0.74847579	      0.70456766	     -2.65763247	     -0.23140537	     40.35107157	    -37.86877355	     -0.38040566	     -9.63850487	      9.24380807	      7.44044499	     -6.93885069	    -26.74920685	      3.58784312	     -4.81352397
      2.67000000	     87.80407771	      1.62815725	     -2.85288231	      0.74812185	     -0.74685334	      0.70278711	     -3.07918053	     -1.25515512	     39.56916631	    -37.93370999	     -0.18251492	    -10.61233885	      8.19471503	      6.33181538	     -6.67866921	    -29.29933659	      2.78022529	     -4.78752292
      2.68000000	     88.83576242	      1.53096377	     -2.82257861	      0.76183098	     -0.74515846	      0.70118100	     -3.80420202	     -2.20683130	     38.82857454	    -38.35290628	      0.11614715	    -11.45893464	      6.98064831	      5.03509042	     -6.23473838	    -32.00528435	      1.84288524	     -4.88159650
      2.69000000	     89.94439006	      1.51999438	     -2.82852129	      0.77548963	     -0.74342408	      0.69973286	     -4.79884299	     -3.00071633	     38.16414463	    -39.08874787	      0.11561678	    -12.81489917	      5.65102880	      3.51115956	     -5.58578267	    -34.84271692	      0.45516897	     -5.75018362
      2.70000000	     91.14316495	      1.55211932	     -2.89621591	      0.78905306	     -0.74161466	      0.69851833	     -6.07305670	     -3.55983378	     37.55563850	    -40.00125593	      0.79311733	    -13.37384206	      4.19867483	      1.81444241	     -4.70134114	    -37.81072548	     -0.68426232	     -5.75109154
      2.71000000	     92.38588887	      1.64611114	     -2.97318433	      0.80246945	     -0.73978506	      0.69756042	     -7.52065297	     -3.94455785	     36.91060319	    -40.96561398	      1.51530056	    -13.97393031	      2.71594237	      0.00881161	     -3.66792228	    -40.82608878	     -2.06785678	     -6.08894325
      2.72000000	     93.64700091	      1.80165165	     -3.08751720	      0.81568440	     -0.73796055	      0.69692298	     -9.06999950	     -4.17899863	     36.22018773	    -41.85306764	      2.22829646	    -14.46664528	      1.25384105	     -1.86184772	     -2.46365152	    -43.84518997	     -3.52416842	     -6.69120191
      2.73000000	     94.89328410	      2.00606810	     -3.25995146	      0.82864329	     -0.73617099	      0.69665902	    -10.64471856	     -4.27984343	     35.48472470	    -42.57018306	      2.93629653	    -14.78489903	     -0.12337903	     -3.73858453	     -1.06941203	    -46.82488269	     -4.97207370	     -7.53104176
      2.74000000	     96.11892587	      2.23064442	     -3.46536609	      0.84131583	     -0.73441419	      0.69679878	    -12.20596251	     -4.25032617	     34.65617979	    -43.02897678	      3.09781321	    -14.84221970	     -1.39831796	     -5.58376778	      0.49622973	    -49.75063646	     -5.27339886	     -7.75596728
      2.75000000	     97.23366608	      2.53831410	     -3.65462973	      0.85370660	     -0.73278317	      0.69735374	    -13.62090550	     -4.18696609	     33.69544862	    -43.24204911	      4.19801799	    -14.76516604	     -2.45161413	     -7.39599229	      2.13719755	    -52.49082052	     -7.13681687	     -9.22750411
      2.76000000	     98.27655955	      2.79392943	     -3.99708697	      0.86574500	     -0.73120834	      0.69838923	    -14.90918446	     -4.02774602	     32.76910724	    -43.11645847	      4.32692909	    -14.75741774	     -3.29623823	     -9.03971772	      4.10265499	    -55.12258246	     -7.28785328	     -9.39149203
      2.77000000	     99.15773189	      3.11415164	     -4.40493227	      0.87747778	     -0.72980338	      0.69986967	    -15.94851560	     -3.95181551	     31.79813316	    -42.71724150	      5.28942842	    -14.27963085	     -3.82890128	    -10.59451672	      6.23708713	    -57.50438830	     -8.13331123	    -10.23817348
      2.78000000	     99.92687652	      3.41822144	     -4.78504276	      0.88892248	     -0.72849905	      0.70173539	    -16.80008113	     -3.88655269	     30.68872453	    -42.01572262	      5.34894145	    -14.13032940	     -4.13679063	    -11.97750530	      8.46105543	    -59.66604504	     -8.11146733	    -10.41564309
      2.79000000	    100.53702998	      3.69282998	     -5.17238265	      0.90010534	     -0.72732926	      0.70394946	    -17.43976741	     -3.75977419	     29.54073708	    -41.10741684	      5.90415157	    -13.12892190	     -4.16450826	    -13.12285610	     10.79560796	    -61.55485108	     -7.97749931	    -10.72590250
      2.80000000	    101.00452040	      3.97637703	     -5.51276948	      0.91106125	     -0.72628674	      0.70645337	    -17.83654169	     -3.83262438	     28.24513716	    -39.95786543	      5.94524780	    -13.00644095	     -3.97270760	    -14.08374764	     13.15150826	    -63.14527833	     -7.81362773	    -10.85181315
      2.81000000	    101.30633865	      4.25118967	     -5.84211782	      0.92180585	     -0.72539593	      0.70917587	    -18.00496489	     -3.99130534	     26.91005969	    -38.67012471	      5.94895974	    -12.80355107	     -3.54443387	    -14.81153201	     15.55236600	    -64.42299988	     -7.50707627	    -10.99667356
      2.82000000	    101.47069549	      4.50125289	     -6.10387030	      0.93238926	     -0.72463751	      0.71199591	    -18.00553775	     -4.15275497	     25.51864817	    -37.32029607	      5.86283896	    -12.23956496	     -2.96281890	    -15.29811591	     17.91289014	    -65.40215632	     -6.59186486	    -11.09943774
      2.83000000	    101.52798705	      4.76968779	     -6.28850760	      0.94283003	     -0.72398819	      0.71486542	    -17.84579912	     -4.54417847	     24.01400713	    -35.89055388	      5.87723438	    -12.06066206	     -2.30345782	    -15.61697150	     20.18587486	    -66.06816414	     -6.36107652	    -11.17478590
      2.84000000	    101.37836989	      5.05017226	     -6.49627467	      0.95312812	     -0.72355550	      0.71775334	    -17.44377338	     -5.04128819	     22.59662016	    -34.51344126	      5.75983001	    -11.77238778	     -1.42817243	    -15.66806511	     22.44878285	    -66.38466376	     -5.77074461	    -11.36795672
      2.85000000	    101.19924554	      5.33267823	     -6.59113601	      0.96333363	     -0.72319581	      0.72048829	    -17.01753580	     -5.60791479	     21.09208830	    -33.16929094	      5.60549142	    -11.49497598	     -0.63795158	    -15.58265265	     24.54788941	    -66.44340687	     -5.11856745	    -11.59507750
      2.86000000	    100.98804278	      5.63328607	     -6.56970153	      0.97345238	     -0.72291476	      0.72302716	    -16.56930663	     -6.29120318	     19.49597509	    -31.87695472	      5.53893452	    -11.30301574	      0.05380541	    -15.38285817	     26.45780378	    -66.24129106	     -4.75213434	    -11.76664997
      2.87000000	    100.69875345	      5.94951576	     -6.59302455	      0.98346414	     -0.72278889	      0.72534484	    -16.05643159	     -6.93284321	     18.06529613	    -30.75345785	      5.32496014	    -11.10028611	      0.74054419	    -15.02393520	     28.34163027	    -65.76823540	     -4.03054008	    -12.15915909
      2.88000000	    100.37835597	      6.34651732	     -6.46828908	      0.99342114	     -0.72276702	      0.72736079	    -15.53925583	     -7.65385075	     16.54510730	    -29.76788402	      5.26899582	    -10.95515127	      1.29942720	    -14.67353840	     29.97091498	    -65.04264584	     -3.74471460	    -12.34441251
      2.89000000	    100.07814382	      6.75876120	     -6.36910387	      1.00329142	     -0.72282195	      0.72906110	    -15.06846364	     -8.31517911	     15.14337727	    -28.92803107	      5.19646683	    -10.81848407	      1.71109787	    -14.25886948	     31.54585610	    -64.09276296	     -3.41491583	    -12.58957283
      2.90000000	     99.80663667	      7.20544219	     -6.23937410	      1.01310839	     -0.72295266	      0.73040521	    -14.65546144	     -8.88562409	     13.80019800	    -28.24234809	      5.12754281	    -10.69205909	      1.95003936	    -13.83550947	     32.99324282	    -62.92254373	     -3.10441705	    -12.84113963
      2.91000000	     99.58031064	      7.68644274	     -6.08846585	      1.02287440	     -0.72313818	      0.73138240	    -14.31371175	     -9.34245729	     12.52049183	    -27.70191804	      5.07968866	    -10.57175811	      2.00295212	    -13.43168592	     34.31677674	    -61.53184467	     -2.85846376	    -13.05066591
      2.92000000	     99.40786965	      8.21246863	     -5.92912429	      1.03262469	     -0.72338066	      0.73199296	    -14.03960851	     -9.69542271	     11.29843344	    -27.28002233	      5.06910607	    -10.45124785	      1.87000685	    -13.07178595	     35.51399666	    -59.91822764	     -2.71467008	    -13.16453324
      2.93000000	     99.29917143	      8.75852230	     -5.77454031	      1.04237738	     -0.72365802	      0.73224561	    -13.83821303	     -9.94006146	     10.13505659	    -26.95847746	      5.09231912	    -10.32052042	      1.55028543	    -12.75239745	     36.58679994	    -58.07495513	     -2.65978797	    -13.18203841
      2.94000000	     99.25510393	      9.32985560	     -5.62370162	      1.05216940	     -0.72396986	      0.73215331	    -13.70237376	    -10.10665528	      9.00699524	    -26.70892730	      5.15514178	    -10.17473407	      1.05475221	    -12.48955658	     37.51261345	    -55.99670191	     -2.71120639	    -13.07648890
      2.95000000	     99.27752001	      9.91448210	     -5.47349021	      1.06204345	     -0.72430516	      0.73172992	    -13.63096283	    -10.21770837	      7.88808917	    -26.50288046	      5.27718273	     -9.98759709	      0.39301024	    -12.27720734	     38.26718575	    -53.68482870	     -2.90903975	    -12.79465053
      2.96000000	     99.32752316	     10.48705558	     -5.36165525	      1.07202718	     -0.72468175	      0.73100248	    -13.56299664	    -10.13565769	      6.87357758	    -26.40408397	      5.65239473	     -9.52868648	     -0.37211152	    -12.06972388	     38.87018160	    -51.12774799	     -3.44235487	    -11.94961254
      2.97000000	     99.45699538	     11.06965470	     -5.19647235	      1.08220840	     -0.72507242	      0.72996430	    -13.58140220	    -10.17915489	      5.72011093	    -26.24548783	      5.80889707	     -9.35543262	     -1.30509468	    -11.89896958	     39.19885058	    -48.37528782	     -3.66354628	    -11.57616505
      2.98000000	     99.57152748	     11.64218072	     -5.08993879	      1.09260123	     -0.72553349	      0.72867795	    -13.54405291	    -10.11241366	      4.68287819	    -26.19688502	      6.23069286	     -8.98651849	     -2.25987766	    -11.71062340	     39.36153469	    -45.41238879	     -4.42845395	    -10.48171366
      2.99000000	     99.77355827	     12.17310702	     -4.88070189	      1.10327710	     -0.72598106	      0.72708113	    -13.61987477	    -10.14671981	      3.44599247	    -26.09341875	      6.43538567	     -8.80823155	     -3.39443250	    -11.43677624	     39.18583962	    -42.36453333	     -4.78850526	     -9.94132707
      3.00000000	     99.93276089	     12.70415178	     -4.77049414	      1.11426647	     -0.72653980	      0.72529284	    -13.59558308	    -10.13970545	      2.36601127	    -26.11130708	      6.97032623	     -8.39994183	     -4.47664468	    -11.13309954	     38.88935215	    -39.22468556	     -5.72262362	     -8.60137236
      3.01000000	    100.10256717	     13.21392763	     -4.53069884	      1.12563016	     -0.72713223	      0.72324991	    -13.60486547	    -10.22116252	      1.10853633	    -26.15545035	      7.39346877	     -8.04110815	     -5.61583070	    -10.74161922	     38.26032942	    -36.15057071	     -6.33167713	     -7.62439492
      3.02000000	    100.25229092	     13.69841665	     -4.27282126	      1.13737308	     -0.72779653	      0.72102286	    -13.58595124	    -10.34054077	     -0.15543294	    -26.28974670	      7.77355054	     -7.75528802	     -6.73753461	    -10.23831350	     37.44736388	    -33.22500986	     -6.93029924	     -6.79099157
      3.03000000	    100.37859350	     14.13632375	     -3.96334188	      1.14947307	     -0.72851659	      0.71863001	    -13.55296780	    -10.47544028	     -1.43580953	    -26.55558629	      7.93911778	     -7.64321218	     -7.83716021	     -9.56861650	     36.46588975	    -30.57006080	     -7.22665642	     -6.39151099
      3.04000000	    100.40000436	     14.58053057	     -3.68945666	      1.16192262	     -0.72935650	      0.71619864	    -13.39662174	    -10.66309767	     -2.58060432	    -27.02967127	      8.40006869	     -7.34047515	     -8.73585618	     -8.89126175	     35.45999769	    -28.24690597	     -7.92769913	     -5.64092283
      3.05000000	    100.36558756	     14.95604218	     -3.41245292	      1.17464651	     -0.73025696	      0.71372897	    -13.18534866	    -10.79107623	     -3.60714967	    -27.73325470	      8.50514464	     -7.23957142	     -9.52527502	     -8.03937566	     34.44109373	    -26.38003867	     -8.02341114	     -5.44398424
      3.06000000	    100.20239850	     15.30431166	     -3.16244745	      1.18761447	     -0.73125664	      0.71133581	    -12.83128301	    -10.87860358	     -4.42835942	    -28.72741306	      8.61784824	     -7.13592439	    -10.04841808	     -7.18366636	     33.49151646	    -24.99858677	     -8.09357704	     -5.32347540
      3.07000000	     99.91814985	     15.59732058	     -2.98922801	      1.20073554	     -0.73234061	      0.70908401	    -12.32942249	    -10.85924103	     -4.94438270	    -30.05879499	      8.66152619	     -7.05107307	    -10.30901608	     -6.29117386	     32.68784210	    -24.11854738	     -8.01928787	     -5.34671008
      3.08000000	     99.47905511	     15.83733942	     -2.85162141	      1.21395910	     -0.73352103	      0.70701351	    -11.62763348	    -10.63839216	     -5.14221209	    -31.76731884	      8.61987713	     -6.96132872	    -10.24718456	     -5.42702687	     32.01918528	    -23.73292741	     -7.76563574	     -5.54957725
      3.09000000	     98.88485123	     16.03638580	     -2.75457714	      1.22723827	     -0.73480880	      0.70517379	    -10.73890570	    -10.25685226	     -5.02167732	    -33.83511844	      8.46325141	     -6.46821240	     -9.85513154	     -4.63827164	     31.48980192	    -23.79812440	     -7.04984490	     -6.41409716
      3.10000000	     98.14050007	     16.14434715	     -2.74900436	      1.24046748	     -0.73617693	      0.70361757	     -9.66034590	     -9.64252267	     -4.50403288	    -36.25722719	      8.10367464	     -6.27161603	     -9.16268377	     -3.84693678	     31.13147834	    -24.19718511	     -6.43598611	     -7.01125999
      3.11000000	     97.23747193	     16.17812555	     -2.72834166	      1.25362806	     -0.73761558	      0.70233650	     -8.41375999	     -8.79546961	     -3.71968779	    -38.98983198	      7.52177185	     -6.15102653	     -8.15171000	     -3.15109667	     30.82966527	    -24.86000392	     -5.68313624	     -7.62508609
      3.12000000	     96.19186829	     16.12616243	     -2.69528160	      1.26665517	     -0.73910450	      0.70135331	     -7.03516096	     -7.72591435	     -2.68758928	    -41.98660795	      6.70526878	     -6.09440823	     -6.86244015	     -2.54573852	     30.55068648	    -25.66404393	     -4.84263769	     -8.22283842
      3.13000000	     95.01996775	     15.98600535	     -2.67897601	      1.27949358	     -0.74063703	      0.70071253	     -5.56619996	     -6.48211421	     -1.41092850	    -45.18817493	      5.67951593	     -6.11847035	     -5.34076971	     -2.01896322	     30.27433681	    -26.47082265	     -3.97110830	     -8.73973252
      3.14000000	     93.74932044	     15.74509194	     -2.64360955	      1.29209769	     -0.74217688	      0.70041617	     -4.06560326	     -5.08320034	      0.03021054	    -48.52372949	      4.41188592	     -6.27602162	     -3.64332576	     -1.56706640	     29.93097245	    -27.18617226	     -3.09298335	     -9.13990879
      3.15000000	     92.41065999	     15.38407163	     -2.54961137	      1.30443697	     -0.74368921	      0.70046914	     -2.58962657	     -3.54937759	      1.54588364	    -51.91445887	      2.80414452	     -6.85284322	     -1.83316924	     -1.16342505	     29.44383476	    -27.72642834	     -2.21010406	     -9.28628897
      3.16000000	     91.07427588	     14.96211838	     -2.69358484	      1.31642375	     -0.74520109	      0.70096567	     -1.22033481	     -2.00463733	      3.43902750	    -55.34793075	      1.43461252	     -7.22106717	      0.00139738	     -0.86369655	     29.07208904	    -27.99848584	     -1.51261511	     -9.39104195
      3.17000000	     89.71509750	     14.41013080	     -2.64864468	      1.32814452	     -0.74663232	      0.70177785	      0.04753260	     -0.36588674	      5.18896404	    -58.68960122	     -0.35096341	     -8.26834516	      1.84776764	     -0.56611911	     28.37156123	    -28.00405090	     -0.75664476	     -9.11032880
      3.18000000	     88.45897713	     13.82304571	     -2.93243426	      1.33948559	     -0.74802073	      0.70302758	      1.06887331	      1.22260533	      7.35934734	    -61.96446346	     -1.47635343	     -8.65250481	      3.56931803	     -0.33456501	     27.84784847	    -27.70127589	     -0.31025388	     -8.98844987
      3.19000000	     87.24860474	     13.14301927	     -3.01936879	      1.35058672	     -0.74931475	      0.70453911	      1.92491171	      2.83072127	      9.33514297	    -65.04464886	     -2.92813012	     -9.55094076	      5.20629100	     -0.10514839	     26.97116576	    -27.13645954	      0.23517377	     -8.48538720
