Coordinates
version=1
nRows=291
nColumns=19
inDegrees=yes

Units are S.I. units (second, meters, Newtons, ...)
If the header above contains a line with 'inDegrees', this indicates whether rotational values are in degrees (yes) or radians (no).

endheader
time	pelvis_to_ground_rx	pelvis_to_ground_ry	pelvis_to_ground_rz	pelvis_to_ground_tx	pelvis_to_ground_ty	pelvis_to_ground_tz	left_hip_abduction	left_hip_rotation	left_hip_flexion	left_knee_flexion	left_ankle_flexion	left_subtalar_angle	right_hip_abduction	right_hip_rotation	right_hip_flexion	right_knee_flexion	right_ankle_flexion	right_subtalar_angle
      0.29000000	     97.15975773	     14.38258891	     -3.55824369	     -1.59712587	     -0.72081446	      0.73677871	    -13.69553440	    -11.80008273	      6.07583384	    -27.27750381	      5.63414479	     -7.22278284	     -0.19223782	    -10.39087002	     35.58751162	    -50.60308242	     -4.59244411	    -11.95040430
      0.30000000	     97.43774301	     15.35439780	     -3.75003911	     -1.58732372	     -0.72077893	      0.73519986	    -13.85705824	    -11.97616807	      5.41767973	    -27.48362553	      6.07873991	     -6.92324443	     -1.03483281	    -10.42926485	     36.37213941	    -48.09932900	     -4.35807519	    -10.48973776
      0.31000000	     97.71141024	     16.30067478	     -3.87813491	     -1.57740532	     -0.72073138	      0.73353243	    -14.00154248	    -12.16743953	      4.65383228	    -27.64658401	      6.44409985	     -6.82818449	     -1.95852958	    -10.38332539	     36.83655834	    -45.35615697	     -4.77161919	     -9.55941460
      0.32000000	     97.96999113	     17.20885561	     -3.93434475	     -1.56728988	     -0.72067268	      0.73176249	    -14.12265401	    -12.37524848	      3.78946834	    -27.80266257	      6.89562070	     -6.61191923	     -2.90141514	    -10.31041755	     36.98398323	    -42.47527525	     -5.04815088	     -8.45065042
      0.33000000	     98.24223011	     18.00995442	     -3.95195530	     -1.55692555	     -0.72056535	      0.72988837	    -14.25389102	    -12.57514274	      2.84302467	    -27.92972903	      7.36688112	     -6.30966505	     -3.86703204	    -10.13664820	     36.86552446	    -39.55853521	     -5.28302649	     -7.38313802
      0.34000000	     98.49706272	     18.72437157	     -3.87384686	     -1.54625305	     -0.72042162	      0.72791315	    -14.39173362	    -12.85858668	      1.75019948	    -28.04249395	      7.55402968	     -6.19505988	     -4.78743310	     -9.92391905	     36.45810265	    -36.69791178	     -5.48136436	     -7.01002875
      0.35000000	     98.68768139	     19.32672564	     -3.80657406	     -1.53526051	     -0.72026873	      0.72587396	    -14.44352347	    -13.06901712	      0.73094513	    -28.26267170	      8.12281712	     -5.96616210	     -5.53946817	     -9.70481279	     35.93773749	    -33.97351078	     -6.15580824	     -6.14028949
      0.36000000	     98.86741630	     19.78390000	     -3.66147286	     -1.52393809	     -0.72005183	      0.72375482	    -14.52949454	    -13.31728692	     -0.38937164	    -28.51005408	      8.30341409	     -5.85958833	     -6.19880611	     -9.41264778	     35.24679647	    -31.50526996	     -6.38369827	     -5.87307424
      0.37000000	     98.95684125	     20.12804338	     -3.55167916	     -1.51229922	     -0.71982696	      0.72163626	    -14.51716403	    -13.52494261	     -1.37050758	    -28.92605154	      8.77826997	     -5.65167497	     -6.60874764	     -9.16746057	     34.55872901	    -29.31813513	     -7.04742503	     -5.46034652
      0.38000000	     98.99517796	     20.31661117	     -3.41925479	     -1.50037811	     -0.71955098	      0.71951204	    -14.48077816	    -13.65961170	     -2.29196816	    -29.48698752	      8.88304287	     -5.57178761	     -6.85336302	     -8.85133609	     33.83829630	    -27.49182718	     -7.20793464	     -5.37057934
      0.39000000	     98.93315855	     20.37791013	     -3.31071310	     -1.48819399	     -0.71926969	      0.71745221	    -14.34380181	    -13.68886857	     -3.02917962	    -30.28239862	      8.97491676	     -5.51090811	     -6.85001722	     -8.54452135	     33.16089990	    -26.02133440	     -7.39950771	     -5.34975443
      0.40000000	     98.77256045	     20.30925915	     -3.25076392	     -1.47579746	     -0.71898588	      0.71548790	    -14.09475771	    -13.56022785	     -3.51494447	    -31.35828306	      8.97399733	     -5.46316947	     -6.62310605	     -8.20664776	     32.55972064	    -24.91177861	     -7.48665366	     -5.43911367
      0.41000000	     98.49875623	     20.12848407	     -3.21788256	     -1.46320754	     -0.71871388	      0.71364866	    -13.70416301	    -13.20537875	     -3.72984551	    -32.75152531	      8.74546680	     -5.13282946	     -6.18487032	     -7.82547645	     32.01026765	    -24.14306235	     -7.47701458	     -6.17893508
      0.42000000	     98.11004697	     19.80828695	     -3.20145866	     -1.45049044	     -0.71844056	      0.71195512	    -13.17081098	    -12.56404076	     -3.65685080	    -34.48021112	      8.56978483	     -5.16756789	     -5.56279137	     -7.33444041	     31.50645564	    -23.69219921	     -7.35815081	     -6.33475588
      0.43000000	     97.59001240	     19.38816434	     -3.23959194	     -1.43765681	     -0.71822432	      0.71045838	    -12.45395707	    -11.63593564	     -3.23845872	    -36.54824795	      7.87282639	     -4.93649058	     -4.77051936	     -6.71248666	     31.05814450	    -23.48743993	     -6.78516483	     -6.97892168
      0.44000000	     96.95084291	     18.88117940	     -3.22832139	     -1.42475109	     -0.71803400	      0.70910027	    -11.57503304	    -10.33311696	     -2.56335908	    -38.97704765	      7.06315379	     -4.72807119	     -3.80036401	     -6.10275650	     30.60167766	    -23.55852098	     -6.18954102	     -7.58531538
      0.45000000	     96.17978004	     18.28056984	     -3.23422556	     -1.41182129	     -0.71791386	      0.70796344	    -10.53343032	     -8.73243085	     -1.59218704	    -41.71102785	      6.07517943	     -4.51653291	     -2.69505554	     -5.35587895	     30.14510889	    -23.76610172	     -5.47701747	     -8.14017561
      0.46000000	     95.32591764	     17.55662354	     -3.22530568	     -1.39892917	     -0.71783062	      0.70702090	     -9.39834723	     -6.78970951	     -0.39393092	    -44.69927712	      4.95939430	     -4.33105233	     -1.51419521	     -4.47981620	     29.66323102	    -24.10086624	     -4.71771147	     -8.61275630
      0.47000000	     94.32005722	     16.82969290	     -3.18663377	     -1.38606520	     -0.71786807	      0.70634130	     -8.12727514	     -4.72373115	      0.99395598	    -47.91197658	      3.53252782	     -4.12002283	     -0.15520338	     -3.67729175	     29.10953482	    -24.43745549	     -3.81164199	     -9.07957685
      0.48000000	     93.26238363	     16.00376558	     -3.16908258	     -1.37332483	     -0.71795552	      0.70591082	     -6.84435160	     -2.47059448	      2.56325750	    -51.25863060	      2.07157207	     -4.03693409	      1.24348001	     -2.81373693	     28.52716358	    -24.76338154	     -2.95135009	     -9.40087720
      0.49000000	     92.16133000	     15.11729518	     -3.17397267	     -1.36073894	     -0.71810283	      0.70576612	     -5.58627549	     -0.14177358	      4.27774012	    -54.67771684	      0.54808466	     -4.08874549	      2.67750572	     -1.96483664	     27.88987258	    -24.99958671	     -2.10647526	     -9.60018174
      0.50000000	     91.03718708	     14.18646565	     -3.21445514	     -1.34833461	     -0.71830873	      0.70592623	     -4.39558299	      2.18679446	      6.11806238	    -58.10339076	     -0.96337376	     -4.33264725	      4.12842570	     -1.17541533	     27.19416818	    -25.09680646	     -1.30834409	     -9.65355411
      0.51000000	     89.93157024	     13.21629410	     -3.32148872	     -1.33614412	     -0.71855306	      0.70640501	     -3.33547257	      4.46144313	      8.08689184	    -61.46900230	     -2.37753184	     -4.77715163	      5.54472061	     -0.44817907	     26.45326280	    -25.01700320	     -0.58016997	     -9.56098233
      0.52000000	     88.85523648	     12.21953479	     -3.40378377	     -1.32415828	     -0.71881238	      0.70717788	     -2.41828373	      6.62827861	     10.05850441	    -64.69914568	     -3.75047750	     -5.99706064	      6.91920259	      0.16331659	     25.56805235	    -24.74582850	      0.16486766	     -9.00937296
      0.53000000	     87.87430560	     11.20298853	     -3.67058335	     -1.31242986	     -0.71908326	      0.70828674	     -1.74091546	      8.68367229	     12.26731314	    -67.77928193	     -4.11961852	     -6.23306569	      8.14985839	      0.78454718	     24.73003848	    -24.24288889	      0.37229908	     -8.92830501
      0.54000000	     86.98247239	     10.23469675	     -3.96308330	     -1.30091630	     -0.71937046	      0.70966765	     -1.28536256	     10.46744046	     14.51284420	    -70.61460551	     -5.28295309	     -7.62673499	      9.28899322	      1.19569357	     23.81710851	    -23.57005240	      1.09704398	     -8.16229812
      0.55000000	     86.19768208	      9.25909524	     -4.26323134	     -1.28960405	     -0.71963578	      0.71127986	     -1.04498401	     12.11729645	     16.78906099	    -73.19527457	     -5.36635439	     -7.85937377	     10.25963802	      1.65546995	     22.77791212	    -22.68503329	      1.19409638	     -8.03703553
      0.56000000	     85.55572462	      8.30912245	     -4.62835499	     -1.27847993	     -0.71985730	      0.71310099	     -1.06736703	     13.52964294	     19.13433651	    -75.45566323	     -5.34418125	     -8.24264207	     11.04550068	      2.08925197	     21.71152678	    -21.65751166	      1.29056268	     -7.80478173
      0.57000000	     85.05389803	      7.39859072	     -5.01292464	     -1.26752450	     -0.72002883	      0.71507370	     -1.32256682	     14.67567938	     21.49417289	    -77.36773661	     -5.14571410	     -8.78613976	     11.64696817	      2.52173656	     20.59124078	    -20.51963831	      1.36749297	     -7.46442740
      0.58000000	     84.67389943	      6.57617085	     -5.35941373	     -1.25669537	     -0.72015526	      0.71713513	     -1.74689157	     15.46775165	     23.78906887	    -78.90529457	     -5.05978458	    -10.38056877	     12.11028455	      2.83935835	     19.39735203	    -19.32498082	      1.82802194	     -6.28765184
      0.59000000	     84.43010307	      5.76016724	     -5.68983701	     -1.24599465	     -0.72019792	      0.71923267	     -2.33608537	     16.07637596	     26.04539134	    -80.07024274	     -4.41199027	    -10.94250204	     12.36597728	      3.35803711	     18.14349392	    -18.08505443	      1.77210618	     -6.00280446
      0.60000000	     84.31697535	      4.98771158	     -6.02585645	     -1.23541285	     -0.72014656	      0.72132647	     -3.06733359	     16.41416183	     28.26420659	    -80.84579566	     -3.75499851	    -11.50069059	     12.44819620	      3.95907278	     16.90167304	    -16.87097186	      1.73678594	     -5.73173495
      0.61000000	     84.30353895	      4.23908113	     -6.28401966	     -1.22491997	     -0.71998897	      0.72334591	     -3.85152998	     16.52864519	     30.33569666	    -81.23445291	     -2.99709263	    -12.13147661	     12.39515151	      4.66774506	     15.60269683	    -15.71606612	      1.69385156	     -5.46065570
      0.62000000	     84.34012251	      3.51954707	     -6.47523381	     -1.21450937	     -0.71974013	      0.72522309	     -4.61253059	     16.45892496	     32.27907146	    -81.27223195	     -2.18988460	    -12.82827851	     12.27316223	      5.45058844	     14.28553521	    -14.65809026	      1.65294047	     -5.20911303
      0.63000000	     84.45600449	      2.82040923	     -6.62811195	     -1.20418908	     -0.71937876	      0.72696050	     -5.37240546	     16.18530905	     34.09297612	    -80.94524169	     -1.41395710	    -13.52630155	     12.05258625	      6.31184461	     12.99547257	    -13.72557169	      1.61863794	     -4.99942070
      0.64000000	     84.57672309	      2.12724492	     -6.68501156	     -1.19393728	     -0.71893238	      0.72849631	     -6.01765233	     15.81338325	     35.73221745	    -80.30256358	     -1.02280799	    -13.85811632	     11.82475731	      7.28013188	     11.66222030	    -12.89997996	      1.62150756	     -4.83763563
      0.65000000	     84.75137649	      1.46629075	     -6.79865413	     -1.18379291	     -0.71834284	      0.72981561	     -6.63595752	     15.23450353	     37.33868950	    -79.35114008	     -0.05692713	    -14.72923539	     11.54484972	      8.07631332	     10.53261903	    -12.30727845	      1.57659890	     -4.68812994
      0.66000000	     84.87562860	      0.79084340	     -6.77120402	     -1.17369297	     -0.71770699	      0.73087750	     -7.05058504	     14.66806779	     38.72476944	    -78.13848016	      0.23817622	    -15.00444197	     11.33434869	      8.96851406	      9.29946352	    -11.80131234	      1.58776636	     -4.55168166
      0.67000000	     84.99981957	      0.13843455	     -6.79286138	     -1.16368099	     -0.71696955	      0.73167836	     -7.36275144	     13.97978770	     40.07543341	    -76.67291413	      0.93442587	    -15.71743608	     11.13145666	      9.64722990	      8.24968353	    -11.50084942	      1.59519213	     -4.41505438
      0.68000000	     85.06762994	     -0.51903542	     -6.73409554	     -1.15370360	     -0.71619543	      0.73220530	     -7.48474545	     13.32423153	     41.26702191	    -74.98734933	      1.10515806	    -15.87471481	     11.00869895	     10.31064379	      7.16911769	    -11.29687774	      1.62442809	     -4.29465920
      0.69000000	     85.10046370	     -1.16402375	     -6.69502339	     -1.14376738	     -0.71537357	      0.73245994	     -7.46446244	     12.64784876	     42.39411953	    -73.09269300	      1.32393902	    -16.03680368	     10.93040139	     10.82048307	      6.19486799	    -11.23000271	      1.67029840	     -4.17354777
      0.70000000	     85.09432404	     -1.79572672	     -6.63827224	     -1.13383036	     -0.71452527	      0.73243323	     -7.29562114	     11.98411922	     43.40902748	    -71.00740391	      1.50947330	    -16.12954371	     10.90581718	     11.18204948	      5.27102293	    -11.28091406	      1.74579747	     -4.04287605
      0.71000000	     85.04483383	     -2.40170791	     -6.55841972	     -1.12388215	     -0.71366653	      0.73211956	     -6.97686572	     11.32391277	     44.29486343	    -68.74854873	      1.58908860	    -16.09574790	     10.93904667	     11.41364237	      4.39204348	    -11.46067560	      1.82408525	     -3.94277652
      0.72000000	     84.99300428	     -2.98704317	     -6.46132916	     -1.11382240	     -0.71278454	      0.73155618	     -6.57985859	     10.73185230	     45.04563610	    -66.31353499	      1.61309960	    -16.02072023	     10.97428583	     11.44448977	      3.53837700	    -11.71285174	      1.87425071	     -3.90279435
      0.73000000	     84.86849605	     -3.55028159	     -6.42329669	     -1.10365621	     -0.71194825	      0.73075400	     -6.05806180	     10.19831086	     45.74742757	    -63.76418209	      1.47175926	    -14.98963547	     11.09047996	     11.63375401	      2.73136827	    -12.00092965	      2.54758819	     -3.34639406
      0.74000000	     84.77070643	     -4.07886913	     -6.34294336	     -1.09330303	     -0.71108763	      0.72971161	     -5.49418126	      9.67252553	     46.24060557	    -61.07242380	      1.48012679	    -14.83692731	     11.18085551	     11.70402533	      1.91999406	    -12.38198791	      2.59643596	     -3.30251540
      0.75000000	     84.61713256	     -4.56058381	     -6.16767104	     -1.08271320	     -0.71030599	      0.72840618	     -4.83226282	      9.22377842	     46.50850946	    -58.35080954	      1.06608850	    -13.92176227	     11.37959473	     11.91715680	      0.97883806	    -12.80666463	      2.98029927	     -3.16866934
      0.76000000	     84.49557426	     -4.95669667	     -6.02820285	     -1.07184027	     -0.70951852	      0.72687222	     -4.17037423	      8.69002123	     46.64480162	    -55.59611288	      0.79370039	    -13.03739618	     11.52983107	     11.92836068	      0.14961212	    -13.39507542	      3.33591355	     -3.07228254
      0.77000000	     84.43534386	     -5.35699039	     -5.83806740	     -1.06059347	     -0.70871273	      0.72516249	     -3.60301116	      8.28756112	     46.58520643	    -52.86459227	      0.50911327	    -12.07094951	     11.63717143	     12.08244924	     -0.73205212	    -14.08443775	      3.71418379	     -2.97681525
      0.78000000	     84.39182592	     -5.65490740	     -5.67778710	     -1.04898922	     -0.70792913	      0.72325742	     -3.05146298	      7.78281007	     46.41380445	    -50.25362645	      0.66433913	    -10.57425023	     11.73372142	     12.16227638	     -1.52732139	    -14.93863866	      4.17896554	     -2.66129902
      0.79000000	     84.39255385	     -5.88809571	     -5.37542590	     -1.03694950	     -0.70717748	      0.72117150	     -2.54674192	      7.25620606	     45.96780378	    -47.83190560	      0.31181658	    -10.17161366	     11.84889756	     12.29050446	     -2.46659740	    -15.89928858	      4.36849106	     -2.73096854
      0.80000000	     84.45946796	     -6.02372025	     -5.12354075	     -1.02452524	     -0.70642685	      0.71896635	     -2.12115410	      6.58085059	     45.44824492	    -45.63981308	      0.03655306	     -9.82142411	     11.89795987	     12.32261092	     -3.26538253	    -17.06690305	      4.52222431	     -2.79277172
      0.81000000	     84.64362613	     -6.11966497	     -4.81415754	     -1.01166856	     -0.70565842	      0.71667447	     -1.90789713	      5.96766891	     44.80240270	    -43.76005261	     -0.45909673	     -9.26930444	     11.84885026	     12.29233898	     -4.03810249	    -18.44654069	      4.82817930	     -2.84230566
      0.82000000	     84.94032664	     -6.11371186	     -4.52161266	     -0.99844747	     -0.70486223	      0.71431940	     -1.83698020	      5.18905905	     44.09092866	    -42.22617971	     -0.50834740	     -9.11468871	     11.65681537	     11.99334237	     -4.64390471	    -20.07919297	      4.84358480	     -2.87347394
      0.83000000	     85.36412310	     -6.02373928	     -4.22333918	     -0.98489302	     -0.70405027	      0.71194795	     -1.96260418	      4.33567559	     43.32594791	    -41.07771711	     -0.52531437	     -9.02902725	     11.31772612	     11.47678739	     -5.11318682	    -21.94528631	      4.80567123	     -2.90722396
      0.84000000	     85.92526842	     -5.85414925	     -3.94095358	     -0.97105808	     -0.70318914	      0.70960571	     -2.30140680	      3.40645781	     42.53491095	    -40.31332018	     -0.45617657	     -9.04656096	     10.78414361	     10.66585334	     -5.39236624	    -24.05387489	      4.67236344	     -2.93228561
      0.85000000	     86.62783144	     -5.58562544	     -3.64494549	     -0.95698730	     -0.70228346	      0.70733738	     -2.82558641	      2.32297012	     41.67405735	    -39.91383379	     -0.09148479	     -9.49757431	     10.05989492	      9.55752388	     -5.52576236	    -26.35911735	      4.16030332	     -2.75458504
      0.86000000	     87.45800437	     -5.24684469	     -3.45283335	     -0.94278882	     -0.70129681	      0.70514950	     -3.59457567	      1.24762394	     40.92093342	    -39.89808439	      0.16155204	     -9.75755116	      9.09792906	      8.10655760	     -5.33767279	    -28.91541517	      3.77944959	     -2.78602099
      0.87000000	     88.43489974	     -4.87209336	     -3.23678612	     -0.92846154	     -0.70021830	      0.70313495	     -4.59400419	      0.18526121	     40.08519503	    -40.15241664	      0.95092652	    -10.69376800	      7.93544494	      6.45298834	     -5.02589022	    -31.62084701	      2.59780313	     -2.64285151
      0.88000000	     89.51028356	     -4.42888576	     -3.15579446	     -0.91415227	     -0.69906210	      0.70133646	     -5.74605121	     -0.94386528	     39.32164404	    -40.60613213	      1.39746049	    -11.74730688	      6.61550171	      4.61171641	     -4.41004433	    -34.47026817	      1.29505423	     -3.07621975
      0.89000000	     90.65970264	     -3.91593085	     -2.92372753	     -0.89985931	     -0.69787352	      0.69970795	     -7.09543214	     -1.90900259	     38.37750704	    -41.27054697	      2.11390873	    -12.37466927	      5.20076087	      2.55680809	     -3.82398267	    -37.41353743	      0.03084781	     -3.20631062
      0.90000000	     91.84849201	     -3.35939016	     -2.82565759	     -0.88572162	     -0.69663013	      0.69839113	     -8.53818829	     -2.80994257	     37.48713102	    -41.98038339	      2.92609310	    -13.00442386	      3.73542102	      0.43892643	     -2.96240682	    -40.42554517	     -1.51228032	     -3.56941668
      0.91000000	     93.04210273	     -2.76338042	     -2.88836637	     -0.87181222	     -0.69536027	      0.69745457	    -10.01129939	     -3.64738671	     36.66164838	    -42.64624637	      3.67374785	    -13.50705582	      2.31186696	     -1.64149395	     -1.81542470	    -43.44772384	     -3.43219944	     -4.76957132
      0.92000000	     94.23719566	     -2.13555895	     -2.75359123	     -0.85811836	     -0.69407700	      0.69682405	    -11.56086346	     -4.20611815	     35.55137940	    -43.24073291	      4.40307489	    -13.83474564	      0.91734018	     -3.73341785	     -0.76440124	    -46.46517616	     -4.80210699	     -5.09661005
      0.93000000	     95.37351895	     -1.49315720	     -2.85703112	     -0.84478981	     -0.69280429	      0.69669572	    -13.01482965	     -4.71242474	     34.55675193	    -43.62220905	      5.22192034	    -14.04472391	     -0.31105070	     -5.67609049	      0.66651906	    -49.42623821	     -6.39200855	     -5.76507301
      0.94000000	     96.42613058	     -0.84007382	     -3.06602240	     -0.83183374	     -0.69157659	      0.69705504	    -14.35764123	     -5.08212233	     33.55857484	    -43.77061096	      5.87784317	    -13.72983162	     -1.32428535	     -7.42770459	      2.32779267	    -52.27560863	     -7.96471482	     -7.35469123
      0.95000000	     97.39698961	     -0.19246571	     -3.23419010	     -0.81922914	     -0.69036575	      0.69786604	    -15.58653151	     -5.29172774	     32.40330260	    -43.64934538	      6.37364421	    -13.70345982	     -2.16582741	     -9.03577561	      4.08040072	    -55.01104795	     -8.78007990	     -7.49697205
      0.96000000	     98.24453577	      0.46108899	     -3.49567304	     -0.80701044	     -0.68922027	      0.69917699	    -16.61556251	     -5.47399584	     31.22236613	    -43.23021291	      6.57225150	    -13.60137024	     -2.74649164	    -10.43253571	      6.05559707	    -57.56388647	     -9.06797489	     -7.66517227
      0.97000000	     98.94638427	      1.03902547	     -3.87099666	     -0.79516503	     -0.68812606	      0.70097366	    -17.44641659	     -5.47304473	     30.09510622	    -42.55207899	      7.04788455	    -13.17478179	     -3.03704149	    -11.49563461	      8.28625764	    -59.89985321	     -9.68115430	     -7.93280860
      0.98000000	     99.52715597	      1.64846976	     -4.10343079	     -0.78360809	     -0.68708060	      0.70313381	    -18.08107464	     -5.54266687	     28.69924118	    -41.59551834	      7.14961133	    -12.94013463	     -3.16265084	    -12.38525971	     10.44415931	    -61.97605462	     -9.70723202	     -8.05523744
      0.99000000	     99.94524793	      2.18714995	     -4.39821001	     -0.77234145	     -0.68610452	      0.70567857	    -18.50613013	     -5.47901531	     27.33406766	    -40.43416716	      7.48495450	    -11.63440988	     -3.03725887	    -12.94636949	     12.75964629	    -63.76874821	     -9.41587118	     -8.01433629
      1.00000000	    100.20416500	      2.70250313	     -4.66941090	     -0.76132168	     -0.68518621	      0.70852626	    -18.68536699	     -5.57377877	     25.86186676	    -39.04811027	      7.55412903	    -11.41782516	     -2.72270328	    -13.24209315	     15.09594333	    -65.23962242	     -9.22994722	     -7.99441856
      1.01000000	    100.31129923	      3.22132234	     -4.87241579	     -0.75047744	     -0.68434137	      0.71157593	    -18.65968231	     -5.79220937	     24.27293474	    -37.52083105	      7.48358255	    -11.06566375	     -2.27491948	    -13.33923651	     17.36673494	    -66.37582944	     -8.83062480	     -7.95912108
      1.02000000	    100.31692297	      3.69442328	     -4.97799256	     -0.73978419	     -0.68352185	      0.71469707	    -18.52777605	     -5.94796368	     22.60692617	    -35.94573715	      7.49196382	     -9.99708651	     -1.79288707	    -13.24592650	     19.54263793	    -67.22693891	     -7.41921297	     -6.91095835
      1.03000000	    100.17792337	      4.16203869	     -5.05974055	     -0.72922750	     -0.68278768	      0.71790312	    -18.19900886	     -6.36224418	     20.88976586	    -34.29492583	      7.24611018	     -9.65444451	     -1.22088712	    -12.93677844	     21.64079550	    -67.70991502	     -6.79806984	     -7.04890083
      1.04000000	     99.94703336	      4.63856552	     -4.99046643	     -0.71875567	     -0.68209503	      0.72105621	    -17.77514658	     -6.96206807	     19.01684156	    -32.63684566	      7.13599923	     -9.40716616	     -0.67792837	    -12.52371466	     23.51318745	    -67.86952582	     -6.45528897	     -7.13273348
      1.05000000	     99.59693684	      5.10976628	     -4.95111683	     -0.70839043	     -0.68152325	      0.72411072	    -17.23298956	     -7.60465743	     17.27172671	    -31.10292322	      6.63378769	     -8.97939561	     -0.08517383	    -11.97519828	     25.34827790	    -67.71095656	     -5.41609739	     -7.36994968
      1.06000000	     99.21521022	      5.60665143	     -4.75083936	     -0.69807991	     -0.68098403	      0.72696177	    -16.69085531	     -8.41110327	     15.39566373	    -29.65127167	      6.51191908	     -8.74525706	      0.39407328	    -11.43243749	     26.92753287	    -67.26248866	     -5.08560913	     -7.45246020
      1.07000000	     98.78837776	      6.10625566	     -4.57849923	     -0.68785922	     -0.68054011	      0.72957826	    -16.12690992	     -9.19098768	     13.68021807	    -28.40016603	      5.98555963	     -8.44237033	      0.82867741	    -10.83875247	     28.45361441	    -66.53026783	     -4.16963566	     -7.75706231
      1.08000000	     98.35001180	      6.64722701	     -4.34088496	     -0.67769543	     -0.68016358	      0.73190620	    -15.58879327	    -10.02499150	     12.00016642	    -27.34652943	      5.86244654	     -8.24566620	      1.16275940	    -10.30617333	     29.81539451	    -65.51767706	     -3.92979134	     -7.85897129
      1.09000000	     97.93887541	      7.20515590	     -4.11845982	     -0.66759119	     -0.67986058	      0.73390877	    -15.10590228	    -10.81483626	     10.46070388	    -26.50903303	      5.64767975	     -8.02835856	      1.37771904	     -9.80902522	     31.09698160	    -64.24300840	     -3.61623754	     -8.04019556
      1.10000000	     97.56462421	      7.78191895	     -3.89741134	     -0.65753435	     -0.67960850	      0.73555773	    -14.68698073	    -11.48776902	      9.06290735	    -25.91030276	      5.38878226	     -7.81214932	      1.46583107	     -9.36564889	     32.27044495	    -62.70078219	     -3.32481663	     -8.23721273
      1.11000000	     97.23188654	      8.38509102	     -3.68062492	     -0.64749604	     -0.67942582	      0.73682543	    -14.32487716	    -12.00716696	      7.81963144	    -25.57093497	      5.17256403	     -7.61709064	      1.43793980	     -9.00467045	     33.32576146	    -60.88972142	     -3.14755116	     -8.36817118
      1.12000000	     96.96916809	      8.99877744	     -3.48909599	     -0.63745505	     -0.67928764	      0.73771169	    -14.04028643	    -12.41051180	      6.71607115	    -25.43925535	      4.97895421	     -7.41976804	      1.27565600	     -8.71113160	     34.26829286	    -58.81345748	     -3.06590153	     -8.43370904
      1.13000000	     96.76688429	      9.62412812	     -3.31935894	     -0.62736542	     -0.67919160	      0.73820206	    -13.81622349	    -12.68445066	      5.74415433	    -25.51391549	      4.83758427	     -7.22523517	      1.00271171	     -8.48930668	     35.07303177	    -56.47094947	     -3.09460462	     -8.40604514
      1.14000000	     96.61569482	     10.22638189	     -3.15658038	     -0.61720326	     -0.67913966	      0.73827358	    -13.63178043	    -12.70655962	      4.92110688	    -25.83279329	      4.81401864	     -7.16339072	      0.63436033	     -8.26631168	     35.70741002	    -53.87456413	     -3.11820841	     -8.34026388
      1.15000000	     96.57368200	     10.89408165	     -3.03219990	     -0.60690081	     -0.67911155	      0.73798437	    -13.58232887	    -13.02991499	      4.07182927	    -26.17870004	      4.75862469	     -6.83653123	      0.15055520	     -8.23743996	     36.18651711	    -51.05846417	     -3.53159422	     -7.99383018
      1.16000000	     96.53767545	     11.49643284	     -2.86855182	     -0.59641147	     -0.67911654	      0.73726580	    -13.50903171	    -12.92177165	      3.34625760	    -26.77680754	      4.91666395	     -6.48634270	     -0.36201066	     -8.14256962	     36.41992160	    -48.03507201	     -4.14617633	     -7.44480340
      1.17000000	     96.56536013	     12.09452782	     -2.71060422	     -0.58568252	     -0.67914196	      0.73616837	    -13.51692592	    -12.93944800	      2.59651149	    -27.43991930	      5.20011942	     -6.20678971	     -0.93835445	     -8.07241855	     36.44286076	    -44.87279151	     -4.61299376	     -6.97021094
      1.18000000	     96.61930632	     12.65195614	     -2.52962337	     -0.57466500	     -0.67918786	      0.73468378	    -13.54510616	    -12.85711905	      1.85785528	    -28.22591574	      5.52276610	     -5.98527805	     -1.53847675	     -7.95327614	     36.23532308	    -41.63730455	     -5.13157644	     -6.46024003
      1.19000000	     96.70278633	     13.18336974	     -2.32158284	     -0.56332409	     -0.67924497	      0.73284596	    -13.61996714	    -12.83100286	      1.06714505	    -29.07692183	      5.85070978	     -5.82158813	     -2.15369460	     -7.80293183	     35.80738323	    -38.41808368	     -5.64537019	     -5.97720805
      1.20000000	     96.78218472	     13.69866512	     -2.18181512	     -0.55165193	     -0.67933948	      0.73071472	    -13.67459639	    -12.84573292	      0.36452973	    -30.04392473	      6.46315920	     -5.47733533	     -2.71991157	     -7.62828142	     35.28424761	    -35.29214814	     -6.43054630	     -5.29992105
      1.21000000	     96.85432556	     14.13984730	     -1.86990038	     -0.53959568	     -0.67940487	      0.72824888	    -13.74884448	    -12.72754648	     -0.51384534	    -31.06977347	      6.66583285	     -5.41060255	     -3.27666224	     -7.33129387	     34.46158019	    -32.40870152	     -6.69774031	     -5.02682776
      1.22000000	     96.89194559	     14.53681176	     -1.56263420	     -0.52720480	     -0.67947925	      0.72557356	    -13.77960201	    -12.59518284	     -1.36153553	    -32.18801811	      6.96749395	     -5.35010560	     -3.74435499	     -6.97594696	     33.55935231	    -29.83033311	     -7.11612993	     -4.68931943
      1.23000000	     96.87194826	     14.90545225	     -1.32560553	     -0.51450902	     -0.67957811	      0.72279245	    -13.72676465	    -12.47715565	     -2.09212303	    -33.40680980	      7.61495130	     -5.00695773	     -4.07206057	     -6.60975567	     32.68090806	    -27.62379902	     -7.81200430	     -4.30225750
      1.24000000	     96.77725360	     15.18673746	     -1.07152877	     -0.50154938	     -0.67968808	      0.71992434	    -13.53930845	    -12.13388511	     -2.73055361	    -34.73767704	      7.67260154	     -4.93106352	     -4.27716447	     -6.09470676	     31.77644906	    -25.87120218	     -7.82903034	     -4.24818305
      1.25000000	     96.59835074	     15.41210136	     -0.86316732	     -0.48837365	     -0.67981724	      0.71709379	    -13.21644476	    -11.69960891	     -3.22482386	    -36.16721311	      7.69051518	     -4.83380583	     -4.31149123	     -5.53993311	     30.93647277	    -24.59201513	     -7.79833005	     -4.26192150
      1.26000000	     96.31875090	     15.57458957	     -0.71201647	     -0.47503808	     -0.67998573	      0.71437350	    -12.70937967	    -11.08895288	     -3.51108030	    -37.72355293	      7.59237745	     -4.69829647	     -4.15813233	     -4.93069778	     30.19071660	    -23.78608564	     -7.63188323	     -4.38864232
      1.27000000	     95.93559192	     15.68899393	     -0.61539975	     -0.46157392	     -0.68021611	      0.71186242	    -12.01952050	    -10.33209948	     -3.59575075	    -39.38170627	      7.13274625	     -4.05216272	     -3.83084048	     -4.24161281	     29.51963377	    -23.40194889	     -6.95978804	     -5.03002101
      1.28000000	     95.44192974	     15.74873621	     -0.61429064	     -0.44806270	     -0.68052660	      0.70960124	    -11.11503287	     -9.37322569	     -3.37867508	    -41.19587901	      6.58856232	     -3.59670606	     -3.30226592	     -3.52187575	     28.98722417	    -23.40484038	     -6.37598242	     -5.54187502
      1.29000000	     94.86072623	     15.77936020	     -0.64592849	     -0.43452261	     -0.68090061	      0.70762580	    -10.05632912	     -8.26257799	     -2.95235236	    -43.13381019	      5.71610499	     -3.11006115	     -2.58687354	     -2.87360719	     28.52910901	    -23.75662726	     -5.56677115	     -6.15440750
      1.30000000	     94.22442355	     15.74128144	     -0.72290997	     -0.42102215	     -0.68133149	      0.70598928	     -8.89244330	     -6.97433218	     -2.30815009	    -45.18112922	      4.58423342	     -2.63924579	     -1.74942247	     -2.19868024	     28.12760034	    -24.35185067	     -4.64844520	     -6.77144560
      1.31000000	     93.49100888	     15.69152373	     -0.82930082	     -0.40757668	     -0.68186879	      0.70477880	     -7.62007830	     -5.64415577	     -1.47058678	    -47.32888508	      3.21403517	     -2.19730956	     -0.75404712	     -1.55567370	     27.71756836	    -25.02865854	     -3.66275100	     -7.35801164
      1.32000000	     92.72309009	     15.59832772	     -0.96846978	     -0.39425492	     -0.68246471	      0.70399893	     -6.32876123	     -4.25122165	     -0.45352222	    -49.55916383	      1.63894503	     -1.80903107	      0.32780227	     -0.96183133	     27.29691264	    -25.72989721	     -2.65180138	     -7.88477781
      1.33000000	     91.92959665	     15.47197114	     -1.14524874	     -0.38109783	     -0.68311868	      0.70369327	     -5.06163810	     -2.86262145	      0.73133606	    -51.85027430	     -0.06182787	     -1.51043144	      1.47149161	     -0.43279711	     26.83873343	    -26.34343031	     -1.67593814	     -8.31690809
      1.34000000	     91.13216197	     15.31319884	     -1.36944222	     -0.36814717	     -0.68381939	      0.70388444	     -3.86981210	     -1.52451405	      2.07617315	    -54.17712274	     -1.80415918	     -1.31853949	      2.63927006	      0.02239445	     26.32989297	    -26.78418496	     -0.77686487	     -8.64244485
      1.35000000	     90.35073775	     15.12215066	     -1.63397274	     -0.35543069	     -0.68454468	      0.70457583	     -2.79577211	     -0.26983944	      3.55422716	    -56.50907338	     -3.50776881	     -1.26053717	      3.79363660	      0.40289166	     25.74568637	    -26.99070995	      0.01736769	     -8.84739488
      1.36000000	     89.60687877	     14.89876322	     -1.96020763	     -0.34297396	     -0.68529238	      0.70575754	     -1.87588280	      0.87154088	      5.17174339	    -58.81831819	     -5.05972005	     -1.32319259	      4.89749783	      0.72481568	     25.09550734	    -26.91858597	      0.67566353	     -8.93956487
      1.37000000	     88.92169816	     14.64560977	     -2.32250624	     -0.33077737	     -0.68603311	      0.70738338	     -1.13760837	      1.88553427	      6.88262148	    -61.07156788	     -6.42305575	     -1.52044048	      5.91873163	      0.98480917	     24.35303992	    -26.56492704	      1.20375641	     -8.91537798
      1.38000000	     88.31149101	     14.36201014	     -2.72413195	     -0.31884283	     -0.68676192	      0.70940446	     -0.59108162	      2.77507228	      8.67774563	    -63.23872440	     -7.45518047	     -1.81684485	      6.82805641	      1.21975651	     23.52319485	    -25.93236878	      1.57123592	     -8.79219428
      1.39000000	     87.75717312	     14.05078221	     -3.04861130	     -0.30712266	     -0.68747600	      0.71172166	     -0.19553948	      3.55363486	     10.42489311	    -65.29611686	     -7.74399972	     -1.99210550	      7.63417689	      1.48204267	     22.48627778	    -25.02993368	      1.68167867	     -8.70477515
      1.40000000	     87.34997509	     13.71526372	     -3.46128194	     -0.29564907	     -0.68812615	      0.71429287	     -0.04995962	      4.20592597	     12.26754956	    -67.18717898	     -8.81280998	     -2.84969060	      8.26079172	      1.67143485	     21.46332396	    -23.97095424	      1.97809823	     -8.17816054
      1.41000000	     87.03704600	     13.36415686	     -3.88366339	     -0.28438700	     -0.68875255	      0.71701319	     -0.07547381	      4.76568011	     14.14773451	    -68.93697696	     -8.65991518	     -3.20254327	      8.73538122	      1.95779872	     20.36631512	    -22.74479142	      1.97634104	     -7.96857136
      1.42000000	     86.80267783	     12.97995177	     -4.17412301	     -0.27327818	     -0.68934225	      0.71978299	     -0.22019744	      5.28463935	     15.89522648	    -70.49092249	     -8.50408431	     -3.46672200	      9.07929517	      2.38428816	     19.06456064	    -21.40204980	      1.94159257	     -7.77378948
      1.43000000	     86.69208069	     12.59557637	     -4.51929481	     -0.26237449	     -0.68986917	      0.72252990	     -0.55015215	      5.70330383	     17.71177982	    -71.85706363	     -7.79395866	     -4.23068625	      9.27022306	      2.80400488	     17.83105224	    -20.08160485	      1.69583372	     -7.29316542
      1.44000000	     86.66118807	     12.18576663	     -4.75928480	     -0.25161026	     -0.69034073	      0.72518516	     -0.98314860	      6.09970586	     19.42167045	    -73.00310452	     -7.11353712	     -4.90554322	      9.33832711	      3.41158075	     16.47668361	    -18.76579977	      1.53867895	     -6.90309529
      1.45000000	     86.69541978	     11.73850537	     -4.93588200	     -0.24101893	     -0.69075400	      0.72764436	     -1.49571878	      6.53992404	     21.09596100	    -73.95425344	     -6.25696056	     -5.66940869	      9.32231826	      4.12305446	     15.11802628	    -17.57367527	      1.35294255	     -6.51146876
      1.46000000	     86.79200868	     11.27765365	     -5.07776893	     -0.23058663	     -0.69109122	      0.72989628	     -2.09237792	      6.96639931	     22.75264298	    -74.69267745	     -5.33047689	     -6.45370788	      9.22885989	      4.94672267	     13.78564965	    -16.51006961	      1.17461680	     -6.15375720
      1.47000000	     86.95052438	     10.77669859	     -5.17290152	     -0.22032543	     -0.69133507	      0.73188580	     -2.76811895	      7.42836085	     24.37916887	    -75.21800649	     -4.43413088	     -7.20105472	      9.07033353	      5.86657235	     12.49986498	    -15.63878158	      1.02552165	     -5.84383733
      1.48000000	     87.06224089	     10.28532734	     -5.21100877	     -0.21023692	     -0.69155422	      0.73352396	     -3.39312793	      7.92848474	     26.02418472	    -75.59758784	     -3.40521106	     -8.12209275	      8.98707568	      6.72999243	     11.28297791	    -14.96145593	      0.88352780	     -5.53416387
      1.49000000	     87.19978931	      9.76857171	     -5.23676113	     -0.20033026	     -0.69168273	      0.73485217	     -4.06246355	      8.44333306	     27.68382382	    -75.78049164	     -2.54958388	     -8.96868091	      8.89140774	      7.60243561	     10.16794098	    -14.49194255	      0.81167723	     -5.27153228
      1.50000000	     87.35387822	      9.24004805	     -5.22418885	     -0.19057146	     -0.69170997	      0.73585729	     -4.75948795	      8.94010673	     29.31693503	    -75.76468442	     -1.76154268	     -9.84625974	      8.80439710	      8.40733608	      9.12046496	    -14.21250759	      0.79474657	     -5.02338560
      1.51000000	     87.45277514	      8.69890183	     -5.20484989	     -0.18098685	     -0.69170196	      0.73651471	     -5.40718673	      9.47520440	     31.00291981	    -75.59752746	     -1.37768866	    -10.26636380	      8.79922140	      9.18780583	      8.16181598	    -14.07313442	      0.81752732	     -4.86881197
      1.52000000	     87.53829058	      8.14966489	     -5.21091574	     -0.17158406	     -0.69157351	      0.73676929	     -6.06303021	      9.99347295	     32.75277840	    -75.27974081	     -0.45622870	    -11.34404896	      8.82543842	      9.61635162	      7.41016797	    -14.21628899	      0.93024986	     -4.63638484
      1.53000000	     87.59030995	      7.59689323	     -5.18483788	     -0.16228303	     -0.69139657	      0.73674560	     -6.68177169	     10.46563973	     34.47110359	    -74.77079837	     -0.21146053	    -11.70987544	      8.90841215	     10.12558355	      6.63390999	    -14.37116533	      1.02339727	     -4.51147607
      1.54000000	     87.60162593	      7.04900083	     -5.13747167	     -0.15308516	     -0.69113687	      0.73634456	     -7.25332309	     10.90305819	     36.17924534	    -74.09712496	      0.26239339	    -12.79070143	      9.05113523	     10.33994756	      5.95720281	    -14.71498382	      1.42452669	     -4.14732084
      1.55000000	     87.60834368	      6.49533175	     -5.17538382	     -0.14396752	     -0.69079002	      0.73569816	     -7.83489921	     11.27170515	     37.95310974	    -73.21350763	      0.37620659	    -12.97814896	      9.18547982	     10.51321288	      5.40483619	    -15.11018813	      1.54508578	     -4.09145212
      1.56000000	     87.58034436	      5.94931378	     -5.20883292	     -0.13486310	     -0.69037895	      0.73477130	     -8.35979563	     11.56535449	     39.68164364	    -72.12470183	      0.55664454	    -13.20225100	      9.36005673	     10.60474732	      4.87679956	    -15.55584035	      1.76121733	     -4.04578263
      1.57000000	     87.53304779	      5.40871203	     -5.22901665	     -0.12571866	     -0.68989632	      0.73360179	     -8.82716879	     11.77224108	     41.31702527	    -70.79977391	      0.69267121	    -13.35555929	      9.55579563	     10.64422819	      4.34690737	    -16.03878771	      2.02280361	     -4.01273794
      1.58000000	     87.46730914	      4.87925357	     -5.26184002	     -0.11648190	     -0.68934565	      0.73222198	     -9.22746226	     11.87611365	     42.85543584	    -69.22274586	      0.76685621	    -13.41705447	      9.76433343	     10.67026532	      3.82828241	    -16.54566200	      2.36048701	     -3.98148467
      1.59000000	     87.39796763	      4.35365172	     -5.28703894	     -0.10708543	     -0.68872619	      0.73066357	     -9.55390413	     11.88330044	     44.23299380	    -67.37087532	      0.75419843	    -13.34336516	      9.97165848	     10.71530768	      3.28502144	    -17.06837790	      2.74497431	     -3.95090436
      1.60000000	     87.34693589	      3.86434841	     -5.26710442	     -0.09745850	     -0.68803889	      0.72895336	     -9.78697152	     11.72583492	     45.35101926	    -65.22321108	      0.59479096	    -12.92695890	     10.16352367	     10.74776172	      2.66980569	    -17.60799074	      3.46668806	     -3.82055695
      1.61000000	     87.28193107	      3.32884731	     -5.25170823	     -0.08755491	     -0.68727643	      0.72709508	     -9.91789527	     11.54548579	     46.27640561	    -62.82290571	      0.51736320	    -12.68365711	     10.36250595	     10.92927807	      2.02543032	    -18.16595834	      3.67908603	     -3.77653049
      1.62000000	     87.24533448	      2.84682430	     -5.14560696	     -0.07728003	     -0.68645704	      0.72509685	     -9.92369897	     11.19467853	     46.83835507	    -60.16885893	      0.17782678	    -11.85602161	     10.54056829	     11.01886712	      1.26222301	    -18.75252488	      4.29698178	     -3.71998858
      1.63000000	     87.19617995	      2.38706708	     -4.99549842	     -0.06660013	     -0.68559479	      0.72296580	     -9.75008168	     10.67184717	     47.08197335	    -57.32761457	     -0.04349075	    -11.08481225	     10.74563103	     11.16696556	      0.41262511	    -19.35716191	      4.71911880	     -3.63175000
      1.64000000	     87.18828925	      1.91331223	     -4.86230094	     -0.05546704	     -0.68463881	      0.72073967	     -9.46083655	      9.99480376	     47.05142473	    -54.33326353	     -0.06533178	    -10.88886095	     10.89350440	     11.33895794	     -0.43798008	    -20.01848233	      4.78626784	     -3.61812922
      1.65000000	     87.16439782	      1.49208312	     -4.51240815	     -0.04386494	     -0.68369740	      0.71829407	     -8.97078109	      9.18439828	     46.57661766	    -51.37726131	     -0.61840755	     -9.80212279	     11.10890492	     11.38846108	     -1.50733667	    -20.78971538	      5.35307963	     -3.55602553
      1.66000000	     87.19539224	      1.07897671	     -4.11225205	     -0.03176458	     -0.68270034	      0.71573368	     -8.38858603	      8.21698676	     45.81914968	    -48.50077207	     -0.76953135	     -9.16928030	     11.25867488	     11.32516209	     -2.61061662	    -21.66840626	      5.60827390	     -3.39356216
      1.67000000	     87.30402461	      0.68702452	     -3.68455342	     -0.01920552	     -0.68164835	      0.71307067	     -7.76614995	      7.07761754	     44.84845660	    -45.82036482	     -0.87024517	     -8.86366221	     11.28977745	     11.05601059	     -3.67512800	    -22.70982468	      5.69595278	     -3.34333985
      1.68000000	     87.44725371	      0.34726227	     -3.25533741	     -0.00624245	     -0.68061942	      0.71034227	     -7.08854911	      5.74945619	     43.76082759	    -43.47788209	     -0.96889167	     -8.62434474	     11.26824014	     10.65397932	     -4.68239703	    -23.88661917	      5.73534751	     -3.29410941
      1.69000000	     87.70354575	      0.03156675	     -2.81030254	      0.00709792	     -0.67956574	      0.70760400	     -6.52767983	      4.37344274	     42.60079840	    -41.55869190	     -1.02421573	     -8.47811524	     11.07380528	     10.03882399	     -5.60228793	    -25.24895024	      5.70380033	     -3.23105407
      1.70000000	     88.07561531	     -0.24306365	     -2.37074407	      0.02072373	     -0.67849421	      0.70489354	     -6.14075807	      2.98097036	     41.44873461	    -40.15401433	     -1.01272884	     -8.47131284	     10.67327507	      9.15539093	     -6.37197508	    -26.82382941	      5.56626733	     -3.12198337
      1.71000000	     88.58128287	     -0.49424614	     -2.00914327	      0.03456549	     -0.67736932	      0.70231628	     -5.97413341	      1.58990729	     40.38119420	    -39.25237472	     -0.89623652	     -9.40436786	     10.01946066	      8.03765467	     -6.89838577	    -28.61091886	      5.01010647	     -2.43174024
      1.72000000	     89.20386412	     -0.66582762	     -1.74709893	      0.04851464	     -0.67624551	      0.69987486	     -6.06901951	      0.24438589	     39.48287029	    -38.92000284	     -0.76770408	     -9.59331191	      9.14189849	      6.67940148	     -7.14183104	    -30.61328187	      4.75708988	     -2.42197089
      1.73000000	     89.99724251	     -0.87307422	     -1.63945917	      0.06253520	     -0.67497651	      0.69771955	     -6.46500341	     -0.99247206	     38.72852137	    -38.97918251	     -0.40156038	    -11.09088746	      7.96526897	      5.21289466	     -7.03323884	    -32.83925165	      3.66211834	     -2.08849372
      1.74000000	     90.87701418	     -1.00017338	     -1.47668553	      0.07657643	     -0.67370061	      0.69572400	     -7.16601917	     -1.97133973	     38.00887398	    -39.54564344	      0.06755936	    -11.91318063	      6.61774096	      3.48263747	     -6.80384348	    -35.24258423	      2.66618905	     -1.98598121
      1.75000000	     91.85710221	     -1.11041606	     -1.46362621	      0.09054793	     -0.67234709	      0.69404140	     -8.11277152	     -2.78279781	     37.43248618	    -40.38437825	      0.65308528	    -12.77998966	      5.10011515	      1.66728294	     -6.23250394	    -37.81753114	      1.46090292	     -1.99287992
      1.76000000	     92.90406628	     -1.19452020	     -1.48407091	      0.10441267	     -0.67094754	      0.69266047	     -9.27617358	     -3.34868159	     36.87296131	    -41.40759808	      1.29444072	    -13.63089585	      3.48724214	     -0.22114088	     -5.45625725	    -40.52040537	      0.08447222	     -2.16873361
      1.77000000	     93.98765548	     -1.24304236	     -1.52812476	      0.11811794	     -0.66952145	      0.69162291	    -10.59226882	     -3.68470800	     36.28653150	    -42.48409976	      1.98022028	    -14.34507658	      1.84881707	     -2.13488829	     -4.49925438	    -43.30047610	     -1.33669702	     -2.46425605
      1.78000000	     95.06660951	     -1.25783939	     -1.69788898	      0.13157551	     -0.66810813	      0.69101394	    -11.95798521	     -3.86200039	     35.73713376	    -43.46453315	      2.57074675	    -14.95228594	      0.28377516	     -3.99340148	     -3.25844193	    -46.10384145	     -3.09448638	     -3.69246410
      1.79000000	     96.13052242	     -1.22796204	     -1.74956925	      0.14480710	     -0.66671360	      0.69077655	    -13.37340239	     -3.77882829	     34.97646995	    -44.29549332	      3.28160126	    -15.31898313	     -1.21974040	     -5.86592774	     -1.99783128	    -48.90762788	     -4.26865059	     -3.87130010
      1.80000000	     97.14274364	     -1.15733575	     -1.89993044	      0.15771336	     -0.66538513	      0.69102949	    -14.72623760	     -3.57932560	     34.19515295	    -44.86338851	      4.02292721	    -15.29122164	     -2.53689455	     -7.61102254	     -0.49917327	    -51.63048480	     -5.72875328	     -5.09940341
      1.81000000	     98.08985453	     -1.07268468	     -2.13608993	      0.17027041	     -0.66410932	      0.69178019	    -15.97478950	     -3.28037575	     33.37151722	    -45.10693387	      4.21809933	    -15.35724076	     -3.65429766	     -9.24981554	      1.24856026	    -54.28105104	     -6.01468041	     -5.20757617
      1.82000000	     98.90745647	     -0.88847303	     -2.36234323	      0.18251340	     -0.66298735	      0.69299135	    -17.03738875	     -2.96680454	     32.41828757	    -45.07092640	      5.19444850	    -15.22175016	     -4.49656035	    -10.82667689	      3.08232337	    -56.73005150	     -7.31939953	     -5.84569685
      1.83000000	     99.62244766	     -0.69118106	     -2.69468271	      0.19438654	     -0.66196074	      0.69467824	    -17.91731051	     -2.68220964	     31.44946369	    -44.70297940	      5.32698219	    -15.11710049	     -5.05579941	    -12.22392983	      5.16617580	    -59.01369036	     -7.44935163	     -6.06900689
      1.84000000	    100.19003191	     -0.45433749	     -3.01950978	      0.20597774	     -0.66109628	      0.69679800	    -18.59670219	     -2.31296524	     30.38867435	    -44.06911326	      6.08414055	    -14.10075110	     -5.31553467	    -13.44408723	      7.32467862	    -61.02481411	     -8.07840913	     -6.98417849
      1.85000000	    100.63622697	     -0.16102290	     -3.31821137	      0.21728412	     -0.66036223	      0.69926357	    -19.05372600	     -2.13049273	     29.17976976	    -43.16340990	      6.12869004	    -13.95745744	     -5.33399243	    -14.53280146	      9.53780353	    -62.78985650	     -8.01064489	     -7.09564201
      1.86000000	    100.93312783	      0.16341271	     -3.61419463	      0.22833617	     -0.65977407	      0.70202129	    -19.29164342	     -2.03895256	     27.90516581	    -42.07373588	      6.14782001	    -13.69233987	     -5.08739892	    -15.42482396	     11.80734639	    -64.26895426	     -7.83850929	     -7.22721976
      1.87000000	    101.10483655	      0.52178792	     -3.83037256	      0.23920029	     -0.65931529	      0.70500473	    -19.33118295	     -2.12804353	     26.46878188	    -40.80772874	      6.13882766	    -13.41427933	     -4.65858895	    -16.11587674	     14.01362665	    -65.44478109	     -7.62194674	     -7.35212750
      1.88000000	    101.13269318	      0.88250372	     -4.02470057	      0.24987107	     -0.65901474	      0.70812023	    -19.19097896	     -2.25160173	     25.01851303	    -39.48832198	      6.05319135	    -12.47318315	     -4.03004569	    -16.56317509	     16.21364520	    -66.33036089	     -6.85628150	     -7.51404105
      1.89000000	    101.04696201	      1.28155634	     -4.19890723	      0.26038716	     -0.65885669	      0.71130623	    -18.88106214	     -2.63964998	     23.51635956	    -38.11301534	      6.06144023	    -12.08373535	     -3.27686864	    -16.84077126	     18.37670260	    -66.92381560	     -6.49795666	     -7.60267383
      1.90000000	    100.87041060	      1.73972516	     -4.19059807	      0.27079774	     -0.65882161	      0.71444933	    -18.45240991	     -3.26321007	     21.80769798	    -36.72339528	      6.02164775	    -11.84314414	     -2.51302949	    -16.99221252	     20.29089759	    -67.23541205	     -6.24879347	     -7.72935767
      1.91000000	    100.57067963	      2.19257736	     -4.24909661	      0.28105811	     -0.65896326	      0.71752458	    -17.89595549	     -3.94652061	     20.25235483	    -35.43868470	      5.74603720	    -11.37759999	     -1.62588125	    -16.90757068	     22.23997602	    -67.28303896	     -5.50784848	     -8.10113076
      1.92000000	    100.25953177	      2.68397229	     -4.13499228	      0.29124441	     -0.65917635	      0.72040885	    -17.34065740	     -4.82200620	     18.52889248	    -34.19580530	      5.69126903	    -11.16030412	     -0.86852999	    -16.75493649	     23.94245087	    -67.10994108	     -5.26251830	     -8.26507068
      1.93000000	     99.89251320	      3.19324470	     -4.03368838	      0.30131350	     -0.65952477	      0.72308830	    -16.74879881	     -5.75943750	     16.90918245	    -33.09581619	      5.57586055	    -10.93277477	     -0.12836576	    -16.47118653	     25.59999954	    -66.71223701	     -4.92028187	     -8.52925812
      1.94000000	     99.51089923	      3.69940259	     -3.93242177	      0.31127239	     -0.65998118	      0.72549099	    -16.17167899	     -6.62442004	     15.40605108	    -32.16233881	      5.23926815	    -10.67202819	      0.52585817	    -16.05762327	     27.19795404	    -66.11388430	     -4.25661189	     -9.19368640
      1.95000000	     99.14300396	      4.25451237	     -3.70609644	      0.32116389	     -0.66050514	      0.72756524	    -15.65103647	     -7.51869590	     13.84380886	    -31.36562042	      5.17944811	    -10.51599145	      1.01325409	    -15.66635691	     28.59198131	    -65.32505500	     -4.09832437	     -9.40278745
      1.96000000	     98.79954243	      4.82460859	     -3.50240891	      0.33095778	     -0.66111071	      0.72930302	    -15.18139171	     -8.32296877	     12.41478574	    -30.73639059	      5.09159660	    -10.35870377	      1.36997000	    -15.23874195	     29.94599998	    -64.34662244	     -3.89726074	     -9.66910543
      1.97000000	     98.50299686	      5.41624866	     -3.29586433	      0.34067385	     -0.66177093	      0.73068190	    -14.78219455	     -9.00298653	     11.08133239	    -30.25527709	      4.99422967	    -10.20048863	      1.55871977	    -14.80977022	     31.21995158	    -63.17166473	     -3.70577186	     -9.95336419
      1.98000000	     98.25367017	      6.02756432	     -3.08684305	      0.35033617	     -0.66248389	      0.73168673	    -14.44459680	     -9.53012189	      9.84320767	    -29.92238582	      4.91082100	    -10.04080719	      1.58523905	    -14.40589234	     32.40432753	    -61.79216966	     -3.56698386	    -10.19842957
      1.99000000	     98.06590499	      6.66099228	     -2.88823032	      0.35995165	     -0.66323714	      0.73231381	    -14.17311960	     -9.92384832	      8.69797410	    -29.71747856	      4.85018687	     -9.86509061	      1.44286732	    -14.04200445	     33.50007642	    -60.19944043	     -3.49398493	    -10.38344855
      2.00000000	     97.92547672	      7.31613426	     -2.70227792	      0.36955730	     -0.66401817	      0.73257475	    -13.94364385	    -10.17758184	      7.64097189	    -29.62852607	      4.83303506	     -9.69101304	      1.15721373	    -13.74486957	     34.48907784	    -58.37522560	     -3.49743698	    -10.45182451
      2.01000000	     97.84571510	      7.98320568	     -2.54073310	      0.37918581	     -0.66481662	      0.73248325	    -13.76591448	    -10.35129880	      6.65240663	    -29.61935356	      4.85671574	     -9.48455125	      0.72535269	    -13.50196940	     35.35957898	    -56.31316205	     -3.58133981	    -10.41364083
      2.02000000	     97.80892279	      8.64019885	     -2.39706444	      0.38887856	     -0.66562806	      0.73204488	    -13.61110782	    -10.34989652	      5.74920849	    -29.71849815	      5.10645128	     -8.85481685	      0.17630732	    -13.28481665	     36.08377181	    -54.01038505	     -4.00103772	    -10.06211896
      2.03000000	     97.78384733	      9.29929118	     -2.30622871	      0.39869104	     -0.66649664	      0.73129597	    -13.43482636	    -10.30821301	      4.93372094	    -29.88618592	      5.14934030	     -8.80963246	     -0.43473864	    -13.09134173	     36.66705681	    -51.45748722	     -4.01322105	     -9.98205466
      2.04000000	     97.84503968	      9.97565967	     -2.20495649	      0.40866405	     -0.66733235	      0.73022872	    -13.37205994	    -10.43870573	      4.05341995	    -30.07484019	      5.82366855	     -7.87850313	     -1.18172393	    -13.00042712	     37.04327637	    -48.73021471	     -4.40739910	     -9.01917461
      2.05000000	     97.91062860	     10.60686830	     -2.00580312	      0.41889021	     -0.66817848	      0.72882998	    -13.31201373	    -10.47552690	      3.07760485	    -30.30294934	      5.96154728	     -7.80059103	     -2.00443181	    -12.85627972	     37.09428834	    -45.83851440	     -4.73120568	     -8.65069223
      2.06000000	     97.96500091	     11.20264865	     -1.92069200	      0.42936956	     -0.66908698	      0.72719669	    -13.20165177	    -10.51180977	      2.25089816	    -30.62479388	      6.31976080	     -7.63487707	     -2.81395437	    -12.65915241	     37.04229665	    -42.80771100	     -5.43605713	     -7.86370665
      2.07000000	     98.06228615	     11.74766119	     -1.72112063	      0.44020019	     -0.66997979	      0.72526621	    -13.17737285	    -10.63863028	      1.23800892	    -30.94168939	      6.52414040	     -7.53696625	     -3.72621196	    -12.37474104	     36.66036096	    -39.77862489	     -5.79402220	     -7.42890700
      2.08000000	     98.09656336	     12.27306634	     -1.56309288	      0.45138888	     -0.67096913	      0.72312611	    -13.05721296	    -10.74879236	      0.32718643	    -31.40572466	      6.97238802	     -7.36740347	     -4.55017228	    -12.05576435	     36.13786350	    -36.78216353	     -6.55971492	     -6.62259451
      2.09000000	     98.15713643	     12.69660697	     -1.38679434	      0.46294985	     -0.67195926	      0.72077114	    -12.98184036	    -10.85937520	     -0.62180659	    -31.91500561	      7.38823519	     -7.14737734	     -5.42834847	    -11.52031349	     35.43806788	    -33.95921979	     -7.12489250	     -5.98649479
      2.10000000	     98.17947117	     13.04673891	     -1.14105247	      0.47490659	     -0.67299165	      0.71823230	    -12.87582249	    -10.91591577	     -1.60993285	    -32.53177410	      7.54635074	     -7.07777536	     -6.26614766	    -10.82906526	     34.55814841	    -31.40466835	     -7.36619421	     -5.69192251
      2.11000000	     98.10955580	     13.35902340	     -0.87167992	      0.48724550	     -0.67411046	      0.71560313	    -12.67094589	    -10.95615093	     -2.55533847	    -33.29551991	      7.81217405	     -6.96913299	     -6.93963604	    -10.10230043	     33.59896306	    -29.18818224	     -7.78476172	     -5.33098966
      2.12000000	     98.01843069	     13.54170105	     -0.70669382	      0.49987096	     -0.67526654	      0.71293960	    -12.41731364	    -10.88468648	     -3.30827078	    -34.20565732	      7.93289531	     -6.89562635	     -7.54910677	     -9.10984114	     32.71982875	    -27.38639083	     -7.95532546	     -5.14630952
      2.13000000	     97.79261997	     13.67708630	     -0.48574615	      0.51280896	     -0.67650868	      0.71029257	    -12.00591455	    -10.69287337	     -3.98806842	    -35.30628497	      8.04288958	     -6.71807662	     -7.90671877	     -8.12201716	     31.81961197	    -26.05063798	     -8.07880848	     -5.10581700
      2.14000000	     97.51088871	     13.69278990	     -0.40016888	      0.52593359	     -0.67781359	      0.70774673	    -11.48465239	    -10.34047577	     -4.38469567	    -36.59101307	      7.99126458	     -6.62683561	     -8.11389200	     -6.94501730	     31.10167319	    -25.19210704	     -7.99246129	     -5.15951381
      2.15000000	     97.08631588	     13.65650787	     -0.29675033	      0.53925721	     -0.67922017	      0.70534506	    -10.76957523	     -9.80202856	     -4.61748606	    -38.09066244	      7.68067294	     -6.11342886	     -8.04237317	     -5.77140745	     30.43387343	    -24.79735002	     -7.50679667	     -5.81496489
      2.16000000	     96.55412866	     13.52807658	     -0.28389132	      0.55265379	     -0.68070220	      0.70311808	     -9.86857629	     -9.01606396	     -4.53011437	    -39.84705431	      7.43496158	     -6.04213982	     -7.70616360	     -4.61261873	     29.95608194	    -24.85279336	     -7.24574414	     -6.03994848
      2.17000000	     95.88223450	     13.37032375	     -0.32831621	      0.56613277	     -0.68231801	      0.70117959	     -8.79870958	     -8.15299618	     -4.21297794	    -41.78389396	      6.58253280	     -5.58005010	     -7.10583146	     -3.45387710	     29.56564760	    -25.22564822	     -6.32579087	     -6.89960313
      2.18000000	     95.10726827	     13.15235627	     -0.38769310	      0.57958697	     -0.68399604	      0.69946729	     -7.58121234	     -7.06223049	     -3.65442602	    -43.96302796	      5.71849200	     -5.27286287	     -6.24572138	     -2.43038537	     29.26483946	    -25.91319139	     -5.56980657	     -7.59558726
      2.19000000	     94.21606081	     12.89633103	     -0.46530741	      0.59297092	     -0.68575752	      0.69807077	     -6.24553856	     -5.86446934	     -2.88771795	    -46.32986432	      4.65036158	     -5.01493635	     -5.14968979	     -1.49547786	     28.98840483	    -26.75092217	     -4.73816941	     -8.26649425
      2.20000000	     93.23123810	     12.60857806	     -0.56766353	      0.60621721	     -0.68756112	      0.69701095	     -4.83702495	     -4.58316397	     -1.91309841	    -48.86817939	      3.40410938	     -4.82645244	     -3.85105527	     -0.70881163	     28.72231970	    -27.64890863	     -3.86927485	     -8.87119458
      2.21000000	     92.19283741	     12.27133885	     -0.71709948	      0.61925282	     -0.68938454	      0.69630984	     -3.41991550	     -3.23180487	     -0.72945216	    -51.53709844	      2.08948942	     -4.71280231	     -2.42452336	     -0.02843358	     28.45975458	    -28.51346434	     -3.03434831	     -9.36164201
      2.22000000	     91.05293263	     11.98262466	     -0.85321771	      0.63206284	     -0.69125962	      0.69602113	     -1.99176751	     -2.00307751	      0.58885710	    -54.30853158	      0.58568131	     -4.69124509	     -0.82029329	      0.38643749	     28.09302262	    -29.21299235	     -2.17940067	     -9.76963594
      2.23000000	     89.90352267	     11.65571087	     -1.06208849	      0.64455210	     -0.69309495	      0.69614213	     -0.64873186	     -0.77968362	      2.11290200	    -57.13278983	     -0.81954198	     -4.78423273	      0.81242595	      0.69947090	     27.70213726	    -29.70688592	     -1.44138165	    -10.01702441
      2.24000000	     88.74743735	     11.32466971	     -1.28769539	      0.65671997	     -0.69488626	      0.69666577	      0.58536840	      0.36424389	      3.76265130	    -59.95902910	     -2.17051892	     -4.99110642	      2.45536276	      0.87783453	     27.21143004	    -29.94688200	     -0.76887706	    -10.11440040
      2.25000000	     87.61225949	     10.99787389	     -1.57476833	      0.66854175	     -0.69661934	      0.69759902	      1.67233650	      1.40481215	      5.57386483	    -62.74408675	     -3.27038871	     -5.24196670	      4.06067876	      0.94762030	     26.65722786	    -29.90220199	     -0.22074057	    -10.07742077
      2.26000000	     86.51419211	     10.66561214	     -1.79664011	      0.68004275	     -0.69827798	      0.69886315	      2.61473185	      2.37069234	      7.39113040	    -65.42624592	     -4.30419374	     -5.69064828	      5.60036848	      0.93397511	     25.91345899	    -29.58764202	      0.35564110	     -9.78052974
      2.27000000	     85.49109496	     10.37332563	     -2.10069450	      0.69120356	     -0.69987110	      0.70047631	      3.35696377	      3.19021732	      9.37333275	    -67.98710603	     -4.49405996	     -5.81729473	      7.01597242	      0.87886168	     25.12338179	    -28.98450317	      0.49324978	     -9.72488486
      2.28000000	     84.61938316	     10.08794337	     -2.50532296	      0.70203135	     -0.70133060	      0.70236016	      3.82972466	      3.93708976	     11.51366649	    -70.36087528	     -4.90348835	     -5.95445947	      8.24086189	      0.75357099	     24.35663060	    -28.20696444	      0.83332164	     -9.44100164
      2.29000000	     83.79160348	      9.83714233	     -2.70777683	      0.71264616	     -0.70273957	      0.70441815	      4.19611149	      4.57239039	     13.48461245	    -72.50604744	     -4.91565612	     -6.07583514	      9.36926110	      0.66876714	     23.26423584	    -27.19390539	      0.92985950	     -9.33889898
      2.30000000	     83.15289367	      9.56175774	     -3.02387618	      0.72296471	     -0.70399080	      0.70661199	      4.27525574	      5.19520069	     15.60411302	    -74.40382349	     -4.45786676	     -6.37492690	     10.25768514	      0.65691320	     22.24614319	    -26.11428234	      1.33310169	     -8.46715958
      2.31000000	     82.62494771	      9.33276267	     -3.25301037	      0.73308742	     -0.70517241	      0.70890276	      4.18883129	      5.71384890	     17.65773047	    -76.01248509	     -4.30963018	     -6.48865794	     10.97748740	      0.76890485	     21.05859849	    -24.89449424	      1.40944169	     -8.35650394
      2.32000000	     82.24386452	      9.10311865	     -3.48282042	      0.74299581	     -0.70622112	      0.71120018	      3.89669240	      6.21383275	     19.73059832	    -77.33227403	     -3.88053464	     -6.70283195	     11.50517950	      1.00884644	     19.85249596	    -23.66155546	      1.45339598	     -8.18706663
      2.33000000	     82.00442415	      8.91917033	     -3.68965235	      0.75270832	     -0.70714532	      0.71343170	      3.41278948	      6.63089612	     21.79761990	    -78.36384620	     -2.76221718	     -7.15202822	     11.87492840	      1.21221233	     18.65502500	    -22.49129229	      1.48042807	     -7.87803606
      2.34000000	     81.86343411	      8.72872221	     -3.81097751	      0.76227445	     -0.70796186	      0.71558764	      2.80879681	      7.04794163	     23.77101941	    -79.08024662	     -1.95570067	     -7.52620899	     12.10206074	      1.65398704	     17.35129131	    -21.32716088	      1.52962337	     -7.68454606
      2.35000000	     81.82139875	      8.54582379	     -3.89299541	      0.77168013	     -0.70865061	      0.71760239	      2.08171818	      7.45299090	     25.70285027	    -79.50181442	     -1.10934251	     -8.03576069	     12.21101250	      2.19293713	     16.04452386	    -20.25155217	      1.55962529	     -7.56022400
      2.36000000	     81.88430212	      8.35688264	     -3.95885573	      0.78092279	     -0.70919019	      0.71946064	      1.22449454	      7.84703771	     27.60086929	    -79.62553517	     -0.36587237	     -8.61985027	     12.19685248	      2.83697253	     14.76865413	    -19.28885426	      1.58112605	     -7.49678964
      2.37000000	     81.97425676	      8.18530160	     -3.99615212	      0.79001792	     -0.70962561	      0.72110004	      0.33725017	      8.23447808	     29.47700923	    -79.49505610	      0.40025928	     -9.40339451	     12.15682665	      3.48710787	     13.52988244	    -18.43888218	      1.59774322	     -7.48521521
      2.38000000	     82.10197480	      8.01873151	     -4.02398031	      0.79896591	     -0.70993610	      0.72252516	     -0.59143934	      8.60031366	     31.32912558	    -79.10581337	      1.03490637	    -10.29431770	     12.07565947	      4.15678441	     12.34318128	    -17.70032943	      1.61974141	     -7.49818606
      2.39000000	     82.25157122	      7.84811889	     -4.03669655	      0.80778014	     -0.71012323	      0.72371170	     -1.53606726	      8.94636717	     33.14384445	    -78.47244920	      1.53639788	    -11.28738882	     11.97437177	      4.78605624	     11.20933917	    -17.07802578	      1.65427010	     -7.51060139
      2.40000000	     82.37930525	      7.66780843	     -3.95569726	      0.81649128	     -0.71022360	      0.72463203	     -2.41950055	      9.29529461	     34.83510695	    -77.60662839	      1.78011790	    -12.74330358	     11.90740636	      5.37646451	     10.03140232	    -16.53958681	      1.70962294	     -7.50555502
      2.41000000	     82.50653385	      7.48170821	     -3.99890261	      0.82506470	     -0.71021350	      0.72533807	     -3.30709785	      9.62642037	     36.63882965	    -76.52628661	      1.92215591	    -13.06386161	     11.82955702	      5.91307245	      9.04531429	    -16.08963390	      1.76092208	     -7.43107224
      2.42000000	     82.64366761	      7.30465857	     -4.02096508	      0.83355361	     -0.71009434	      0.72578195	     -4.15433129	      9.84772100	     38.34638225	    -75.20686329	      2.27064788	    -14.35959958	     11.74588803	      6.22707118	      8.11422990	    -15.75346429	      1.94850886	     -7.27782615
      2.43000000	     82.69594207	      7.14127546	     -4.05333117	      0.84200164	     -0.70996327	      0.72601283	     -4.85830174	     10.03128624	     40.02434308	    -73.68743777	      2.31264571	    -14.59573075	     11.75461848	      6.58423911	      7.17975963	    -15.36106370	      2.02526110	     -7.17817970
      2.44000000	     82.74285167	      6.96117840	     -4.10958120	      0.85042389	     -0.70974664	      0.72600976	     -5.48894941	     10.14608307	     41.62505202	    -71.93262065	      2.41141701	    -14.88305474	     11.76643516	      6.80940350	      6.31865340	    -15.04339816	      2.14764610	     -7.06634589
      2.45000000	     82.75831151	      6.77954326	     -4.15363781	      0.85887572	     -0.70948247	      0.72577921	     -5.99191924	     10.18094061	     43.09295499	    -69.95161907	      2.45915950	    -15.10104808	     11.81601256	      6.94744849	      5.46580561	    -14.75481944	      2.31062558	     -6.93891906
      2.46000000	     82.75458372	      6.58383516	     -4.19470155	      0.86739226	     -0.70917624	      0.72534785	     -6.36162377	     10.13133606	     44.40219325	    -67.73503937	      2.41410687	    -15.17844821	     11.89047479	      7.04794182	      4.61818196	    -14.48661625	      2.51073667	     -6.80290102
      2.47000000	     82.72897733	      6.36460908	     -4.23720036	      0.87604563	     -0.70882357	      0.72471895	     -6.58081111	     10.00197310	     45.52767043	    -65.29453647	      2.23681215	    -15.06821549	     11.99471070	      7.14619511	      3.77953359	    -14.25997984	      2.77781123	     -6.64938001
      2.48000000	     82.72207990	      6.10883480	     -4.22743273	      0.88487312	     -0.70841374	      0.72388858	     -6.67408739	      9.82577357	     46.38482384	    -62.64221231	      1.78332652	    -14.55731974	     12.08668069	      7.18800306	      2.91836308	    -14.13717261	      3.26192015	     -6.39312749
      2.49000000	     82.68246780	      5.86201687	     -4.19368617	      0.89395244	     -0.70797801	      0.72286906	     -6.55337924	      9.48598315	     46.97815064	    -59.82593807	      1.43824669	    -13.73551757	     12.22560002	      7.19969644	      2.04199368	    -14.07272545	      3.74038564	     -6.09539738
      2.50000000	     82.65674002	      5.54625134	     -4.12077779	      0.90332267	     -0.70746855	      0.72168224	     -6.27920952	      9.10550451	     47.27939344	    -56.87753763	      1.09813612	    -12.80735572	     12.36125804	      7.33296557	      1.13382640	    -14.11735258	      4.13205167	     -5.95039669
      2.51000000	     82.64104282	      5.17444373	     -4.01835370	      0.91303879	     -0.70688156	      0.72033707	     -5.84397692	      8.64925874	     47.29901911	    -53.87471854	      1.05237156	    -11.40706976	     12.50064555	      7.56862425	      0.21665026	    -14.30509054	      4.57072750	     -5.70403748
      2.52000000	     82.65724929	      4.77918765	     -3.74772400	      0.92314668	     -0.70621955	      0.71879461	     -5.22678146	      8.05230281	     46.88189760	    -50.88653941	      0.56787853	    -10.77136095	     12.62495129	      7.69681385	     -0.81303520	    -14.69625605	      4.82514890	     -5.76720743
      2.53000000	     82.71064832	      4.32981146	     -3.58105657	      0.93361791	     -0.70544634	      0.71715118	     -4.48863409	      7.29257993	     46.33005551	    -47.98364910	     -0.02946237	     -9.78594441	     12.70077200	      7.92111344	     -1.66354240	    -15.32784081	      5.21594324	     -5.80995279
      2.54000000	     82.79224429	      3.86241837	     -3.31087172	      0.94449701	     -0.70458556	      0.71536776	     -3.60577998	      6.35356141	     45.47154108	    -45.29531519	     -0.21061773	     -9.39787167	     12.76328767	      8.09712588	     -2.54759778	    -16.19040569	      5.34651143	     -5.82477269
      2.55000000	     82.97739917	      3.33329401	     -2.98481690	      0.95578767	     -0.70360315	      0.71351365	     -2.78312424	      5.42898734	     44.41495261	    -42.89452947	     -0.80743403	     -8.58065874	     12.71847428	      8.25362649	     -3.39991556	    -17.32889636	      5.77724961	     -5.84262334
      2.56000000	     83.24125969	      2.80939602	     -2.67106203	      0.96741521	     -0.70250367	      0.71160480	     -1.97092078	      4.31328920	     43.25214194	    -40.85977724	     -0.92399171	     -8.29641285	     12.56500304	      8.25589599	     -4.10788717	    -18.75680015	      5.90569444	     -5.82864355
      2.57000000	     83.59368518	      2.29296054	     -2.44433513	      0.97933880	     -0.70128502	      0.70973060	     -1.25220075	      3.06698393	     42.10676982	    -39.23159527	     -0.98241429	     -8.13648275	     12.29777542	      8.21157596	     -4.61846717	    -20.41975944	      5.96461324	     -5.84030544
      2.58000000	     84.08066453	      1.78958071	     -2.20638709	      0.99152997	     -0.69993524	      0.70788849	     -0.77126887	      1.83296544	     40.94018663	    -38.06437360	     -0.99404661	     -8.11256814	     11.84263628	      7.94329781	     -4.99540787	    -22.34317492	      5.98073323	     -5.85103931
      2.59000000	     84.68827094	      1.32135105	     -1.93309603	      1.00394518	     -0.69845946	      0.70612793	     -0.54146049	      0.60735198	     39.74699493	    -37.35210401	     -0.90236373	     -9.01772841	     11.21922210	      7.45733638	     -5.28498993	    -24.45429226	      5.90640180	     -5.58711705
      2.60000000	     85.43484583	      0.89257399	     -1.88447726	      1.01646325	     -0.69681370	      0.70452472	     -0.64231129	     -0.54120166	     38.82695618	    -37.06755192	     -0.82288711	     -9.16096154	     10.34570814	      6.75193253	     -5.16890484	    -26.78072318	      5.76126761	     -5.63329954
      2.61000000	     86.27958380	      0.51876996	     -1.78160314	      1.02910089	     -0.69504981	      0.70308422	     -1.02617883	     -1.58791295	     37.88165136	    -37.15110266	     -0.33620155	    -10.48304145	      9.32614503	      5.81693130	     -5.00031655	    -29.19322794	      5.02631665	     -5.45784410
      2.62000000	     87.22717967	      0.22002683	     -1.73993019	      1.04175953	     -0.69316043	      0.70183652	     -1.72542354	     -2.47421715	     37.04564033	    -37.54126492	     -0.07856195	    -11.56895116	      8.12997026	      4.63233517	     -4.63320283	    -31.70253645	      4.26681255	     -5.52656347
      2.63000000	     88.24271284	      0.00094652	     -1.71532757	      1.05439315	     -0.69117979	      0.70079059	     -2.70332831	     -3.13918210	     36.27399325	    -38.17444305	      0.32274684	    -12.40418641	      6.80818165	      3.19647753	     -4.12609779	    -34.26443635	      3.37801742	     -5.65541541
      2.64000000	     89.33027308	     -0.17265396	     -1.73320698	      1.06693651	     -0.68908653	      0.70000989	     -3.92242583	     -3.57667005	     35.54076775	    -38.89777193	      0.82549389	    -13.22468072	      5.37706300	      1.61465128	     -3.46189940	    -36.85327931	      2.22779422	     -5.90833895
      2.65000000	     90.42597777	     -0.25830948	     -1.76605842	      1.07932396	     -0.68695645	      0.69948565	     -5.28108235	     -3.81898822	     34.82248628	    -39.66014257	      1.36746732	    -13.92416434	      3.92002029	     -0.15723176	     -2.67700182	    -39.42847732	      0.88865309	     -6.33397782
      2.66000000	     91.51481101	     -0.26676213	     -1.85670571	      1.09148856	     -0.68482004	      0.69928128	     -6.70210892	     -3.93404093	     34.11602593	    -40.33356614	      1.74350921	    -14.45850471	      2.49347196	     -2.01110613	     -1.74129520	    -41.94858129	     -0.88568492	     -7.78787897
      2.67000000	     92.57558993	     -0.22591940	     -2.01735723	      1.10338378	     -0.68267544	      0.69940965	     -8.13859422	     -3.90277483	     33.42852880	    -40.86724602	      2.39422972	    -14.72863852	      1.12467272	     -3.95845890	     -0.61923095	    -44.43690210	     -2.17682170	     -8.16078371
      2.68000000	     93.58989394	     -0.13176757	     -2.07993077	      1.11501064	     -0.68056516	      0.69983775	     -9.55320335	     -3.71554241	     32.57505859	    -41.21897911	      2.97921491	    -14.90210760	     -0.14971435	     -5.93437164	      0.48471476	    -46.83565583	     -3.36604303	     -8.50536751
      2.69000000	     94.52583413	     -0.00106662	     -2.29692185	      1.12628102	     -0.67852350	      0.70066150	    -10.83889397	     -3.54316115	     31.78734000	    -41.31975458	      3.60875008	    -14.87266634	     -1.23509249	     -7.84173375	      1.85329324	    -49.12325809	     -4.73764395	     -9.29507167
      2.70000000	     95.36474697	      0.15381707	     -2.57637841	      1.13720392	     -0.67657167	      0.70183927	    -11.98059434	     -3.35310126	     30.98402543	    -41.18226157	      4.13905618	    -14.51236293	     -2.09861320	     -9.63912299	      3.38670317	    -51.27505467	     -5.96313219	    -10.46021408
      2.71000000	     96.12349337	      0.28716536	     -2.81223790	      1.14781343	     -0.67469640	      0.70331309	    -12.99240050	     -3.11087971	     30.05545778	    -40.79926176	      4.21553630	    -14.49362849	     -2.78290458	    -11.29775842	      4.98944983	    -53.30943407	     -6.08295413	    -10.58689523
      2.72000000	     96.76385637	      0.45879048	     -3.08527025	      1.15810757	     -0.67295692	      0.70511060	    -13.79164111	     -3.05669349	     29.05591630	    -40.16468280	      4.35762048	    -14.43262112	     -3.21420448	    -12.81704745	      6.71850574	    -55.15038753	     -6.27496183	    -10.72018651
      2.73000000	     97.27466623	      0.62123672	     -3.37126812	      1.16809252	     -0.67134920	      0.70714357	    -14.39600872	     -3.07957858	     28.02059419	    -39.36879590	      4.52155299	    -14.31849576	     -3.38122199	    -14.10619183	      8.55851142	    -56.80585443	     -6.46146459	    -10.86563953
      2.74000000	     97.63872497	      0.80368503	     -3.67465679	      1.17779050	     -0.66992574	      0.70935398	    -14.79270942	     -3.19948886	     26.98444135	    -38.47909066	      4.71589547	    -14.08180109	     -3.27485813	    -15.19811237	     10.49957793	    -58.25580416	     -6.61864876	    -11.05932023
      2.75000000	     97.91051613	      0.89959495	     -3.93805628	      1.18726816	     -0.66859352	      0.71172770	    -15.05583174	     -3.32088398	     25.86667348	    -37.43838645	      4.93298155	    -13.61188093	     -2.98692828	    -15.91120579	     12.47615557	    -59.50185195	     -6.62782466	    -11.29404696
      2.76000000	     98.09465082	      1.06038427	     -4.05243866	      1.19656623	     -0.66742526	      0.71412359	    -15.17713466	     -3.66354934	     24.55517495	    -36.33105170	      4.98839556	    -13.43650372	     -2.60037757	    -16.50154512	     14.32117853	    -60.53948375	     -6.54070643	    -11.35908819
      2.77000000	     98.17880395	      1.19388323	     -4.18874799	      1.20566716	     -0.66640707	      0.71655276	    -15.16743340	     -4.08371666	     23.27714707	    -35.19867414	      5.00072460	    -13.24238562	     -2.05245466	    -16.79884737	     16.22856105	    -61.37451375	     -6.34279873	    -11.40575303
      2.78000000	     98.18169287	      1.33250332	     -4.26982816	      1.21461925	     -0.66552975	      0.71893691	    -15.05827516	     -4.59600317	     21.95755073	    -34.07499256	      4.97780353	    -13.05050618	     -1.42218926	    -16.86103549	     18.08035429	    -62.00816441	     -6.07322548	    -11.43943507
      2.79000000	     98.10863101	      1.49379404	     -4.30412458	      1.22343953	     -0.66481173	      0.72122427	    -14.86581929	     -5.17351498	     20.62910998	    -33.00698531	      4.91611626	    -12.85928082	     -0.73499311	    -16.72640484	     19.86603219	    -62.44703303	     -5.71623586	    -11.47083534
      2.80000000	     97.98536762	      1.66076177	     -4.31731989	      1.23214410	     -0.66423065	      0.72335344	    -14.63651819	     -5.67719893	     19.36024294	    -32.04611175	      4.68878839	    -12.62743151	     -0.03549513	    -16.40230079	     21.60812935	    -62.71803907	     -4.86390128	    -11.42836576
      2.81000000	     97.85151003	      1.89666093	     -4.19360325	      1.24077667	     -0.66375543	      0.72528163	    -14.40804686	     -6.28899578	     17.96847303	    -31.14067827	      4.66916595	    -12.50811326	      0.57109828	    -16.02204152	     23.15334293	    -62.81654772	     -4.66198994	    -11.44389899
      2.82000000	     97.70098261	      2.16479283	     -4.09290145	      1.24930858	     -0.66339571	      0.72699733	    -14.17834134	     -6.83785888	     16.68773822	    -30.36508346	      4.60454302	    -12.38159160	      1.13561497	    -15.53898017	     24.68413990	    -62.75667826	     -4.37116611	    -11.54837794
      2.83000000	     97.55227635	      2.47973966	     -3.97100534	      1.25776801	     -0.66313382	      0.72846412	    -13.96960422	     -7.30934939	     15.46788162	    -29.71951129	      4.51347955	    -12.24805009	      1.61246810	    -15.00814304	     26.14150927	    -62.54060912	     -4.03906880	    -11.72223804
      2.84000000	     97.41953586	      2.84418198	     -3.82963177	      1.26616387	     -0.66295029	      0.72966272	    -13.79478811	     -7.68379495	     14.31217663	    -29.20618435	      4.41449600	    -12.10460789	      1.97928072	    -14.46414898	     27.52366108	    -62.16767636	     -3.70538522	    -11.94819917
      2.85000000	     97.31325635	      3.26152300	     -3.68231222	      1.27450415	     -0.66284146	      0.73058715	    -13.65794679	     -7.96317802	     13.23069489	    -28.82053407	      4.32125523	    -11.94048468	      2.22628575	    -13.93719269	     28.84073005	    -61.63085106	     -3.39065482	    -12.21515675
      2.86000000	     97.23879275	      3.73135071	     -3.53399813	      1.28281015	     -0.66278587	      0.73124170	    -13.56059077	     -8.14580752	     12.22185104	    -28.55376769	      4.25985507	    -11.75681668	      2.34560638	    -13.44528990	     30.08575658	    -60.91198717	     -3.13998843	    -12.47554464
      2.87000000	     97.19772655	      4.24559621	     -3.39346100	      1.29109299	     -0.66279623	      0.73162230	    -13.49649330	     -8.25057732	     11.28340084	    -28.39231174	      4.23841618	    -11.54105600	      2.34506290	    -13.00852553	     31.26731270	    -60.00734342	     -2.94880880	    -12.71519823
      2.88000000	     97.18323617	      4.79586827	     -3.25243341	      1.29937278	     -0.66285159	      0.73172947	    -13.45813921	     -8.18016017	     10.43242936	    -28.36844431	      4.35146005	    -10.93725367	      2.22719778	    -12.61101134	     32.35807982	    -58.89435051	     -2.74533015	    -13.16393237
      2.89000000	     97.21760344	      5.39624946	     -3.14284875	      1.30767316	     -0.66293588	      0.73161954	    -13.46302480	     -8.26202228	      9.59087619	    -28.35040868	      4.44874572	    -10.79552010	      1.98732136	    -12.31927739	     33.38188608	    -57.55849178	     -2.79124768	    -13.13336770
      2.90000000	     97.27964507	      6.01971976	     -3.06038581	      1.31602429	     -0.66305974	      0.73128842	    -13.48817041	     -8.31192389	      8.80344683	    -28.39564273	      4.58915492	    -10.56683460	      1.65065510	    -12.08448262	     34.31494509	    -55.98588545	     -2.83675192	    -13.05761380
      2.91000000	     97.36372903	      6.65807145	     -2.98591860	      1.32445011	     -0.66321644	      0.73076215	    -13.52841080	     -8.36070176	      8.02716851	    -28.46958981	      4.77446415	    -10.31043374	      1.22654524	    -11.90746311	     35.11861618	    -54.16443545	     -2.92802590	    -12.87620256
      2.92000000	     97.46892490	      7.30129657	     -2.92287244	      1.33300549	     -0.66341023	      0.73005644	    -13.58334079	     -8.43270285	      7.25031412	    -28.56345178	      5.02776892	    -10.02438462	      0.72529479	    -11.76941541	     35.77884439	    -52.10352390	     -3.10418589	    -12.53730103
      2.93000000	     97.58593947	      7.93408304	     -2.86817458	      1.34171173	     -0.66363028	      0.72920049	    -13.64198678	     -8.51845464	      6.46088874	    -28.65432470	      5.32236424	     -9.74525453	      0.16433615	    -11.65536837	     36.27697452	    -49.80469611	     -3.35295539	    -12.05776403
      2.94000000	     97.71106730	      8.56117385	     -2.81141819	      1.35060437	     -0.66389220	      0.72820104	    -13.70521514	     -8.66461201	      5.64336242	    -28.75500348	      5.58198219	     -9.53701308	     -0.44932793	    -11.54081433	     36.58587899	    -47.29668061	     -3.63207613	    -11.55456634
      2.95000000	     97.84299762	      9.13420992	     -2.83131183	      1.35971687	     -0.66419055	      0.72708664	    -13.73982626	     -8.67800919	      4.92457819	    -28.89444387	      6.32032428	     -8.72796617	     -1.08904578	    -11.36567422	     36.79064937	    -44.62078736	     -3.81349906	    -10.18035568
      2.96000000	     97.95444882	      9.74160532	     -2.73063621	      1.36912502	     -0.66454181	      0.72585322	    -13.77072904	     -8.87473733	      4.00304090	    -28.98634993	      6.55294759	     -8.64719810	     -1.74630547	    -11.25945825	     36.67047633	    -41.82134094	     -4.34849921	     -9.53456550
      2.97000000	     98.10844777	     10.29517637	     -2.62578863	      1.37882544	     -0.66490975	      0.72452276	    -13.85805351	     -9.18293399	      2.99529335	    -29.01424300	      6.70321353	     -8.58195995	     -2.48822987	    -11.03304008	     36.35456131	    -38.98606011	     -4.70792976	     -9.10648855
      2.98000000	     98.20254725	     10.85573649	     -2.50410591	      1.38885327	     -0.66535819	      0.72310726	    -13.85899561	     -9.44221433	      2.00658810	    -29.13435323	      6.99506166	     -8.51647783	     -3.15379562	    -10.83066898	     35.86056592	    -36.17209546	     -5.50257462	     -8.28935197
      2.99000000	     98.31913893	     11.33900482	     -2.42533965	      1.39917927	     -0.66583174	      0.72162088	    -13.87302686	     -9.68244195	      1.05646942	    -29.28739770	      7.27456574	     -8.38970610	     -3.86874934	    -10.43082180	     35.25842734	    -33.47908999	     -6.18309291	     -7.54210019
      3.00000000	     98.42266691	     11.79518685	     -2.26485495	      1.40983885	     -0.66633755	      0.72005757	    -13.89218028	     -9.95376554	      0.01520097	    -29.49287550	      7.38423643	     -8.30497441	     -4.57625533	     -9.95756476	     34.46059485	    -31.01188225	     -6.49373805	     -7.20439133
      3.01000000	     98.44340094	     12.24484893	     -2.08458767	      1.42083069	     -0.66691459	      0.71848111	    -13.81264927	    -10.19499427	     -0.97837870	    -29.83831237	      7.54981103	     -8.18809880	     -5.13918026	     -9.51082415	     33.57114545	    -28.81537439	     -7.06157168	     -6.75552522
      3.02000000	     98.44162191	     12.61973004	     -1.96715513	      1.43205929	     -0.66753036	      0.71691073	    -13.69736792	    -10.38409467	     -1.82567688	    -30.33916630	      7.64111795	     -8.06321979	     -5.65579468	     -8.88718537	     32.69140081	    -26.95615790	     -7.41387737	     -6.50678675
      3.03000000	     98.39016530	     12.93212631	     -1.91929155	      1.44350190	     -0.66819254	      0.71538775	    -13.51747857	    -10.52490671	     -2.49088944	    -31.03156617	      7.65585602	     -7.96607263	     -6.06695371	     -8.15034331	     31.86094758	    -25.47016116	     -7.57250665	     -6.40084735
      3.04000000	     98.22381676	     13.21571775	     -1.81456744	      1.45517490	     -0.66891008	      0.71391464	    -13.20285265	    -10.52661967	     -3.05095843	    -31.97041188	      7.60616345	     -7.77436440	     -6.26191416	     -7.46115752	     30.99375490	    -24.38575073	     -7.70317324	     -6.48521175
      3.05000000	     98.00566942	     13.39819684	     -1.83777599	      1.46696137	     -0.66967164	      0.71255872	    -12.81506804	    -10.43587440	     -3.31735620	    -33.14501444	      7.49057844	     -7.66694692	     -6.34433162	     -6.58655819	     30.26489620	    -23.66870998	     -7.62158354	     -6.62771629
      3.06000000	     97.66156402	     13.55035967	     -1.84765855	      1.47889236	     -0.67051092	      0.71130130	    -12.25804923	    -10.14378464	     -3.36618902	    -34.62729048	      7.08291366	     -7.23805493	     -6.18302532	     -5.77675226	     29.56364206	    -23.30771735	     -7.19528037	     -7.44433690
      3.07000000	     97.22151494	     13.59226397	     -1.91735501	      1.49088392	     -0.67139916	      0.71018064	    -11.58137898	     -9.65839964	     -3.13467784	    -36.38349515	      6.69366381	     -6.97030741	     -5.85128174	     -4.82803313	     28.95668762	    -23.24283035	     -6.79115129	     -8.13385678
      3.08000000	     96.66169882	     13.54906994	     -2.00447125	      1.50291990	     -0.67235187	      0.70920310	    -10.75363893	     -8.93675321	     -2.63948583	    -38.42750708	      6.15666734	     -6.77900332	     -5.30589513	     -3.84686722	     28.40160046	    -23.40854232	     -6.22821667	     -8.74835150
      3.09000000	     95.96937245	     13.42405068	     -2.07159433	      1.51497980	     -0.67336997	      0.70835821	     -9.76573333	     -7.94241819	     -1.90403437	    -40.76412281	      5.42410784	     -6.58077027	     -4.52693233	     -2.89988016	     27.86512770	    -23.75104438	     -5.51851874	     -9.42151990
      3.10000000	     95.16572208	     13.20500190	     -2.12066686	      1.52702044	     -0.67443975	      0.70764204	     -8.64742691	     -6.65876137	     -0.93195337	    -43.37398725	      4.49045361	     -6.38555241	     -3.54140632	     -2.02219562	     27.34880916	    -24.22054674	     -4.71534540	    -10.10787830
      3.11000000	     94.23661514	     12.85895536	     -2.18211520	      1.53900914	     -0.67555972	      0.70709618	     -7.40594739	     -5.09882521	      0.28904423	    -46.21796756	      3.43803610	     -6.24333345	     -2.37128097	     -1.11652536	     26.84791634	    -24.70215912	     -3.91668871	    -10.68436118
      3.12000000	     93.15400180	     12.41621390	     -2.20957113	      1.55094155	     -0.67674806	      0.70673679	     -6.03381460	     -3.31532933	      1.69666582	    -49.27411210	      2.20710847	     -6.15157375	     -0.99381037	     -0.25082895	     26.28287959	    -25.10075245	     -3.11360575	    -11.16698877
      3.13000000	     91.95266343	     11.84859180	     -2.25299901	      1.56278174	     -0.67797528	      0.70654788	     -4.58021876	     -1.29264684	      3.31965133	    -52.51430860	      0.86550649	     -6.13597581	      0.54388167	      0.55998978	     25.70617491	    -25.39991875	     -2.35937717	    -11.51641746
      3.14000000	     90.63324053	     11.16731227	     -2.28475401	      1.57452780	     -0.67922767	      0.70652005	     -3.06758541	      0.92239515	      5.09467857	    -55.89925172	     -0.63361832	     -6.22253879	      2.22495697	      1.29245972	     25.06203043	    -25.54902868	     -1.64834369	    -11.72550937
      3.15000000	     89.20191751	     10.37304141	     -2.32068490	      1.58617504	     -0.68050495	      0.70663626	     -1.51691336	      3.29041719	      7.00019840	    -59.38821063	     -2.22073651	     -6.44208439	      4.02974454	      1.94722419	     24.35034797	    -25.52504075	     -1.01827833	    -11.77432614
      3.16000000	     87.68150278	      9.47953951	     -2.35727339	      1.59772080	     -0.68178887	      0.70685683	      0.04131003	      5.76447800	      8.98531956	    -62.93279599	     -3.90919339	     -6.83252570	      5.92305899	      2.50953293	     23.55405188	    -25.32881901	     -0.45427110	    -11.66099320
      3.17000000	     86.09595602	      8.50752517	     -2.38345108	      1.60915827	     -0.68307411	      0.70713012	      1.58637701	      8.28584735	     10.98414191	    -66.47775080	     -5.64611179	     -7.41593791	      7.87223081	      2.97180127	     22.65624095	    -24.97939931	      0.04252124	    -11.39526184
      3.18000000	     84.47821069	      7.48366548	     -2.38481015	      1.62045966	     -0.68434203	      0.70739727	      3.09840607	     10.78899474	     12.91935229	    -69.95905881	     -7.39348142	     -8.18000520	      9.83479558	      3.34066237	     21.64614547	    -24.51405580	      0.48787075	    -11.01392487
      3.19000000	     82.90587982	      6.43263491	     -2.47146604	      1.63151757	     -0.68554072	      0.70763720	      4.47854672	     13.18219093	     14.83663489	    -73.29439085	     -9.31470252	    -10.11380870	     11.71292298	      3.65936293	     20.66216113	    -23.99850217	      1.10462749	    -10.22033900
