PathFileType	3	(X/Y/Z)	RCH0000001 BBF 02.c3d
DataRate	CameraRate	NumFrames	NumMarkers	Units	OrigDataRate	OrigDataStartFrame	OrigNumFrames
100.0	100.0	68	23	mm	100.0	74	68
Frame#	Time	T2			T10			MAN			LASI			RASI			LPSI			RPSI			LPAT			LANK			LMED			LHEE			LTOE			RPAT			RANK			RMED			RHEE			RTOE			RTHI			LTHI			RTIB			LTIB			LKNE			RKNE			
		X1	Y1	Z1	X2	Y2	Z2	X3	Y3	Z3	X4	Y4	Z4	X5	Y5	Z5	X6	Y6	Z6	X7	Y7	Z7	X8	Y8	Z8	X9	Y9	Z9	X10	Y10	Z10	X11	Y11	Z11	X12	Y12	Z12	X13	Y13	Z13	X14	Y14	Z14	X15	Y15	Z15	X16	Y16	Z16	X17	Y17	Z17	X18	Y18	Z18	X19	Y19	Z19	X20	Y20	Z20	X21	Y21	Z21	X22	Y22	Z22	X23	Y23	Z23	

74	0.730	532.66644	31.53245	1209.14722	497.49838	31.81388	1000.19495	662.49750	28.76958	1161.86377	589.24957	136.53432	820.67902	581.91974	-92.48054	825.55908	462.86560	61.14396	892.48267	458.76306	-11.37725	889.13550	564.52386	102.67866	473.43759	502.53244	170.38271	137.05153	523.22333	96.33742	137.49254	458.58960	131.18112	122.90451	557.68909	159.48354	137.17563	594.18372	-46.27383	489.54950	492.25943	-106.46204	139.47820	518.81995	-35.22120	136.82361	454.19189	-63.44685	128.21695	552.11646	-98.96968	137.65436	533.51398	-169.00200	581.05499	498.64999	224.79100	608.63300	478.29300	-165.97501	316.31000	477.94800	230.24300	315.68900	495.14734	166.31068	450.51929	529.64294	-105.11325	456.00241	
75	0.740	532.57477	31.67525	1209.05737	497.55109	31.86552	1000.14056	662.23108	28.87391	1161.77747	589.32629	136.47766	820.64478	581.99957	-92.53979	825.56244	462.94330	61.07463	892.47833	458.85104	-11.44268	889.13867	564.57208	102.63255	473.42136	502.53363	170.37598	137.05490	523.22729	96.33171	137.48788	458.58731	131.17606	122.90658	557.68884	159.48053	137.17642	594.27045	-46.32523	489.54407	492.26538	-106.46873	139.48108	518.82507	-35.22704	136.82950	454.20724	-63.43739	128.22588	552.12103	-98.97440	137.65419	533.60602	-169.06200	581.04901	498.71899	224.73300	608.64001	478.35199	-166.00600	316.30899	477.96899	230.21500	315.70300	495.18854	166.27019	450.52307	529.72339	-105.15543	456.00363	
76	0.750	532.48486	31.81257	1208.96704	497.60458	31.91439	1000.08685	661.96881	28.97314	1161.69104	589.40216	136.42155	820.61090	582.07959	-92.59866	825.56500	463.02072	61.00541	892.47388	458.93887	-11.50831	889.14154	564.62018	102.58692	473.40524	502.53482	170.36928	137.05827	523.23132	96.32605	137.48325	458.58511	131.17096	122.90865	557.68860	159.47745	137.17720	594.35681	-46.37584	489.53860	492.27133	-106.47533	139.48389	518.83020	-35.23278	136.83524	454.22226	-63.42837	128.23466	552.12561	-98.97901	137.65398	533.69598	-169.12199	581.04303	498.78601	224.67599	608.64697	478.40900	-166.03600	316.30801	477.98999	230.18600	315.71701	495.22961	166.22990	450.52679	529.80365	-105.19716	456.00467	
77	0.760	532.39691	31.94442	1208.87622	497.65887	31.96048	1000.03375	661.71069	29.06729	1161.60461	589.47723	136.36595	820.57739	582.15985	-92.65711	825.56683	463.09781	60.93629	892.46936	459.02658	-11.57415	889.14398	564.66821	102.54178	473.38931	502.53598	170.36264	137.06166	523.23535	96.32043	137.47862	458.58301	131.16588	122.91071	557.68842	159.47426	137.17798	594.44281	-46.42566	489.53305	492.27728	-106.48182	139.48662	518.83521	-35.23840	136.84081	454.23694	-63.41977	128.24333	552.13019	-98.98351	137.65373	533.78802	-169.18100	581.03601	498.85199	224.61900	608.65399	478.46600	-166.06599	316.30701	478.01001	230.15800	315.73199	495.27048	166.18990	450.53049	529.88367	-105.23846	456.00546	
78	0.770	532.31073	32.07079	1208.78503	497.71396	32.00380	999.98126	661.45679	29.15634	1161.51807	589.55151	136.31088	820.54419	582.24042	-92.71516	825.56793	463.17462	60.86729	892.46466	459.11411	-11.64018	889.14618	564.71613	102.49712	473.37354	502.53714	170.35605	137.06506	523.23944	96.31485	137.47403	458.58099	131.16077	122.91277	557.68829	159.47099	137.17873	594.52850	-46.47470	489.52744	492.28320	-106.48820	139.48927	518.84021	-35.24390	136.84622	454.25125	-63.41161	128.25186	552.13470	-98.98788	137.65344	533.87903	-169.23900	581.03003	498.91699	224.56300	608.66101	478.52399	-166.09700	316.30499	478.03101	230.13100	315.74500	495.31137	166.15009	450.53409	529.96356	-105.27935	456.00598	
79	0.780	532.22644	32.19169	1208.69336	497.76987	32.04434	999.92944	661.20703	29.24030	1161.43152	589.62488	136.25633	820.51141	582.32117	-92.77281	825.56824	463.25116	60.79840	892.45984	459.20148	-11.70643	889.14795	564.76398	102.45296	473.35788	502.53830	170.34949	137.06847	523.24359	96.30932	137.46945	458.57910	131.15565	122.91482	557.68823	159.46764	137.17947	594.61377	-46.52295	489.52179	492.28912	-106.49450	139.49187	518.84509	-35.24929	136.85147	454.26520	-63.40387	128.26027	552.13922	-98.99215	137.65309	533.96997	-169.29700	581.02399	498.98199	224.50700	608.66699	478.58099	-166.12601	316.30399	478.05099	230.10201	315.75900	495.35205	166.11057	450.53760	530.04321	-105.31980	456.00632	
80	0.790	532.14398	32.30711	1208.60120	497.82657	32.08210	999.87823	660.96143	29.31918	1161.34485	589.69745	136.20232	820.47894	582.40216	-92.83006	825.56775	463.32736	60.72962	892.45496	459.28870	-11.77288	889.14941	564.81171	102.40927	473.34238	502.53943	170.34297	137.07188	523.24774	96.30383	137.46490	458.57727	131.15054	122.91687	557.68817	159.46420	137.18019	594.69867	-46.57042	489.51605	492.29501	-106.50069	139.49437	518.84998	-35.25457	136.85655	454.27878	-63.39656	128.26854	552.14368	-98.99631	137.65271	534.06097	-169.35400	581.01703	499.04700	224.45200	608.67297	478.63800	-166.15601	316.30301	478.07199	230.07500	315.77301	495.39267	166.07126	450.54108	530.12262	-105.35983	456.00647	
81	0.800	532.06342	32.41706	1208.50854	497.88403	32.11709	999.82770	660.71997	29.39296	1161.25818	589.76923	136.14882	820.44690	582.48346	-92.88689	825.56653	463.40329	60.66095	892.44995	459.37579	-11.83953	889.15057	564.85938	102.36607	473.32706	502.54056	170.33650	137.07532	523.25189	96.29838	137.46037	458.57553	131.14542	122.91891	557.68817	159.46068	137.18089	594.78314	-46.61709	489.51028	492.30090	-106.50677	139.49680	518.85474	-35.25974	136.86148	454.29202	-63.38968	128.27669	552.14813	-99.00034	137.65228	534.15198	-169.41100	581.01001	499.10901	224.39700	608.67902	478.69601	-166.18500	316.30099	478.09100	230.04700	315.78601	495.43320	166.03221	450.54446	530.20190	-105.39943	456.00638	
82	0.810	531.98468	32.52153	1208.41553	497.94232	32.14930	999.77777	660.48273	29.46165	1161.17139	589.84015	136.09584	820.41516	582.56494	-92.94333	825.56458	463.47891	60.59239	892.44476	459.46271	-11.90639	889.15137	564.90692	102.32336	473.31186	502.54169	170.33009	137.07877	523.25610	96.29297	137.45586	458.57391	131.14027	122.92096	557.68817	159.45706	137.18159	594.86731	-46.66298	489.50446	492.30676	-106.51276	139.49916	518.85950	-35.26478	136.86624	454.30490	-63.38323	128.28471	552.15259	-99.00427	137.65182	534.24298	-169.46600	581.00299	499.17099	224.34300	608.68402	478.75299	-166.21300	316.29999	478.11200	230.02000	315.79999	495.47363	165.99342	450.54782	530.28094	-105.43858	456.00604	
83	0.820	531.90778	32.62052	1208.32190	498.00143	32.17874	999.72852	660.24963	29.52525	1161.08447	589.91022	136.04340	820.38379	582.64667	-92.99936	825.56183	463.55423	60.52394	892.43951	459.54947	-11.97345	889.15186	564.95447	102.28113	473.29681	502.54282	170.32372	137.08223	523.26031	96.28761	137.45137	458.57239	131.13513	122.92300	557.68829	159.45335	137.18227	594.95111	-46.70808	489.49854	492.31259	-106.51865	139.50143	518.86414	-35.26972	136.87085	454.31741	-63.37721	128.29260	552.15698	-99.00809	137.65131	534.33398	-169.52200	580.99500	499.23401	224.28900	608.69000	478.80899	-166.24200	316.29901	478.13300	229.99400	315.81400	495.51392	165.95486	450.55103	530.35980	-105.47733	456.00555	
84	0.830	531.83270	32.71404	1208.22791	498.06131	32.20539	999.67987	660.02069	29.58376	1160.99744	589.97949	135.99147	820.35278	582.72864	-93.05499	825.55835	463.62927	60.45560	892.43414	459.63611	-12.04071	889.15198	565.00183	102.23938	473.28192	502.54391	170.31737	137.08569	523.26459	96.28229	137.44690	458.57092	131.12997	122.92503	557.68842	159.44957	137.18294	595.03448	-46.75240	489.49258	492.31845	-106.52444	139.50365	518.86877	-35.27454	136.87529	454.32959	-63.37162	128.30035	552.16138	-99.01180	137.65074	534.42499	-169.57600	580.98700	499.29501	224.23599	608.69501	478.86499	-166.26900	316.29700	478.15201	229.96600	315.82700	495.55411	165.91653	450.55420	530.43848	-105.51564	456.00476	
85	0.840	531.75952	32.80208	1208.13354	498.12198	32.22928	999.63184	659.79596	29.63718	1160.91052	590.04797	135.94006	820.32214	582.81091	-93.11021	825.55414	463.70398	60.38737	892.42871	459.72256	-12.10818	889.15173	565.04913	102.19812	473.26718	502.54501	170.31108	137.08917	523.26892	96.27701	137.44244	458.56958	131.12482	122.92706	557.68860	159.44569	137.18358	595.11755	-46.79593	489.48657	492.32425	-106.53014	139.50577	518.87329	-35.27925	136.87956	454.34140	-63.36646	128.30800	552.16571	-99.01538	137.65015	534.51599	-169.63000	580.97998	499.35400	224.18300	608.70001	478.92200	-166.29700	316.29599	478.17099	229.93900	315.84000	495.59421	165.87848	450.55731	530.51691	-105.55349	456.00378	
86	0.850	531.68823	32.88465	1208.03857	498.18347	32.25039	999.58447	659.57532	29.68550	1160.82336	590.11554	135.88919	820.29187	582.89337	-93.16503	825.54913	463.77841	60.31925	892.42310	459.80890	-12.17586	889.15118	565.09637	102.15735	473.25259	502.54611	170.30484	137.09267	523.27325	96.27177	137.43802	458.56833	131.11964	122.92908	557.68878	159.44173	137.18422	595.20020	-46.83867	489.48050	492.33005	-106.53573	139.50783	518.87781	-35.28384	136.88367	454.35287	-63.36172	128.31551	552.17010	-99.01886	137.64949	534.60699	-169.68300	580.97198	499.41400	224.13100	608.70502	478.97800	-166.32401	316.29401	478.19000	229.91299	315.85400	495.63422	165.84064	450.56033	530.59521	-105.59098	456.00259	
87	0.860	531.61871	32.96174	1207.94324	498.24576	32.26871	999.53778	659.35889	29.72874	1160.73621	590.18237	135.83884	820.26190	582.97607	-93.21944	825.54333	463.85257	60.25124	892.41736	459.89505	-12.24373	889.15033	565.14349	102.11706	473.23816	502.54718	170.29865	137.09616	523.27759	96.26659	137.43361	458.56717	131.11447	122.93111	557.68909	159.43768	137.18483	595.28253	-46.88062	489.47437	492.33585	-106.54121	139.50980	518.88226	-35.28832	136.88762	454.36395	-63.35741	128.32288	552.17438	-99.02222	137.64880	534.69702	-169.73599	580.96301	499.47198	224.07899	608.71002	479.03400	-166.35100	316.29300	478.21100	229.88699	315.86700	495.67410	165.80302	450.56335	530.67328	-105.62796	456.00116	
88	0.870	531.55109	33.03336	1207.84741	498.30884	32.28427	999.49170	659.14661	29.76689	1160.64893	590.24829	135.78902	820.23236	583.05902	-93.27345	825.53680	463.92639	60.18333	892.41156	459.98105	-12.31182	889.14911	565.19055	102.07726	473.22388	502.54825	170.29248	137.09967	523.28198	96.26144	137.42923	458.56610	131.10928	122.93312	557.68933	159.43355	137.18542	595.36444	-46.92179	489.46817	492.34161	-106.54661	139.51170	518.88666	-35.29269	136.89142	454.37473	-63.35353	128.33012	552.17871	-99.02547	137.64807	534.78802	-169.78799	580.95599	499.53000	224.02800	608.71399	479.09000	-166.37801	316.29099	478.23001	229.86099	315.88000	495.71390	165.76570	450.56616	530.75116	-105.66457	455.99951	
89	0.880	531.48535	33.09950	1207.75122	498.37271	32.29704	999.44623	658.93854	29.79994	1160.56165	590.31342	135.73970	820.20312	583.14221	-93.32706	825.52954	463.99994	60.11554	892.40564	460.06693	-12.38010	889.14752	565.23749	102.03794	473.20975	502.54932	170.28638	137.10320	523.28638	96.25633	137.42487	458.56512	131.10408	122.93513	557.68970	159.42932	137.18602	595.44598	-46.96217	489.46191	492.34738	-106.55190	139.51353	518.89099	-35.29694	136.89503	454.38510	-63.35009	128.33725	552.18298	-99.02861	137.64729	534.87799	-169.83900	580.94598	499.58701	223.97701	608.71899	479.14600	-166.40401	316.29001	478.24899	229.83501	315.89301	495.75360	165.72858	450.56900	530.82886	-105.70073	455.99771	
90	0.890	531.42145	33.16017	1207.65442	498.43738	32.30704	999.40143	658.73462	29.82791	1160.47424	590.37775	135.69093	820.17432	583.22565	-93.38026	825.52155	464.07318	60.04786	892.39954	460.15262	-12.44860	889.14563	565.28436	101.99911	473.19577	502.55035	170.28030	137.10674	523.29083	96.25127	137.42052	458.56424	131.09888	122.93714	557.69006	159.42500	137.18658	595.52716	-47.00176	489.45563	492.35312	-106.55708	139.51529	518.89520	-35.30108	136.89850	454.39514	-63.34707	128.34424	552.18719	-99.03163	137.64647	534.96899	-169.89000	580.93701	499.64301	223.92700	608.72198	479.20099	-166.42999	316.28799	478.26700	229.80901	315.90601	495.79312	165.69174	450.57175	530.90631	-105.73647	455.99561	
91	0.900	531.35938	33.21536	1207.55725	498.50287	32.31427	999.35724	658.53485	29.85078	1160.38672	590.44122	135.64267	820.14581	583.30933	-93.43307	825.51270	464.14612	59.98029	892.39337	460.23819	-12.51729	889.14343	565.33118	101.96075	473.18192	502.55139	170.27428	137.11029	523.29535	96.24625	137.41620	458.56345	131.09366	122.93914	557.69055	159.42061	137.18715	595.60797	-47.04057	489.44925	492.35886	-106.56218	139.51697	518.89941	-35.30510	136.90181	454.40482	-63.34448	128.35110	552.19141	-99.03455	137.64561	535.05902	-169.94000	580.92798	499.69901	223.87700	608.72601	479.25699	-166.45599	316.28601	478.28601	229.78300	315.91901	495.83258	165.65514	450.57443	530.98358	-105.77177	455.99329	
92	0.910	531.29913	33.26508	1207.45959	498.56912	32.31871	999.31372	658.33923	29.86857	1160.29919	590.50385	135.59494	820.11768	583.39325	-93.48546	825.50317	464.21875	59.91283	892.38708	460.32358	-12.58619	889.14081	565.37787	101.92290	473.16824	502.55243	170.26830	137.11385	523.29987	96.24127	137.41190	458.56274	131.08844	122.94114	557.69098	159.41612	137.18768	595.68842	-47.07859	489.44281	492.36456	-106.56717	139.51857	518.90356	-35.30901	136.90494	454.41412	-63.34232	128.35783	552.19562	-99.03735	137.64470	535.15002	-169.98900	580.91901	499.75400	223.82800	608.72998	479.31201	-166.48100	316.28500	478.30499	229.75800	315.93100	495.87195	165.61876	450.57703	531.06061	-105.80662	455.99081	
93	0.920	531.24078	33.30931	1207.36157	498.63620	32.32039	999.27081	658.14777	29.88126	1160.21155	590.56567	135.54773	820.08990	583.47742	-93.53745	825.49286	464.29111	59.84549	892.38068	460.40884	-12.65529	889.13794	565.42444	101.88552	473.15472	502.55347	170.26236	137.11742	523.30438	96.23634	137.40762	458.56216	131.08321	122.94314	557.69153	159.41156	137.18822	595.76849	-47.11582	489.43634	492.37027	-106.57205	139.52010	518.90765	-35.31281	136.90793	454.42310	-63.34058	128.36444	552.19983	-99.04003	137.64375	535.23999	-170.03799	580.90900	499.80801	223.77901	608.73401	479.36700	-166.50600	316.28299	478.32501	229.73300	315.94400	495.91122	165.58266	450.57959	531.13751	-105.84107	455.98807	
94	0.930	531.18427	33.34808	1207.26294	498.70407	32.31928	999.22858	657.96051	29.88887	1160.12390	590.62665	135.50105	820.06250	583.56183	-93.58904	825.48181	464.36316	59.77825	892.37415	460.49393	-12.72460	889.13470	565.47101	101.84863	473.14133	502.55447	170.25647	137.12100	523.30896	96.23145	137.40337	458.56165	131.07797	122.94513	557.69208	159.40691	137.18872	595.84821	-47.15226	489.42978	492.37595	-106.57684	139.52155	518.91168	-35.31649	136.91074	454.43170	-63.33928	128.37091	552.20398	-99.04260	137.64275	535.33002	-170.08600	580.89899	499.86200	223.73100	608.73602	479.42300	-166.53101	316.28101	478.34201	229.70700	315.95700	495.95038	165.54675	450.58203	531.21423	-105.87510	455.98511	
95	0.940	531.12964	33.38137	1207.16394	498.77274	32.31540	999.18695	657.77740	29.89138	1160.03613	590.68683	135.45490	820.03540	583.64648	-93.64021	825.46997	464.43491	59.71112	892.36755	460.57889	-12.79411	889.13110	565.51740	101.81222	473.12811	502.55548	170.25063	137.12459	523.31360	96.22660	137.39912	458.56122	131.07272	122.94711	557.69269	159.40216	137.18922	595.92749	-47.18792	489.42319	492.38162	-106.58154	139.52292	518.91565	-35.32006	136.91339	454.43997	-63.33841	128.37727	552.20807	-99.04506	137.64171	535.41998	-170.13300	580.89001	499.91400	223.68300	608.73901	479.47800	-166.55499	316.28000	478.36099	229.68201	315.97000	495.98941	165.51112	450.58441	531.29071	-105.90866	455.98193	
96	0.950	531.07684	33.40918	1207.06445	498.84219	32.30875	999.14594	657.59845	29.88880	1159.94824	590.74615	135.40927	820.00873	583.73138	-93.69099	825.45740	464.50638	59.64410	892.36078	460.66367	-12.86383	889.12720	565.56372	101.77630	473.11502	502.55646	170.24483	137.12819	523.31818	96.22180	137.39491	458.56091	131.06746	122.94910	557.69336	159.39732	137.18971	596.00647	-47.22279	489.41650	492.38727	-106.58613	139.52423	518.91956	-35.32352	136.91588	454.44788	-63.33796	128.38348	552.21216	-99.04741	137.64062	535.51202	-170.17999	580.88000	499.96600	223.63600	608.74200	479.53201	-166.57899	316.27701	478.38000	229.65800	315.98199	496.02832	165.47575	450.58673	531.36700	-105.94182	455.97855	
97	0.960	531.02588	33.43152	1206.96460	498.91248	32.29931	999.10559	657.42371	29.88114	1159.86035	590.80469	135.36417	819.98236	583.81653	-93.74136	825.44403	464.57751	59.57719	892.35394	460.74832	-12.93375	889.12292	565.60999	101.74086	473.10208	502.55746	170.23907	137.13181	523.32288	96.21704	137.39072	458.56067	131.06219	122.95107	557.69403	159.39241	137.19017	596.08502	-47.25687	489.40979	492.39288	-106.59061	139.52545	518.92340	-35.32686	136.91821	454.45541	-63.33794	128.38959	552.21625	-99.04964	137.63950	535.60101	-170.22600	580.86902	500.01700	223.58900	608.74500	479.58701	-166.60300	316.27600	478.39700	229.63300	315.99399	496.06720	165.44060	450.58899	531.44312	-105.97455	455.97495	
98	0.970	530.97675	33.44838	1206.86426	498.98352	32.28711	999.06586	657.25311	29.86838	1159.77234	590.86237	135.31958	819.95642	583.90192	-93.79134	825.42993	464.64838	59.51040	892.34692	460.83282	-13.00387	889.11829	565.65619	101.70591	473.08932	502.55844	170.23335	137.13544	523.32758	96.21232	137.38654	458.56055	131.05693	122.95305	557.69476	159.38741	137.19063	596.16327	-47.29016	489.40302	492.39853	-106.59500	139.52660	518.92719	-35.33009	136.92038	454.46259	-63.33835	128.39554	552.22034	-99.05177	137.63832	535.69098	-170.27200	580.85797	500.06598	223.54300	608.74701	479.64099	-166.62601	316.27399	478.41599	229.60899	316.00601	496.10590	165.40569	450.59116	531.51898	-106.00683	455.97113	
99	0.980	530.92950	33.45977	1206.76343	499.05539	32.27212	999.02679	657.08667	29.85053	1159.68433	590.91919	135.27551	819.93079	583.98755	-93.84090	825.41504	464.71893	59.44371	892.33984	460.91714	-13.07420	889.11340	565.70227	101.67145	473.07669	502.55939	170.22769	137.13907	523.33228	96.20764	137.38239	458.56052	131.05164	122.95502	557.69556	159.38231	137.19106	596.24109	-47.32267	489.39615	492.40411	-106.59930	139.52768	518.93097	-35.33320	136.92238	454.46942	-63.33920	128.40138	552.22437	-99.05377	137.63710	535.78198	-170.31700	580.84802	500.11600	223.49699	608.74902	479.69501	-166.64900	316.27200	478.43399	229.58501	316.01901	496.14453	165.37105	450.59326	531.59467	-106.03872	455.96704	
100	0.990	530.88416	33.46569	1206.66211	499.12805	32.25436	998.98840	656.92438	29.82760	1159.59619	590.97522	135.23199	819.90552	584.07343	-93.89005	825.39941	464.78922	59.37714	892.33264	461.00134	-13.14473	889.10809	565.74823	101.63747	473.06421	502.56036	170.22206	137.14273	523.33704	96.20301	137.37825	458.56058	131.04636	122.95699	557.69635	159.37712	137.19148	596.31854	-47.35439	489.38925	492.40970	-106.60349	139.52867	518.93463	-35.33620	136.92422	454.47589	-63.34046	128.40709	552.22839	-99.05566	137.63585	535.87097	-170.36099	580.83600	500.16397	223.45200	608.75098	479.74899	-166.67200	316.26999	478.45200	229.56100	316.03101	496.18307	165.33662	450.59528	531.67023	-106.07012	455.96277	
101	1.000	530.84058	33.46613	1206.56030	499.20151	32.23383	998.95056	656.76630	29.79958	1159.50806	591.03046	135.18898	819.88062	584.15955	-93.93881	825.38306	464.85919	59.31067	892.32532	461.08539	-13.21546	889.10248	565.79413	101.60397	473.05188	502.56131	170.21648	137.14639	523.34186	96.19843	137.37415	458.56070	131.04105	122.95895	557.69720	159.37186	137.19188	596.39563	-47.38532	489.38229	492.41528	-106.60757	139.52960	518.93823	-35.33908	136.92590	454.48203	-63.34216	128.41266	552.23236	-99.05745	137.63454	535.96100	-170.40401	580.82501	500.21201	223.40700	608.75299	479.80301	-166.69400	316.26801	478.47000	229.53700	316.04199	496.22150	165.30247	450.59726	531.74548	-106.10114	455.95831	
102	1.010	530.79889	33.46109	1206.45813	499.27579	32.21051	998.91339	656.61237	29.76646	1159.41980	591.08484	135.14650	819.85608	584.24591	-93.98716	825.36591	464.92886	59.24432	892.31787	461.16928	-13.28640	889.09656	565.83997	101.57096	473.03970	502.56226	170.21094	137.15005	523.34668	96.19388	137.37006	458.56094	131.03574	122.96091	557.69812	159.36650	137.19228	596.47241	-47.41546	489.37527	492.42084	-106.61156	139.53046	518.94177	-35.34185	136.92741	454.48779	-63.34429	128.41811	552.23633	-99.05911	137.63319	536.05200	-170.44701	580.81299	500.25897	223.36301	608.75403	479.85699	-166.71700	316.26599	478.48700	229.51300	316.05399	496.25980	165.26854	450.59912	531.82062	-106.13171	455.95358	
103	1.020	530.75909	33.45058	1206.35547	499.35083	32.18443	998.87689	656.46259	29.72826	1159.33142	591.13837	135.10454	819.83191	584.33252	-94.03510	825.34802	464.99823	59.17808	892.31030	461.25302	-13.35754	889.09027	565.88568	101.53844	473.02768	502.56317	170.20546	137.15375	523.35150	96.18937	137.36598	458.56128	131.03043	122.96286	557.69910	159.36107	137.19266	596.54877	-47.44482	489.36819	492.42639	-106.61545	139.53123	518.94531	-35.34451	136.92877	454.49319	-63.34684	128.42343	552.24023	-99.06067	137.63179	536.14203	-170.49001	580.80200	500.30600	223.31900	608.75500	479.91101	-166.73801	316.26401	478.50400	229.48900	316.06601	496.29800	165.23485	450.60095	531.89551	-106.16187	455.94864	
104	1.030	530.72107	33.43459	1206.25232	499.42670	32.15556	998.84100	656.31696	29.68497	1159.24304	591.19110	135.06311	819.80811	584.41937	-94.08264	825.32935	465.06732	59.11195	892.30267	461.33658	-13.42888	889.08362	565.93134	101.50640	473.01581	502.56409	170.20001	137.15744	523.35638	96.18491	137.36194	458.56171	131.02510	122.96481	557.70007	159.35555	137.19301	596.62476	-47.47338	489.36105	492.43192	-106.61924	139.53192	518.94873	-35.34705	136.92996	454.49826	-63.34983	128.42862	552.24420	-99.06211	137.63036	536.23199	-170.53101	580.78900	500.35101	223.27600	608.75598	479.96399	-166.75999	316.26199	478.52200	229.46600	316.07800	496.33609	165.20143	450.60272	531.97021	-106.19158	455.94348	
105	1.040	530.68494	33.41313	1206.14880	499.50336	32.12392	998.80579	656.17554	29.63659	1159.15454	591.24298	135.02220	819.78461	584.50647	-94.12978	825.30994	465.13611	59.04593	892.29486	461.42001	-13.50043	889.07666	565.97687	101.47485	473.00409	502.56500	170.19460	137.16115	523.36127	96.18050	137.35791	458.56226	131.01976	122.96675	557.70111	159.34993	137.19336	596.70032	-47.50116	489.35388	492.43744	-106.62293	139.53255	518.95209	-35.34948	136.93098	454.50293	-63.35324	128.43369	552.24805	-99.06345	137.62888	536.32202	-170.57201	580.77698	500.39603	223.23300	608.75800	480.01700	-166.78000	316.26001	478.54001	229.44400	316.09000	496.37411	165.16823	450.60437	532.04474	-106.22084	455.93814	
106	1.050	530.65070	33.38619	1206.04480	499.58081	32.08951	998.77118	656.03827	29.58312	1159.06592	591.29407	134.98183	819.76154	584.59381	-94.17650	825.28979	465.20459	58.98002	892.28699	461.50330	-13.57217	889.06940	566.02234	101.44378	472.99252	502.56592	170.18924	137.16487	523.36621	96.17612	137.35391	458.56287	131.01442	122.96870	557.70221	159.34422	137.19370	596.77557	-47.52816	489.34662	492.44293	-106.62652	139.53310	518.95544	-35.35180	136.93185	454.50729	-63.35709	128.43863	552.25195	-99.06466	137.62735	536.41101	-170.61301	580.76501	500.44000	223.19099	608.75800	480.07199	-166.80099	316.25800	478.55600	229.42101	316.10101	496.41205	165.13528	450.60596	532.11902	-106.24971	455.93253	
107	1.060	530.61823	33.35378	1205.94031	499.65906	32.05232	998.73718	655.90515	29.52456	1158.97729	591.34430	134.94197	819.73877	584.68140	-94.22282	825.26886	465.27277	58.91423	892.27899	461.58643	-13.64413	889.06177	566.06769	101.41320	472.98108	502.56680	170.18393	137.16859	523.37122	96.17178	137.34993	458.56357	131.00908	122.97063	557.70331	159.33844	137.19400	596.85046	-47.55436	489.33929	492.44843	-106.63000	139.53357	518.95868	-35.35400	136.93256	454.51126	-63.36136	128.44344	552.25580	-99.06577	137.62579	536.50098	-170.65199	580.75201	500.48297	223.14900	608.75800	480.12399	-166.82201	316.25601	478.57300	229.39799	316.11301	496.44980	165.10258	450.60748	532.19312	-106.27814	455.92673	
108	1.070	530.58771	33.31590	1205.83533	499.73810	32.01236	998.70386	655.77625	29.46092	1158.88867	591.39374	134.90263	819.71637	584.76923	-94.26874	825.24719	465.34067	58.84855	892.27081	461.66943	-13.71628	889.05377	566.11298	101.38310	472.96982	502.56769	170.17867	137.17235	523.37622	96.16750	137.34596	458.56436	131.00371	122.97256	557.70447	159.33257	137.19431	596.92499	-47.57978	489.33194	492.45389	-106.63340	139.53397	518.96191	-35.35609	136.93311	454.51489	-63.36606	128.44812	552.25958	-99.06676	137.62418	536.59100	-170.69099	580.73999	500.52600	223.10800	608.75800	480.17700	-166.84200	316.25299	478.59000	229.37500	316.12399	496.48749	165.07011	450.60898	532.26703	-106.30614	455.92072	
109	1.080	530.55896	33.27254	1205.72998	499.81796	31.96961	998.67114	655.65149	29.39219	1158.79980	591.44232	134.86383	819.69434	584.85730	-94.31425	825.22473	465.40826	58.78297	892.26257	461.75226	-13.78864	889.04547	566.15820	101.35349	472.95871	502.56857	170.17343	137.17610	523.38123	96.16325	137.34203	458.56528	130.99835	122.97449	557.70569	159.32660	137.19460	596.99908	-47.60440	489.32449	492.45935	-106.63669	139.53429	518.96503	-35.35806	136.93349	454.51816	-63.37119	128.45267	552.26343	-99.06763	137.62253	536.68103	-170.73000	580.72601	500.56696	223.06700	608.75800	480.23001	-166.86200	316.25101	478.60800	229.35300	316.13501	496.52512	165.03792	450.61035	532.34076	-106.33368	455.91449	
110	1.090	530.53210	33.22370	1205.62402	499.89862	31.92410	998.63910	655.53088	29.31837	1158.71106	591.49005	134.82555	819.67273	584.94562	-94.35935	825.20154	465.47559	58.71752	892.25421	461.83493	-13.86119	889.03680	566.20331	101.32436	472.94772	502.56943	170.16824	137.17986	523.38629	96.15905	137.33810	458.56625	130.99297	122.97642	557.70697	159.32054	137.19485	597.07288	-47.62824	489.31702	492.46478	-106.63988	139.53455	518.96814	-35.35992	136.93370	454.52109	-63.37674	128.45709	552.26715	-99.06840	137.62082	536.77002	-170.76801	580.71301	500.60898	223.02699	608.75800	480.28201	-166.88100	316.24899	478.62299	229.33000	316.14600	496.56256	165.00595	450.61169	532.41431	-106.36082	455.90802	
111	1.100	530.50708	33.16940	1205.51782	499.98007	31.87581	998.60767	655.41443	29.23946	1158.62207	591.53699	134.78780	819.65137	585.03412	-94.40405	825.17755	465.54260	58.65217	892.24573	461.91745	-13.93396	889.02783	566.24835	101.29572	472.93692	502.57028	170.16312	137.18364	523.39142	96.15489	137.33420	458.56735	130.98758	122.97833	557.70825	159.31441	137.19511	597.14630	-47.65129	489.30945	492.47021	-106.64296	139.53471	518.97119	-35.36167	136.93376	454.52365	-63.38273	128.46138	552.27094	-99.06905	137.61908	536.85999	-170.80499	580.69897	500.64899	222.98700	608.75800	480.33499	-166.89999	316.24701	478.64001	229.30800	316.15799	496.59998	164.97423	450.61292	532.48761	-106.38751	455.90134	
112	1.110	530.48389	33.10961	1205.41101	500.06232	31.82474	998.57690	655.30219	29.15547	1158.53308	591.58313	134.75058	819.63043	585.12292	-94.44835	825.15283	465.60931	58.58694	892.23718	461.99985	-14.00692	889.01849	566.29327	101.26757	472.92624	502.57114	170.15802	137.18742	523.39655	96.15077	137.33032	458.56854	130.98219	122.98025	557.70959	159.30818	137.19536	597.21930	-47.67355	489.30185	492.47562	-106.64595	139.53481	518.97412	-35.36330	136.93364	454.52585	-63.38914	128.46555	552.27466	-99.06959	137.61729	536.94897	-170.84100	580.68597	500.68802	222.94701	608.75702	480.38699	-166.91901	316.24500	478.65601	229.28600	316.16800	496.63724	164.94275	450.61407	532.56079	-106.41379	455.89444	
113	1.120	530.46259	33.04435	1205.30383	500.14539	31.77090	998.54675	655.19409	29.06639	1158.44409	591.62842	134.71388	819.60986	585.21198	-94.49223	825.12738	465.67572	58.52182	892.22845	462.08206	-14.08008	889.00885	566.33813	101.23990	472.91571	502.57196	170.15297	137.19122	523.40167	96.14670	137.32646	458.56979	130.97679	122.98216	557.71100	159.30188	137.19557	597.29199	-47.69503	489.29419	492.48102	-106.64884	139.53484	518.97705	-35.36482	136.93338	454.52771	-63.39599	128.46959	552.27838	-99.07001	137.61546	537.03900	-170.87700	580.67102	500.72598	222.90900	608.75500	480.43900	-166.93700	316.24200	478.67200	229.26500	316.17899	496.67441	164.91153	450.61517	532.63367	-106.43964	455.88736	
114	1.130	530.44312	32.97362	1205.19604	500.22922	31.71428	998.51727	655.09015	28.97222	1158.35498	591.67285	134.67770	819.58966	585.30127	-94.53571	825.10114	465.74185	58.45681	892.21960	462.16415	-14.15345	888.99884	566.38287	101.21272	472.90536	502.57281	170.14796	137.19504	523.40686	96.14267	137.32263	458.57117	130.97137	122.98407	557.71240	159.29549	137.19579	597.36426	-47.71571	489.28644	492.48639	-106.65163	139.53477	518.97992	-35.36622	136.93295	454.52921	-63.40326	128.47350	552.28204	-99.07032	137.61359	537.12799	-170.91200	580.65698	500.76401	222.87100	608.75500	480.49100	-166.95500	316.23999	478.68900	229.24300	316.19000	496.71146	164.88052	450.61618	532.70636	-106.46503	455.87997	
115	1.140	530.42554	32.89742	1205.08801	500.31387	31.65489	998.48840	654.99036	28.87297	1158.26575	591.71649	134.64206	819.56976	585.39081	-94.57879	825.07416	465.80768	58.39191	892.21069	462.24606	-14.22702	888.98846	566.42755	101.18602	472.89514	502.57361	170.14301	137.19885	523.41205	96.13868	137.31882	458.57263	130.96596	122.98597	557.71387	159.28900	137.19598	597.43616	-47.73561	489.27866	492.49176	-106.65431	139.53465	518.98267	-35.36751	136.93236	454.53033	-63.41096	128.47726	552.28571	-99.07052	137.61166	537.21802	-170.94701	580.64301	500.80197	222.83299	608.75403	480.54300	-166.97301	316.23801	478.70499	229.22200	316.20099	496.74847	164.84979	450.61713	532.77893	-106.49001	455.87244	
116	1.150	530.40973	32.81573	1204.97937	500.39932	31.59272	998.46014	654.89478	28.76863	1158.17651	591.75934	134.60693	819.55029	585.48059	-94.62146	825.04639	465.87320	58.32713	892.20166	462.32785	-14.30079	888.97778	566.47211	101.15981	472.88507	502.57443	170.13809	137.20270	523.41730	96.13474	137.31502	458.57419	130.96053	122.98787	557.71539	159.28242	137.19615	597.50775	-47.75471	489.27081	492.49710	-106.65691	139.53445	518.98541	-35.36869	136.93159	454.53113	-63.41909	128.48093	552.28937	-99.07061	137.60970	537.30701	-170.98100	580.62799	500.83804	222.79601	608.75201	480.59601	-166.99100	316.23499	478.72101	229.20100	316.21201	496.78531	164.81931	450.61804	532.85126	-106.51457	455.86465	
117	1.160	530.39587	32.72858	1204.87036	500.48560	31.52778	998.43256	654.80334	28.65920	1158.08716	591.80133	134.57234	819.53113	585.57062	-94.66372	825.01788	465.93845	58.26246	892.19250	462.40948	-14.37476	888.96680	566.51660	101.13409	472.87515	502.57523	170.13322	137.20654	523.42261	96.13084	137.31125	458.57584	130.95509	122.98976	557.71692	159.27577	137.19632	597.57892	-47.77304	489.26291	492.50244	-106.65939	139.53416	518.98810	-35.36975	136.93068	454.53156	-63.42765	128.48445	552.29297	-99.07058	137.60770	537.39697	-171.01401	580.61401	500.87399	222.75900	608.75000	480.64600	-167.00800	316.23199	478.73599	229.17999	316.22198	496.82208	164.78905	450.61884	532.92340	-106.53869	455.85669	
118	1.170	530.38379	32.63595	1204.76086	500.57263	31.46006	998.40558	654.71606	28.54469	1157.99780	591.84247	134.53827	819.51233	585.66089	-94.70557	824.98865	466.00336	58.19791	892.18317	462.49097	-14.44893	888.95544	566.56104	101.10884	472.86539	502.57602	170.12839	137.21039	523.42792	96.12698	137.30750	458.57758	130.94965	122.99165	557.71857	159.26903	137.19647	597.64972	-47.79057	489.25494	492.50775	-106.66178	139.53381	518.99072	-35.37070	136.92960	454.53162	-63.43664	128.48784	552.29651	-99.07044	137.60564	537.48602	-171.04601	580.59802	500.90897	222.72301	608.74799	480.69699	-167.02400	316.23001	478.75201	229.15900	316.23300	496.85873	164.75903	450.61960	532.99536	-106.56238	455.84848	
119	1.180	530.37360	32.53785	1204.65088	500.66049	31.38957	998.37927	654.63300	28.42509	1157.90833	591.88281	134.50473	819.49396	585.75140	-94.74702	824.95862	466.06802	58.13346	892.17377	462.57230	-14.52331	888.94373	566.60535	101.08409	472.85577	502.57681	170.12361	137.21426	523.43323	96.12316	137.30376	458.57941	130.94420	122.99354	557.72015	159.26219	137.19661	597.72015	-47.80730	489.24692	492.51306	-106.66406	139.53339	518.99329	-35.37153	136.92834	454.53134	-63.44606	128.49110	552.30011	-99.07019	137.60355	537.57501	-171.07899	580.58398	500.94299	222.68700	608.74597	480.74899	-167.04100	316.22699	478.76801	229.13901	316.24301	496.89532	164.72928	450.62024	533.06708	-106.58564	455.84006	
120	1.190	530.36523	32.43427	1204.54041	500.74915	31.31631	998.35358	654.55408	28.30040	1157.81873	591.92236	134.47173	819.47589	585.84216	-94.78806	824.92786	466.13235	58.06913	892.16431	462.65347	-14.59788	888.93170	566.64960	101.05982	472.84631	502.57758	170.11887	137.21814	523.43860	96.11938	137.30005	458.58133	130.93874	122.99542	557.72186	159.25528	137.19672	597.79022	-47.82326	489.23886	492.51834	-106.66625	139.53288	518.99579	-35.37225	136.92694	454.53070	-63.45590	128.49425	552.30365	-99.06982	137.60141	537.66400	-171.11000	580.56799	500.97601	222.65199	608.74298	480.79999	-167.05701	316.22501	478.78299	229.11800	316.25400	496.93179	164.69977	450.62082	533.13861	-106.60845	455.83145	
121	1.200	530.35870	32.32522	1204.42957	500.83859	31.24026	998.32855	654.47931	28.17063	1157.72913	591.96100	134.43922	819.45819	585.93317	-94.82870	824.89630	466.19641	58.00492	892.15466	462.73450	-14.67266	888.91937	566.69373	101.03604	472.83701	502.57834	170.11418	137.22203	523.44403	96.11565	137.29637	458.58334	130.93326	122.99730	557.72357	159.24828	137.19682	597.85992	-47.83842	489.23071	492.52362	-106.66834	139.53230	518.99823	-35.37286	136.92537	454.52969	-63.46618	128.49725	552.30713	-99.06934	137.59923	537.75299	-171.14000	580.55200	501.00797	222.61700	608.73999	480.85101	-167.07300	316.22299	478.79800	229.09801	316.26401	496.96811	164.67050	450.62134	533.20996	-106.63084	455.82257	
122	1.210	530.35406	32.21070	1204.31824	500.92883	31.16144	998.30414	654.40869	28.03577	1157.63940	591.99890	134.40727	819.44080	586.02441	-94.86892	824.86401	466.26019	57.94081	892.14490	462.81537	-14.74764	888.90668	566.73779	101.01274	472.82785	502.57910	170.10953	137.22594	523.44946	96.11197	137.29269	458.58548	130.92778	122.99918	557.72540	159.24118	137.19691	597.92932	-47.85279	489.22250	492.52887	-106.67033	139.53165	519.00061	-35.37335	136.92365	454.52835	-63.47688	128.50014	552.31067	-99.06875	137.59700	537.84198	-171.17000	580.53601	501.03998	222.58299	608.73798	480.90201	-167.08800	316.22000	478.81299	229.07800	316.27399	497.00436	164.64146	450.62180	533.28119	-106.65281	455.81345	
123	1.220	530.35126	32.09070	1204.20654	501.01990	31.07985	998.28040	654.34229	27.89583	1157.54968	592.03595	134.37584	819.42383	586.11597	-94.90874	824.83093	466.32364	57.87683	892.13501	462.89609	-14.82282	888.89362	566.78180	100.98993	472.81882	502.57986	170.10492	137.22984	523.45490	96.10832	137.28905	458.58768	130.92229	123.00105	557.72717	159.23401	137.19699	597.99829	-47.86637	489.21426	492.53412	-106.67221	139.53091	519.00293	-35.37373	136.92175	454.52664	-63.48801	128.50288	552.31415	-99.06804	137.59473	537.93103	-171.20000	580.52002	501.07104	222.54900	608.73499	480.95200	-167.10300	316.21701	478.82800	229.05800	316.28400	497.04050	164.61270	450.62216	533.35211	-106.67434	455.80420	
124	1.230	530.35034	31.96523	1204.09424	501.11176	30.99548	998.25726	654.28003	27.75080	1157.45984	592.07214	134.34492	819.40723	586.20770	-94.94815	824.79712	466.38681	57.81295	892.12506	462.97665	-14.89820	888.88025	566.82568	100.96761	472.80997	502.58060	170.10036	137.23376	523.46039	96.10472	137.28543	458.58997	130.91679	123.00291	557.72906	159.22673	137.19705	598.06689	-47.87917	489.20593	492.53934	-106.67400	139.53011	519.00519	-35.37399	136.91969	454.52460	-63.49957	128.50551	552.31757	-99.06722	137.59242	538.02002	-171.22800	580.50299	501.10196	222.51601	608.73199	481.00299	-167.11800	316.21500	478.84399	229.03799	316.29401	497.07657	164.58417	450.62247	533.42291	-106.69542	455.79465	
125	1.240	530.35126	31.83428	1203.98157	501.20438	30.90834	998.23474	654.22192	27.60068	1157.37000	592.10754	134.31456	819.39099	586.29968	-94.98716	824.76257	466.44968	57.74919	892.11499	463.05710	-14.97378	888.86652	566.86945	100.94576	472.80124	502.58133	170.09584	137.23770	523.46594	96.10117	137.28183	458.59238	130.91129	123.00478	557.73096	159.21939	137.19708	598.13513	-47.89118	489.19757	492.54456	-106.67568	139.52924	519.00739	-35.37414	136.91748	454.52216	-63.51156	128.50801	552.32098	-99.06629	137.59006	538.10999	-171.25700	580.48700	501.13101	222.48300	608.72803	481.05399	-167.13300	316.21201	478.85800	229.01900	316.30399	497.11252	164.55588	450.62271	533.49347	-106.71609	455.78491	
126	1.250	530.35400	31.69786	1203.86841	501.29785	30.81842	998.21289	654.16803	27.44548	1157.28003	592.14209	134.28470	819.37506	586.39191	-95.02576	824.72723	466.51227	57.68554	892.10474	463.13736	-15.04956	888.85248	566.91321	100.92441	472.79269	502.58203	170.09137	137.24165	523.47150	96.09765	137.27824	458.59488	130.90578	123.00663	557.73291	159.21194	137.19711	598.20300	-47.90239	489.18912	492.54974	-106.67727	139.52827	519.00958	-35.37418	136.91510	454.51938	-63.52398	128.51038	552.32440	-99.06525	137.58766	538.19897	-171.28400	580.46997	501.16003	222.45200	608.72400	481.10400	-167.14600	316.20901	478.87299	228.99899	316.31400	497.14838	164.52785	450.62286	533.56384	-106.73634	455.77499	
127	1.260	530.35858	31.55597	1203.75488	501.39209	30.72573	998.19165	654.11829	27.28520	1157.19006	592.17584	134.25537	819.35956	586.48438	-95.06395	824.69116	466.57455	57.62201	892.09442	463.21750	-15.12554	888.83807	566.95679	100.90354	472.78427	502.58273	170.08694	137.24562	523.47705	96.09418	137.27467	458.59744	130.90025	123.00848	557.73486	159.20442	137.19713	598.27045	-47.91282	489.18063	492.55493	-106.67876	139.52724	519.01166	-35.37410	136.91255	454.51627	-63.53682	128.51262	552.32776	-99.06409	137.58521	538.28802	-171.31100	580.45300	501.18799	222.41901	608.72101	481.15399	-167.16000	316.20599	478.88800	228.98100	316.32401	497.18411	164.50003	450.62299	533.63403	-106.75614	455.76480	
128	1.270	530.36505	31.40860	1203.64075	501.48715	30.63026	998.17108	654.07269	27.11983	1157.09998	592.20874	134.22658	819.34436	586.57709	-95.10173	824.65436	466.63654	57.55859	892.08398	463.29749	-15.20173	888.82330	567.00037	100.88316	472.77603	502.58344	170.08257	137.24959	523.48267	96.09075	137.27113	458.60013	130.89473	123.01033	557.73694	159.19681	137.19713	598.33759	-47.92246	489.17209	492.56012	-106.68015	139.52614	519.01367	-35.37391	136.90985	454.51279	-63.55009	128.51472	552.33112	-99.06282	137.58272	538.37701	-171.33701	580.43597	501.21396	222.38800	608.71600	481.20401	-167.17400	316.20401	478.90100	228.96100	316.33401	497.21973	164.47249	450.62299	533.70404	-106.77549	455.75443	
129	1.280	530.37335	31.25576	1203.52625	501.58298	30.53202	998.15112	654.03125	26.94937	1157.00977	592.24084	134.19832	819.32953	586.67004	-95.13911	824.61676	466.69824	57.49528	892.07343	463.37732	-15.27811	888.80823	567.04376	100.86327	472.76791	502.58414	170.07823	137.25357	523.48834	96.08736	137.26762	458.60291	130.88919	123.01218	557.73901	159.18910	137.19711	598.40436	-47.93130	489.16345	492.56525	-106.68143	139.52496	519.01562	-35.37360	136.90698	454.50894	-63.56380	128.51671	552.33447	-99.06143	137.58018	538.46503	-171.36200	580.41803	501.24097	222.35699	608.71198	481.25299	-167.18700	316.20099	478.91699	228.94200	316.34299	497.25528	164.44519	450.62296	533.77380	-106.79444	455.74377	
130	1.290	530.38354	31.09744	1203.41125	501.67963	30.43100	998.13184	653.99402	26.77383	1156.91956	592.27216	134.17056	819.31506	586.76331	-95.17608	824.57837	466.75964	57.43209	892.06274	463.45697	-15.35470	888.79285	567.08716	100.84386	472.75995	502.58481	170.07393	137.25755	523.49402	96.08402	137.26411	458.60577	130.88364	123.01402	557.74115	159.18132	137.19708	598.47076	-47.93937	489.15479	492.57040	-106.68262	139.52370	519.01758	-35.37318	136.90395	454.50473	-63.57793	128.51857	552.33777	-99.05994	137.57761	538.55402	-171.38800	580.40100	501.26703	222.32700	608.70801	481.30301	-167.20000	316.19901	478.93100	228.92400	316.35300	497.29077	164.41812	450.62280	533.84338	-106.81296	455.73300	
131	1.300	530.39551	30.93365	1203.29590	501.77710	30.32721	998.11316	653.96094	26.59320	1156.82922	592.30255	134.14336	819.30096	586.85675	-95.21264	824.53925	466.82074	57.36901	892.05200	463.53650	-15.43148	888.77710	567.13043	100.82493	472.75217	502.58548	170.06969	137.26157	523.49969	96.08072	137.26065	458.60873	130.87808	123.01585	557.74329	159.17345	137.19702	598.53680	-47.94663	489.14606	492.57553	-106.68370	139.52237	519.01941	-35.37265	136.90076	454.50018	-63.59249	128.52029	552.34100	-99.05833	137.57498	538.64203	-171.41100	580.38202	501.29099	222.29700	608.70203	481.35300	-167.21201	316.19501	478.94501	228.90500	316.36301	497.32605	164.39130	450.62262	533.91278	-106.83101	455.72195	
132	1.310	530.40936	30.76439	1203.17993	501.87534	30.22064	998.09509	653.93201	26.40749	1156.73889	592.33221	134.11667	819.28723	586.95044	-95.24879	824.49939	466.88156	57.30605	892.04108	463.61591	-15.50847	888.76099	567.17358	100.80649	472.74451	502.58615	170.06548	137.26558	523.50543	96.07747	137.25719	458.61179	130.87251	123.01768	557.74548	159.16548	137.19696	598.60248	-47.95311	489.13727	492.58063	-106.68468	139.52097	519.02124	-35.37200	136.89740	454.49527	-63.60748	128.52188	552.34430	-99.05660	137.57233	538.73199	-171.43500	580.36401	501.31601	222.26900	608.69702	481.40201	-167.22400	316.19299	478.95901	228.88699	316.37100	497.36130	164.36473	450.62231	533.98199	-106.84866	455.71069	
133	1.320	530.42511	30.58965	1203.06360	501.97440	30.11130	998.07770	653.90729	26.21670	1156.64844	592.36102	134.09050	819.27386	587.04437	-95.28454	824.45874	466.94208	57.24320	892.03003	463.69513	-15.58565	888.74457	567.21674	100.78854	472.73700	502.58682	170.06131	137.26961	523.51117	96.07425	137.25375	458.61493	130.86694	123.01952	557.74774	159.15744	137.19688	598.66772	-47.95881	489.12842	492.58572	-106.68557	139.51949	519.02295	-35.37123	136.89389	454.49002	-63.62290	128.52336	552.34753	-99.05476	137.56961	538.82001	-171.45799	580.34601	501.33902	222.23900	608.69299	481.45200	-167.23599	316.19000	478.97198	228.86900	316.38101	497.39645	164.33842	450.62195	534.05103	-106.86589	455.69925	
134	1.330	530.44269	30.40944	1202.94690	502.07422	29.99918	998.06097	653.88666	26.02081	1156.55798	592.38898	134.06487	819.26086	587.13855	-95.31988	824.41736	467.00229	57.18046	892.01892	463.77420	-15.66304	888.72778	567.25970	100.77107	472.72964	502.58746	170.05719	137.27365	523.51697	96.07108	137.25034	458.61816	130.86136	123.02134	557.75006	159.14931	137.19679	598.73267	-47.96370	489.11954	492.59079	-106.68636	139.51793	519.02466	-35.37036	136.89021	454.48441	-63.63874	128.52469	552.35071	-99.05282	137.56686	538.90900	-171.48000	580.32703	501.36203	222.21201	608.68701	481.50000	-167.24800	316.18701	478.98599	228.85100	316.39001	497.43146	164.31235	450.62155	534.11981	-106.88266	455.68756	
135	1.340	530.46210	30.22376	1202.82959	502.17487	29.88428	998.04486	653.87030	25.81985	1156.46741	592.41614	134.03976	819.24823	587.23303	-95.35481	824.37524	467.06223	57.11784	892.00769	463.85312	-15.74063	888.71069	567.30267	100.75409	472.72244	502.58810	170.05312	137.27769	523.52283	96.06796	137.24695	458.62149	130.85577	123.02316	557.75238	159.14108	137.19669	598.79724	-47.96782	489.11057	492.59586	-106.68703	139.51630	519.02625	-35.36937	136.88637	454.47842	-63.65502	128.52591	552.35394	-99.05075	137.56406	538.99701	-171.50200	580.30902	501.38403	222.18401	608.68103	481.54901	-167.25900	316.18399	479.00000	228.83299	316.39899	497.46640	164.28653	450.62103	534.18842	-106.89902	455.67563	
136	1.350	530.48334	30.03260	1202.71191	502.27634	29.76662	998.02936	653.85803	25.61380	1156.37671	592.44244	134.01518	819.23590	587.32770	-95.38934	824.33234	467.12186	57.05533	891.99634	463.93192	-15.81842	888.69330	567.34546	100.73759	472.71539	502.58871	170.04909	137.28175	523.52869	96.06487	137.24358	458.62491	130.85017	123.02497	557.75476	159.13278	137.19656	598.86139	-47.97114	489.10153	492.60089	-106.68762	139.51459	519.02783	-35.36826	136.88235	454.47208	-63.67172	128.52699	552.35712	-99.04858	137.56122	539.08600	-171.52299	580.28900	501.40500	222.15700	608.67499	481.59799	-167.27000	316.18100	479.01300	228.81599	316.40799	497.50119	164.26094	450.62051	534.25684	-106.91493	455.66351	
137	1.360	530.50647	29.83597	1202.59375	502.37857	29.64617	998.01453	653.84998	25.40266	1156.28601	592.46796	133.99113	819.22400	587.42261	-95.42345	824.28864	467.18118	56.99294	891.98480	464.01053	-15.89641	888.67548	567.38824	100.72159	472.70850	502.58932	170.04510	137.28583	523.53455	96.06183	137.24022	458.62845	130.84456	123.02679	557.75720	159.12439	137.19643	598.92523	-47.97367	489.09244	492.60593	-106.68810	139.51280	519.02930	-35.36704	136.87819	454.46539	-63.68886	128.52795	552.36023	-99.04629	137.55833	539.17499	-171.54300	580.27002	501.42496	222.13000	608.66901	481.64700	-167.28000	316.17801	479.02600	228.79800	316.41699	497.53595	164.23561	450.61984	534.32507	-106.93041	455.65115	
138	1.370	530.53143	29.63387	1202.47522	502.48163	29.52295	998.00031	653.84607	25.18644	1156.19519	592.49261	133.96761	819.21240	587.51782	-95.45716	824.24426	467.24023	56.93066	891.97321	464.08902	-15.97460	888.65735	567.43091	100.70606	472.70172	502.58994	170.04117	137.28992	523.54047	96.05883	137.23689	458.63205	130.83894	123.02859	557.75964	159.11591	137.19627	598.98871	-47.97541	489.08331	492.61096	-106.68848	139.51094	519.03076	-35.36571	136.87387	454.45837	-63.70642	128.52878	552.36334	-99.04388	137.55540	539.26300	-171.56300	580.25098	501.44397	222.10400	608.66302	481.69501	-167.28999	316.17499	479.04001	228.78200	316.42599	497.57059	164.21051	450.61914	534.39301	-106.94547	455.63858	
139	1.380	530.55823	29.42629	1202.35608	502.58545	29.39696	997.98676	653.84631	24.96513	1156.10437	592.51648	133.94461	819.20123	587.61322	-95.49046	824.19910	467.29898	56.86849	891.96149	464.16733	-16.05299	888.63892	567.47345	100.69102	472.69513	502.59055	170.03728	137.29401	523.54645	96.05587	137.23360	458.63577	130.83333	123.03040	557.76215	159.10733	137.19611	599.05176	-47.97637	489.07410	492.61597	-106.68877	139.50902	519.03217	-35.36426	136.86937	454.45096	-63.72441	128.52948	552.36646	-99.04137	137.55243	539.35101	-171.58200	580.23102	501.46298	222.07800	608.65601	481.74399	-167.30000	316.17200	479.05399	228.76500	316.43399	497.60510	164.18567	450.61835	534.46082	-106.96008	455.62582	
140	1.390	530.58691	29.21323	1202.23657	502.69012	29.26819	997.97382	653.85071	24.73874	1156.01343	592.53949	133.92215	819.19037	587.70886	-95.52336	824.15314	467.35742	56.80644	891.94971	464.24551	-16.13158	888.62012	567.51599	100.67648	472.68869	502.59113	170.03343	137.29813	523.55243	96.05296	137.23030	458.63956	130.82770	123.03220	557.76471	159.09868	137.19592	599.11450	-47.97653	489.06485	492.62094	-106.68896	139.50700	519.03345	-35.36270	136.86472	454.44321	-63.74282	128.53004	552.36951	-99.03874	137.54941	539.44000	-171.60001	580.21100	501.48099	222.05299	608.65002	481.79199	-167.31000	316.16901	479.06500	228.74800	316.44299	497.63953	164.16107	450.61752	534.52850	-106.97427	455.61282	
141	1.400	530.61743	28.99471	1202.11658	502.79556	29.13665	997.96149	653.85931	24.50726	1155.92249	592.56171	133.90021	819.17987	587.80481	-95.55585	824.10645	467.41559	56.74450	891.93774	464.32355	-16.21037	888.60101	567.55835	100.66241	472.68237	502.59171	170.02962	137.30225	523.55841	96.05009	137.22704	458.64346	130.82205	123.03399	557.76727	159.08994	137.19572	599.17682	-47.97591	489.05554	492.62592	-106.68903	139.50491	519.03473	-35.36103	136.85991	454.43509	-63.76167	128.53049	552.37256	-99.03600	137.54636	539.52802	-171.61800	580.19098	501.49799	222.02800	608.64301	481.83899	-167.31799	316.16599	479.07901	228.73100	316.45200	497.67386	164.13672	450.61661	534.59589	-106.98803	455.59964	
