Coordinates
version=1
nRows=252
nColumns=19
inDegrees=yes

Units are S.I. units (second, meters, Newtons, ...)
If the header above contains a line with 'inDegrees', this indicates whether rotational values are in degrees (yes) or radians (no).

endheader
time	pelvis_obliquity	pelvis_rotation	pelvis_tilt	pelvis_to_ground_tx	pelvis_to_ground_ty	pelvis_to_ground_tz	left_hip_abduction	left_hip_rotation	left_hip_flexion	left_knee_flexion	left_ankle_flexion	left_subtalar_angle	right_hip_abduction	right_hip_rotation	right_hip_flexion	right_knee_flexion	right_ankle_flexion	right_subtalar_angle
      1.58000000	     95.94118323	      3.23349651	    -11.57216347	     -1.45482406	     -0.70881188	      0.57760576	     -4.16693635	    -23.29386652	     30.84983955	    -19.53078588	    -11.35188720	     -9.36549453	     -2.24466504	      6.84220456	     10.92654453	    -34.39797523	    -18.53321115	     -9.19116268
      1.59000000	     95.96696684	      4.76680838	    -11.95695928	     -1.44244313	     -0.70803076	      0.58260866	     -4.33855864	    -24.14533700	     28.78370879	    -17.18493813	    -12.13839797	     -9.53306413	     -2.45844498	      5.39529391	     13.28515628	    -36.40229850	    -17.33605067	    -10.20225818
      1.60000000	     95.93535078	      6.31009579	    -12.11805602	     -1.43008447	     -0.70727288	      0.58730079	     -4.51870556	    -24.90418932	     26.46568535	    -14.81242326	    -12.89707702	     -9.77418415	     -2.57353372	      3.99354412	     15.36183383	    -38.29641554	    -16.31438246	    -11.25464952
      1.61000000	     95.84411768	      7.86139484	    -12.15302059	     -1.41788181	     -0.70655714	      0.59161880	     -4.66427825	    -25.56005055	     24.07321894	    -12.49827930	    -13.68574725	    -10.02964151	     -2.62481709	      2.62074528	     17.32463049	    -40.10763129	    -15.35249358	    -12.20944743
      1.62000000	     95.70110864	      9.41662298	    -12.07230790	     -1.40592318	     -0.70589484	      0.59550885	     -4.77523268	    -26.11660822	     21.66033322	    -10.29624449	    -14.48919059	    -10.28792002	     -2.63931747	      1.28258491	     19.22989500	    -41.85156594	    -14.41219319	    -13.00892074
      1.63000000	     95.52058446	     10.97649623	    -11.86402308	     -1.39427699	     -0.70529151	      0.59890832	     -4.87721164	    -26.52531625	     19.26203553	     -8.27730397	    -15.19861094	    -10.42313090	     -2.65146287	     -0.03932865	     21.10391848	    -43.55387908	    -13.53107792	    -13.63629587
      1.64000000	     95.32485873	     12.54317215	    -11.65270374	     -1.38300062	     -0.70476975	      0.60182451	     -4.89249714	    -26.95574135	     17.00998935	     -6.40396337	    -15.55357180	    -10.34874980	     -2.68528114	     -1.31054803	     23.08527617	    -45.19391763	    -12.96786563	    -14.01114241
      1.65000000	     95.15539721	     14.09185895	    -11.31586757	     -1.37209863	     -0.70429421	      0.60415274	     -4.96039943	    -27.22248321	     14.80350526	     -4.77332397	    -16.12646777	    -10.30239415	     -2.81808573	     -2.59461273	     25.06958160	    -46.83331686	    -12.13161498	    -14.37279515
      1.66000000	     95.01812597	     15.62300679	    -10.93142173	     -1.36160701	     -0.70387865	      0.60588057	     -5.03505243	    -27.27656192	     12.78246389	     -3.45819751	    -17.07219538	    -10.44433091	     -3.05557505	     -3.89330634	     27.13436034	    -48.45440572	    -10.81530186	    -14.49866162
      1.67000000	     94.95331970	     17.11690049	    -10.55667720	     -1.35148043	     -0.70353162	      0.60704502	     -5.10042196	    -27.45802564	     10.87017025	     -2.25549575	    -17.50769267	    -10.34954193	     -3.43221588	     -5.12586447	     29.29500412	    -50.01033553	     -9.97003725	    -14.45587515
      1.68000000	     94.97157667	     18.54682918	    -10.23103930	     -1.34170222	     -0.70324552	      0.60763551	     -5.16824372	    -27.67695367	      9.12629190	     -1.21140457	    -17.62356251	    -10.08742320	     -3.96443884	     -6.26098383	     31.56885163	    -51.47582342	     -9.51126334	    -14.49537106
      1.69000000	     95.06762279	     19.92484396	     -9.84040275	     -1.33219359	     -0.70301648	      0.60762996	     -5.30423229	    -27.88301965	      7.41469041	     -0.35648500	    -17.83267555	     -9.72742748	     -4.65507841	     -7.35670654	     33.79954714	    -52.82037305	     -8.79821593	    -14.45878893
      1.70000000	     95.24664863	     21.21230264	     -9.46528880	     -1.32288767	     -0.70285655	      0.60706230	     -5.48256910	    -28.06861258	      5.80284647	      0.32500812	    -17.96367472	     -9.32082052	     -5.50127226	     -8.33106960	     36.02406075	    -53.97858866	     -8.08707206	    -14.33584964
      1.71000000	     95.50951402	     22.38660500	     -9.11849406	     -1.31371140	     -0.70275912	      0.60597812	     -5.71119391	    -28.25454757	      4.26492527	      0.87069271	    -17.97009367	     -8.89600440	     -6.50213470	     -9.12899628	     38.20007384	    -54.87912368	     -7.51429454	    -14.19241433
      1.72000000	     95.83916207	     23.43125221	     -8.73137054	     -1.30455036	     -0.70271615	      0.60439570	     -6.01902459	    -28.31644973	      2.73112770	      1.25049440	    -17.92167493	     -8.29341306	     -7.64506401	     -9.72348092	     40.20731176	    -55.47283541	     -6.70385225	    -13.84176639
      1.73000000	     96.24057547	     24.34897283	     -8.52008912	     -1.29533543	     -0.70277508	      0.60244860	     -6.31683107	    -28.60562445	      1.33086072	      1.60873417	    -17.71342170	     -7.93538769	     -8.89240666	    -10.02689237	     42.18006682	    -55.64374686	     -6.54972716	    -13.76272258
      1.74000000	     96.68734693	     25.11727230	     -8.29291234	     -1.28592552	     -0.70288170	      0.60012584	     -6.69065667	    -28.82492079	     -0.10015172	      1.86080165	    -17.49044120	     -7.53498034	    -10.24598808	    -10.02656613	     43.87823991	    -55.39453074	     -6.37407576	    -13.63188993
      1.75000000	     97.15321752	     25.72069943	     -8.11927369	     -1.27623346	     -0.70304471	      0.59750678	     -7.08580010	    -29.00069476	     -1.47618074	      1.99920130	    -17.23887282	     -7.14925720	    -11.65792944	     -9.66293445	     45.32437750	    -54.69294614	     -6.25453010	    -13.47428535
      1.76000000	     97.63503013	     26.20521430	     -8.00300134	     -1.26613794	     -0.70326534	      0.59463504	     -7.49458005	    -29.15407409	     -2.80506562	      2.04660671	    -16.96591069	     -6.78592541	    -13.09599379	     -8.99684152	     46.47361888	    -53.58982890	     -6.20693976	    -13.32587927
      1.77000000	     98.06540871	     26.52117977	     -8.03311019	     -1.25558422	     -0.70354636	      0.59161051	     -7.76857302	    -29.11583706	     -3.86744987	      1.91520241	    -16.80239225	     -6.60886654	    -14.47826168	     -7.93653959	     47.41327103	    -52.09254624	     -6.20005063	    -13.24128403
      1.78000000	     98.50050809	     26.79557387	     -7.91395871	     -1.24450615	     -0.70378501	      0.58838299	     -8.25182283	    -29.37319165	     -5.20273419	      1.69682986	    -16.49277334	     -6.20922775	    -15.83826298	     -6.71209541	     47.83401813	    -50.44460316	     -6.25942359	    -13.22265675
      1.79000000	     98.84722972	     26.93336291	     -8.07715812	     -1.23289784	     -0.70408119	      0.58512415	     -8.46612614	    -29.40342824	     -6.01107583	      1.20991190	    -16.39145996	     -6.07520647	    -17.01929575	     -5.23414386	     48.22551823	    -48.65580545	     -6.24019701	    -13.21285403
      1.80000000	     99.12095093	     27.00371050	     -8.00976159	     -1.22073399	     -0.70428481	      0.58174278	     -8.83395911	    -29.50871606	     -7.06868365	      0.57711517	    -16.23430277	     -5.71043295	    -18.02115882	     -3.65917074	     48.16138080	    -47.05024416	     -6.25625387	    -13.58947547
      1.81000000	     99.29915213	     26.99522138	     -8.27548244	     -1.20810753	     -0.70451648	      0.57846611	     -8.96578101	    -29.69645055	     -7.59081550	     -0.28097921	    -16.22642146	     -5.58117381	    -18.74158232	     -2.12126198	     48.22070095	    -45.62262560	     -6.17684083	    -13.72181560
      1.82000000	     99.30012922	     26.91574946	     -8.37090319	     -1.19504510	     -0.70469797	      0.57521901	     -9.03573537	    -29.74020997	     -8.06980184	     -1.43336634	    -16.40935249	     -5.22781861	    -19.09326008	     -0.64325244	     48.05076687	    -44.61582745	     -5.91254904	    -14.60392182
      1.83000000	     99.17673630	     26.76885703	     -8.69771728	     -1.18165449	     -0.70488578	      0.57220274	     -8.95512803	    -30.00865073	     -8.17738268	     -2.72504617	    -16.67497354	     -4.99221759	    -19.09257428	      0.59705001	     48.02544881	    -43.98897342	     -5.60418449	    -15.19165611
      1.84000000	     98.87208374	     26.55025094	     -9.01414680	     -1.16801605	     -0.70506460	      0.56945236	     -8.77411236	    -30.34546327	     -8.13076654	     -4.16568025	    -17.05530711	     -4.82519240	    -18.69671100	      1.60851549	     47.97527410	    -43.76958929	     -5.18429665	    -15.67804056
      1.85000000	     98.39444383	     26.24231767	     -9.36952838	     -1.15421554	     -0.70526000	      0.56705727	     -8.47018651	    -30.72665396	     -7.86664211	     -5.73592289	    -17.57550546	     -4.68682322	    -17.95153799	      2.39834409	     47.95638488	    -43.87964394	     -4.63139153	    -16.12700637
      1.86000000	     97.72839530	     25.84622771	     -9.71997677	     -1.14033587	     -0.70550297	      0.56511497	     -8.03539904	    -31.11286464	     -7.42660743	     -7.39824943	    -18.17650168	     -4.60103520	    -16.88673817	      3.00606660	     47.91571182	    -44.18443879	     -4.02478014	    -16.45212400
      1.87000000	     96.90372967	     25.35680201	    -10.07723610	     -1.12645379	     -0.70581942	      0.56371224	     -7.47816490	    -31.46019392	     -6.80491372	     -9.12168628	    -18.84453333	     -4.55944312	    -15.58738679	      3.48518830	     47.83874676	    -44.54633267	     -3.36816480	    -16.63941462
      1.88000000	     95.94591231	     24.77334913	    -10.41585772	     -1.11263862	     -0.70622893	      0.56292079	     -6.81014988	    -31.68774621	     -6.02054457	    -10.89230078	    -19.49687067	     -4.59090210	    -14.12488307	      3.89091124	     47.67186673	    -44.83040367	     -2.75219651	    -16.65724270
      1.89000000	     94.91332108	     24.10141027	    -10.85201477	     -1.09893786	     -0.70676194	      0.56285502	     -6.01208473	    -31.80832412	     -4.97465818	    -12.65144114	    -20.21352081	     -4.65513705	    -12.61227421	      4.29316717	     47.47154724	    -44.88033672	     -2.01503610	    -16.44004063
      1.90000000	     93.81091770	     23.35303937	    -11.21194609	     -1.08539497	     -0.70741131	      0.56348008	     -5.12092066	    -31.59684491	     -3.78589331	    -14.46036586	    -20.74535250	     -4.86722713	    -11.05090210	      4.70630515	     47.06959684	    -44.66190621	     -1.49455466	    -16.07562697
      1.91000000	     92.68329420	     22.54188813	    -11.47328542	     -1.07201800	     -0.70818414	      0.56481692	     -4.18142231	    -31.01310864	     -2.49944344	    -16.28734957	    -21.11055700	     -5.18772019	     -9.49463288	      5.17538559	     46.40481389	    -44.10914461	     -1.21034597	    -15.74660209
      1.92000000	     91.60303394	     21.69444788	    -11.86234734	     -1.05881564	     -0.70910042	      0.56693084	     -3.15396238	    -30.17271592	     -0.90689921	    -18.08126118	    -21.40221225	     -5.60376100	     -8.03980835	      5.72728456	     45.64930205	    -43.13862153	     -0.97279645	    -15.29843433
      1.93000000	     90.60262573	     20.84174325	    -12.28533567	     -1.04576618	     -0.71011692	      0.56977440	     -2.12896647	    -29.04825843	      0.87082415	    -19.83105072	    -21.58309460	     -6.12772331	     -6.69662613	      6.35384066	     44.68525448	    -41.73755375	     -0.83013153	    -14.79273512
      1.94000000	     89.75118021	     20.02624737	    -12.87688324	     -1.03287388	     -0.71120081	      0.57330489	     -1.14216023	    -27.78724089	      2.94566600	    -21.52321900	    -21.55986537	     -7.03738623	     -5.52989691	      7.00942304	     43.62880177	    -39.90813496	     -0.83993257	    -13.96338736
      1.95000000	     88.98322050	     19.20831610	    -13.23511919	     -1.02009281	     -0.71230065	      0.57729269	     -0.32371472	    -26.13318976	      4.92333244	    -23.21088959	    -21.56524306	     -7.68820212	     -4.44356558	      7.79907528	     42.14777614	    -37.76749176	     -0.90472257	    -13.62232992
      1.96000000	     88.40279208	     18.48080875	    -13.84050117	     -1.00743421	     -0.71339740	      0.58179639	      0.40303092	    -24.53518246	      7.25692264	    -24.82210587	    -21.23947732	     -8.79178558	     -3.58243973	      8.65222590	     40.65245584	    -35.20332629	     -1.37912004	    -13.16842588
      1.97000000	     87.92518187	     17.81425168	    -14.23084218	     -0.99487153	     -0.71442475	      0.58650632	      0.90402328	    -22.83512693	      9.48862517	    -26.43088727	    -20.88443033	     -9.95792368	     -2.78916494	      9.55647301	     38.78156986	    -32.40277605	     -2.03231908	    -12.93528759
      1.98000000	     87.58637836	     17.21352596	    -14.56705696	     -0.98241965	     -0.71533820	      0.59131783	      1.19830538	    -21.19117624	     11.77688885	    -28.01149057	    -20.47365920	    -11.06612641	     -2.13254128	     10.53287214	     36.70639862	    -29.37411885	     -2.83601134	    -12.86410444
      1.99000000	     87.35821235	     16.66754766	    -14.79693676	     -0.97009815	     -0.71610215	      0.59604916	      1.29100689	    -19.64726481	     14.08427553	    -29.57911003	    -20.03015059	    -12.03843641	     -1.57076136	     11.55215821	     34.42708617	    -26.19928516	     -3.73429755	    -12.89717838
      2.00000000	     87.22827142	     16.16421370	    -14.92526181	     -0.95794594	     -0.71668598	      0.60053429	      1.19938929	    -18.28169597	     16.41741326	    -31.12650243	    -19.54624404	    -12.86247340	     -1.09368442	     12.59230037	     31.99697199	    -22.95559360	     -4.71867929	    -12.98730319
      2.01000000	     87.15292246	     15.67721464	    -14.94258670	     -0.94600939	     -0.71708192	      0.60458005	      0.98120332	    -17.03722020	     18.81018856	    -32.68280778	    -19.00040379	    -13.58761726	     -0.64522533	     13.53884738	     29.48656391	    -19.77325588	     -5.96683325	    -13.25862282
      2.02000000	     87.12880527	     15.16249790	    -14.84437373	     -0.93429854	     -0.71726583	      0.60812344	      0.63895933	    -16.03041774	     21.18226616	    -34.13479164	    -18.46414963	    -14.06213216	     -0.25554449	     14.52574936	     26.89962363	    -16.66426806	     -7.06113120	    -13.36401174
      2.03000000	     87.11208252	     14.58992251	    -14.63610274	     -0.92282922	     -0.71725109	      0.61103428	      0.24861613	    -15.17928183	     23.55772243	    -35.47331976	    -17.93754592	    -14.36573916	      0.12686483	     15.44040410	     24.30272387	    -13.73531606	     -8.10931923	    -13.41306584
      2.04000000	     87.08555812	     13.94717234	    -14.32747069	     -0.91158791	     -0.71705494	      0.61326506	     -0.13580387	    -14.52552279	     25.90160797	    -36.61730391	    -17.44175965	    -14.54158392	      0.51528664	     16.27294244	     21.71403662	    -11.01092992	     -9.01135366	    -13.30010032
      2.05000000	     86.99789065	     13.16049089	    -13.96321071	     -0.90060208	     -0.71670778	      0.61472630	     -0.43919318	    -13.82181182	     28.28947310	    -37.56888640	    -17.19833943	    -14.65136544	      0.92928332	     16.96574783	     19.27757987	     -8.65532215	     -9.37225642	    -12.97491186
      2.06000000	     86.84411425	     12.34670318	    -13.50725920	     -0.88974653	     -0.71626525	      0.61547430	     -0.58173709	    -13.39225837	     30.56740425	    -38.18380116	    -16.62559752	    -14.70566879	      1.42338681	     17.53290660	     16.82957329	     -6.47895304	    -10.35582472	    -12.69945806
      2.07000000	     86.57961971	     11.32845608	    -13.05628855	     -0.87902791	     -0.71573416	      0.61543686	     -0.53728935	    -12.76709499	     32.86125876	    -38.49686560	    -16.44692717	    -14.74997466	      1.95820650	     18.00634007	     14.61596984	     -4.73603713	    -10.62118704	    -12.34533792
      2.08000000	     86.23477525	     10.24319694	    -12.58221130	     -0.86829390	     -0.71515166	      0.61470043	     -0.25723523	    -12.30441966	     34.99904446	    -38.38103849	    -16.22475145	    -14.79062370	      2.56675793	     18.40288370	     12.45647022	     -3.21741287	    -10.97864316	    -11.92924262
      2.09000000	     85.81842628	      9.06451575	    -12.11946234	     -0.85744901	     -0.71452976	      0.61328110	      0.26053713	    -11.90379651	     36.95374487	    -37.82444165	    -16.03935417	    -14.82904766	      3.22807482	     18.69052232	     10.39644329	     -1.97459327	    -11.31484235	    -11.52422821
      2.10000000	     85.32734821	      7.80224393	    -11.70043205	     -0.84639088	     -0.71387706	      0.61121415	      1.03904292	    -11.56905713	     38.69201030	    -36.84405623	    -15.96908053	    -14.88641683	      3.93519327	     18.86495133	      8.46245386	     -1.02248356	    -11.51072827	    -11.15915822
      2.11000000	     84.78783420	      6.49628371	    -11.31391350	     -0.83499562	     -0.71320376	      0.60855687	      2.05799654	    -11.35102416	     40.12671710	    -35.46878865	    -15.99180803	    -14.98418474	      4.67750903	     18.93132105	      6.59973613	     -0.31660447	    -11.62839594	    -10.81607940
      2.12000000	     84.20221780	      5.18246803	    -10.97957537	     -0.82319587	     -0.71252076	      0.60536198	      3.31678101	    -11.29230402	     41.24639780	    -33.80035400	    -16.09656268	    -15.09911545	      5.44030053	     18.87011468	      4.85521011	      0.08992450	    -11.63172416	    -10.54165120
      2.13000000	     83.68594841	      3.88292413	    -10.64064802	     -0.81080153	     -0.71178603	      0.60172297	      4.61532358	    -11.33880679	     41.94242402	    -31.93236563	    -16.26973623	    -15.31677070	      6.12274614	     18.66867925	      3.06459371	      0.37562468	    -11.61467819	    -10.25014324
      2.14000000	     83.21411462	      2.65835953	    -10.39901556	     -0.79789935	     -0.71102556	      0.59773815	      5.99976082	    -11.60551390	     42.36697309	    -30.04261597	    -16.62767561	    -15.98918925	      6.69242366	     18.30143156	      1.48466545	      0.33542992	    -11.56606698	     -9.82873371
      2.15000000	     82.86678735	      1.57684560	    -10.23205399	     -0.78443845	     -0.71023328	      0.59353746	      7.29515060	    -12.06734006	     42.53506523	    -28.27790543	    -16.66430931	    -16.08668241	      7.09688604	     17.86849704	      0.04755987	      0.09208779	    -11.55019446	     -9.74613636
      2.16000000	     82.69117206	      0.63038534	    -10.08413655	     -0.77046787	     -0.70937129	      0.58928633	      8.32141570	    -12.58698637	     42.44457649	    -26.79192265	    -16.62432123	    -16.27217171	      7.28936083	     17.40283402	     -1.22630763	     -0.43105664	    -11.62921319	     -9.62346873
      2.17000000	     82.73552734	     -0.11833742	    -10.02357635	     -0.75607801	     -0.70842682	      0.58517330	      8.98439772	    -13.16877710	     42.22385931	    -25.66621406	    -16.45612249	    -16.50157475	      7.21826107	     16.93251667	     -2.21202815	     -1.23694416	    -11.83749020	     -9.48921302
      2.18000000	     82.96987117	     -0.58947408	    -10.04996257	     -0.74141533	     -0.70741575	      0.58134578	      9.26368692	    -13.77707460	     41.95897184	    -24.98492239	    -16.00958042	    -16.86852617	      6.91001766	     16.31360649	     -2.78475503	     -2.45332414	    -12.34405345	     -9.24834915
      2.19000000	     83.54134810	     -0.83342777	    -10.29493456	     -0.72655536	     -0.70622912	      0.57810106	      9.03365093	    -14.41359303	     41.69237237	    -24.52609645	    -15.41176919	    -17.03036054	      6.25868856	     15.94166688	     -2.87049012	     -3.93390906	    -13.00557524	     -9.07718752
      2.20000000	     84.36699626	     -0.78359907	    -10.66394185	     -0.71162572	     -0.70491191	      0.57553590	      8.35706498	    -15.04671435	     41.36404122	    -24.25113384	    -14.68526555	    -16.98648127	      5.39852466	     15.66180726	     -2.50611984	     -5.74918531	    -13.87446975	     -8.99466952
      2.21000000	     85.41712211	     -0.43368125	    -11.14533821	     -0.69673563	     -0.70347475	      0.57378208	      7.31156527	    -15.69729918	     40.91427891	    -23.97730001	    -13.91410005	    -16.76212097	      4.38316846	     15.44838010	     -1.68948328	     -7.90977472	    -14.89019956	     -8.99760186
      2.22000000	     86.65681507	      0.20854850	    -11.71802704	     -0.68195980	     -0.70191759	      0.57291088	      5.98178355	    -16.38147245	     40.28241021	    -23.54650191	    -13.13269261	    -16.36582028	      3.25697871	     15.25170058	     -0.46498056	    -10.38079941	    -16.01095139	     -9.04538194
      2.23000000	     88.01450634	      1.13025018	    -12.34447298	     -0.66738393	     -0.70026149	      0.57294339	      4.49344739	    -17.10984103	     39.39835829	    -22.81551825	    -12.39479433	    -15.79253347	      2.08555666	     14.97722968	      1.11243569	    -13.14177912	    -17.15278308	     -9.12047654
      2.24000000	     89.44091966	      2.29685081	    -12.97907328	     -0.65304942	     -0.69850322	      0.57385889	      2.94010755	    -17.90475668	     38.18912022	    -21.67298773	    -11.79214329	    -15.10082423	      0.89748270	     14.53361082	      2.95788315	    -16.13777317	    -18.16113076	     -9.22477607
      2.25000000	     90.84386045	      3.62803714	    -13.61495335	     -0.63898372	     -0.69664815	      0.57558684	      1.38466443	    -18.58178462	     36.67679229	    -20.11294708	    -11.02818604	    -13.52241669	     -0.24350834	     13.94854901	      5.01723420	    -19.28179740	    -19.27044896	     -9.13583848
      2.26000000	     92.20376254	      5.15480947	    -14.11658905	     -0.62523165	     -0.69466802	      0.57799163	     -0.03579457	    -19.51365697	     34.71248162	    -18.06890389	    -10.87175751	    -13.04868027	     -1.35010525	     12.90841782	      7.14913597	    -22.57023448	    -19.60138754	     -9.43250172
      2.27000000	     93.43311402	      6.73731862	    -14.63722853	     -0.61182060	     -0.69256643	      0.58099581	     -1.26879232	    -20.42644460	     32.53083173	    -15.60598594	    -11.07159563	    -12.12819909	     -2.37878960	     11.68931780	      9.46157232	    -25.86211294	    -19.60825847	     -9.50999939
      2.28000000	     94.43712627	      8.38095475	    -14.87414471	     -0.59873279	     -0.69036950	      0.58433217	     -2.37944257	    -21.17335949	     29.95436648	    -12.96619213	    -11.18971142	    -11.63372246	     -3.20754546	     10.16099294	     11.63804529	    -29.13392238	    -19.54474395	     -9.81029013
      2.29000000	     95.22600813	      9.98494876	    -14.98765124	     -0.58598581	     -0.68808270	      0.58796489	     -3.25272020	    -21.98027368	     27.13293152	    -10.05316572	    -12.03434225	    -10.95231730	     -3.86808522	      8.68580449	     13.80434412	    -32.25159053	    -18.68874579	    -10.07919008
      2.30000000	     95.73007845	     11.57125258	    -14.92512823	     -0.57358087	     -0.68577975	      0.59165709	     -3.91208624	    -22.60483614	     24.20476845	     -7.15802095	    -12.71826767	    -10.59646678	     -4.31934723	      7.09048906	     15.94042557	    -35.19709374	    -17.89406067	    -10.46896669
      2.31000000	     95.98414083	     13.12320370	    -14.69492163	     -0.56160031	     -0.68350169	      0.59519125	     -4.40774457	    -23.00869287	     21.33583168	     -4.55739644	    -13.83326464	    -10.49464036	     -4.60811778	      5.39089021	     18.10337167	    -38.03107386	    -16.64685461	    -10.92440648
      2.32000000	     96.00598708	     14.63891375	    -14.32368044	     -0.54999101	     -0.68132896	      0.59851101	     -4.67904990	    -23.42993595	     18.53583470	     -2.18516592	    -14.31321637	    -10.27964290	     -4.72194055	      3.75766747	     20.27581527	    -40.64505777	    -15.92281905	    -11.38191964
      2.33000000	     95.90385503	     15.96095792	    -13.86839677	     -0.53879596	     -0.67923238	      0.60144040	     -4.90098015	    -23.52908706	     15.93004827	     -0.18775824	    -15.55389270	    -10.33121748	     -4.83118431	      2.31061240	     22.57379277	    -43.13172054	    -14.30077641	    -11.93980038
      2.34000000	     95.69675046	     17.30483225	    -13.35643571	     -0.52799802	     -0.67734343	      0.60385957	     -4.98540080	    -23.62544409	     13.64273013	      1.26734788	    -16.41563366	    -10.44963525	     -4.88299810	      0.72776883	     24.97201385	    -45.45134636	    -12.99304488	    -12.30940895
      2.35000000	     95.46675296	     18.55236183	    -12.83158372	     -0.51753807	     -0.67564879	      0.60572154	     -4.99954252	    -23.81871677	     11.57241165	      2.40005871	    -16.76760110	    -10.31364526	     -4.97028017	     -0.73567734	     27.49392118	    -47.59175678	    -12.16011393	    -12.66120549
      2.36000000	     95.26347441	     19.72193700	    -12.27323154	     -0.50737503	     -0.67415338	      0.60689633	     -5.03622100	    -23.80412604	      9.79154742	      3.00237279	    -17.41900256	    -10.29440040	     -5.13506232	     -2.17678990	     30.10040608	    -49.58027870	    -10.73199351	    -12.95430462
      2.37000000	     95.15806772	     20.78745157	    -11.79348428	     -0.49745067	     -0.67285330	      0.60739777	     -5.08576762	    -24.03376064	      8.18172497	      3.42836338	    -17.59427087	    -10.14031480	     -5.43548115	     -3.48072737	     32.84805056	    -51.37026192	     -9.88780613	    -13.14740243
      2.38000000	     95.13622335	     21.80339406	    -11.28096143	     -0.48765507	     -0.67173643	      0.60716938	     -5.20564282	    -24.24356543	      6.69133432	      3.52282394	    -17.70586887	     -9.94272166	     -5.84430632	     -4.72983432	     35.57107117	    -52.92726366	     -8.92973032	    -13.29785456
      2.39000000	     95.22893461	     22.72787690	    -10.78162733	     -0.47790683	     -0.67077295	      0.60623834	     -5.42040359	    -24.47722870	      5.25279983	      3.44572546	    -17.63148616	     -9.71607095	     -6.39819732	     -5.82990621	     38.26058707	    -54.20222962	     -8.22488818	    -13.37395684
      2.40000000	     95.39237419	     23.63980919	    -10.23418328	     -0.46807100	     -0.66996559	      0.60465712	     -5.70280021	    -24.73760445	      3.79273316	      3.19978767	    -17.39427019	     -9.38524364	     -7.03647149	     -6.84618764	     40.77333241	    -55.11099488	     -7.36521437	    -13.35581633
      2.41000000	     95.69636567	     24.41192799	     -9.77155210	     -0.45809331	     -0.66922354	      0.60250100	     -6.11437333	    -25.02373314	      2.31458005	      2.95851178	    -17.05741636	     -9.09087707	     -7.85959287	     -7.57231589	     43.17471318	    -55.60512158	     -6.96124233	    -13.34745084
      2.42000000	     96.06803870	     25.11109025	     -9.31611126	     -0.44783547	     -0.66855239	      0.59985941	     -6.59907940	    -25.27250933	      0.77217302	      2.69199931	    -16.64975546	     -8.79808187	     -8.78560477	     -8.06478104	     45.30537757	    -55.61393140	     -6.64640680	    -13.32787462
      2.43000000	     96.47699573	     25.75091557	     -8.80925979	     -0.43719600	     -0.66790340	      0.59679798	     -7.14215602	    -25.31499855	     -0.81814711	      2.28839770	    -15.96636743	     -8.32950036	     -9.78719130	     -8.32789282	     47.03735675	    -55.12172235	     -6.19306255	    -13.17434388
      2.44000000	     96.95625099	     26.28161744	     -8.46055368	     -0.42612021	     -0.66727154	      0.59348001	     -7.72476097	    -25.48712183	     -2.39635357	      1.98426777	    -15.58623597	     -8.08278660	    -10.89169192	     -8.23894195	     48.49608182	    -54.09228228	     -6.16377392	    -13.13211951
      2.45000000	     97.43945346	     26.71701603	     -8.10489300	     -0.41451663	     -0.66660876	      0.58993262	     -8.32363986	    -25.50665221	     -3.98758603	      1.59918221	    -15.15731268	     -7.84252260	    -12.04293918	     -7.81208058	     49.49860661	    -52.60708889	     -6.14454982	    -13.08615264
      2.46000000	     97.91065755	     27.06321228	     -7.81858429	     -0.40235190	     -0.66592421	      0.58624971	     -8.88886785	    -25.46248132	     -5.48134178	      1.11193752	    -14.77946175	     -7.60042812	    -13.20243984	     -7.04517544	     50.10544965	    -50.74796889	     -6.15567459	    -13.07505826
      2.47000000	     98.35820985	     27.33208270	     -7.60822206	     -0.38960786	     -0.66519953	      0.58248726	     -9.40508526	    -25.37845019	     -6.82797738	      0.47685175	    -14.51739979	     -7.37072088	    -14.33500407	     -5.97762380	     50.34608033	    -48.66949608	     -6.17353704	    -13.13473709
      2.48000000	     98.73443070	     27.53902119	     -7.46310373	     -0.37628100	     -0.66446888	      0.57872196	     -9.82758674	    -25.31676667	     -8.00651986	     -0.30140222	    -14.34501569	     -7.06791722	    -15.36174841	     -4.64102073	     50.26792426	    -46.53289600	     -6.16792048	    -13.36148636
      2.49000000	     99.06371573	     27.68295261	     -7.40624486	     -0.36244252	     -0.66370541	      0.57496589	    -10.17469690	    -25.24901245	     -8.92450690	     -1.33498782	    -14.36001512	     -6.78220247	    -16.25606549	     -3.15451486	     49.98342865	    -44.56692900	     -6.07879719	    -13.69628639
      2.50000000	     99.31332920	     27.79024286	     -7.57955133	     -0.34816684	     -0.66300948	      0.57138040	    -10.38401826	    -25.41657432	     -9.47173281	     -2.51282652	    -14.44059866	     -6.62569523	    -16.94241950	     -1.60384981	     49.68801764	    -42.86621976	     -5.93221613	    -13.84556201
      2.51000000	     99.36998254	     27.88667039	     -7.64322226	     -0.33349176	     -0.66238062	      0.56792120	    -10.39324589	    -25.46544689	     -9.80946051	     -4.01715016	    -14.93037524	     -6.00372182	    -17.26533969	     -0.08645851	     49.20642767	    -41.64874995	     -5.42496935	    -14.89651607
      2.52000000	     99.33476420	     27.91093162	     -7.85412629	     -0.31859043	     -0.66184675	      0.56471584	    -10.25904629	    -25.57743658	     -9.77365838	     -5.70950919	    -15.38253975	     -5.68930090	    -17.29970957	      1.31601597	     48.81940841	    -40.94297587	     -4.93805049	    -15.44194390
      2.53000000	     99.12105745	     27.95739214	     -8.16515945	     -0.30350484	     -0.66150953	      0.56190612	     -9.90090480	    -25.87033531	     -9.40460527	     -7.54262073	    -15.99424911	     -5.29443443	    -16.94496928	      2.48967925	     48.49626265	    -40.69053523	     -4.22567219	    -16.09233802
      2.54000000	     98.75829551	     27.97037270	     -8.53117125	     -0.28834310	     -0.66139027	      0.55957602	     -9.38151415	    -26.27696926	     -8.79803744	     -9.42428635	    -16.72392773	     -4.72824183	    -16.26541255	      3.49422254	     48.21740264	    -40.81355069	     -3.27965482	    -16.78259377
      2.55000000	     98.19891464	     27.98734237	     -8.87476415	     -0.27320024	     -0.66153896	      0.55779066	     -8.58577367	    -26.59048646	     -7.89150478	    -11.45800831	    -17.43501422	     -4.32045496	    -15.21292175	      4.25019346	     47.91564283	    -41.18332673	     -2.33458511	    -17.27168928
      2.56000000	     97.45986454	     27.98475779	     -9.13232210	     -0.25815890	     -0.66196604	      0.55663625	     -7.55427538	    -26.73465793	     -6.77998779	    -13.57431249	    -18.02582150	     -4.20568189	    -13.85366001	      4.83144828	     47.51334639	    -41.64322350	     -1.63427102	    -17.55987405
      2.57000000	     96.60634766	     27.96550881	     -9.44153866	     -0.24328486	     -0.66271458	      0.55628350	     -6.33073550	    -26.82717391	     -5.40749451	    -15.67141546	    -18.63127622	     -4.08737268	    -12.31753668	      5.29242890	     47.07000249	    -41.96845995	     -0.86367893	    -17.80815672
      2.58000000	     95.66491194	     27.90906814	     -9.83452731	     -0.22861903	     -0.66377427	      0.55684951	     -4.92776282	    -26.81025807	     -3.76386366	    -17.68936807	    -19.23001572	     -3.94171639	    -10.69690768	      5.75273165	     46.57396991	    -41.97641213	      0.02860401	    -17.93980862
      2.59000000	     94.65991449	     27.84833121	    -10.02795891	     -0.21421975	     -0.66509079	      0.55823365	     -3.46149588	    -26.46649862	     -2.08706782	    -19.73604145	    -19.61027063	     -4.12582380	     -8.94714961	      6.04418868	     45.75924254	    -41.68667300	      0.47648767	    -17.90776958
      2.60000000	     93.63273421	     27.73764905	    -10.32883179	     -0.20007574	     -0.66669261	      0.56059908	     -1.88537418	    -25.90279697	     -0.12819999	    -21.69321396	    -19.92342188	     -4.44872032	     -7.23332885	      6.43124249	     44.85960325	    -40.88587522	      0.84996476	    -17.77631504
      2.61000000	     92.64450269	     27.59128177	    -10.64272998	     -0.18618996	     -0.66848907	      0.56389294	     -0.33776343	    -25.08131020	      1.97024413	    -23.55849540	    -20.13925993	     -4.95525001	     -5.59670626	      6.87681095	     43.74201079	    -39.54704716	      1.05977048	    -17.54138512
      2.62000000	     91.76104513	     27.38373185	    -11.07693476	     -0.17255954	     -0.67041180	      0.56807621	      1.09539640	    -24.06539386	      4.25360712	    -25.29883389	    -20.22283306	     -5.90029069	     -4.14140314	      7.48082803	     42.48171216	    -37.63351348	      1.00097135	    -17.11124268
      2.63000000	     90.94724503	     27.15253483	    -11.36545357	     -0.15912894	     -0.67239179	      0.57294760	      2.32787049	    -22.83164010	      6.45549476	    -26.95636780	    -20.21663106	     -7.12015328	     -2.76760130	      8.14620987	     40.84308827	    -35.22780873	      0.59280594	    -16.69377495
      2.64000000	     90.24461052	     26.93197518	    -11.57630025	     -0.14589978	     -0.67436635	      0.57835506	      3.31974424	    -21.51615480	      8.63478730	    -28.55162838	    -20.14656933	     -8.69827233	     -1.50214093	      8.79933713	     38.89514336	    -32.37391557	     -0.24157334	    -16.34861772
      2.65000000	     89.67323076	     26.60150367	    -11.71144266	     -0.13286025	     -0.67624958	      0.58414983	      3.99915276	    -20.08259524	     10.72917451	    -30.03154892	    -20.00574487	    -10.07749013	     -0.45024279	      9.78414169	     36.64658977	    -29.07519478	     -1.16405336	    -16.02792497
      2.66000000	     89.22731661	     26.25375927	    -11.74507000	     -0.12002976	     -0.67799728	      0.59006533	      4.38491820	    -18.68612411	     12.77200268	    -31.48734014	    -19.78878894	    -11.46379211	      0.48231804	     10.78037367	     34.13215084	    -25.48535547	     -2.34146833	    -15.75430950
      2.67000000	     88.90663471	     25.85514611	    -11.70765493	     -0.10746850	     -0.67956437	      0.59585718	      4.48817975	    -17.33695121	     14.82311185	    -32.96297397	    -19.52262357	    -12.84833586	      1.28504098	     11.77569622	     31.46174400	    -21.75239432	     -3.83852378	    -15.59164722
      2.68000000	     88.73731121	     25.31753296	    -11.51862927	     -0.09516901	     -0.68086662	      0.60139295	      4.22224752	    -16.18768696	     16.67843484	    -34.34794908	    -19.19682019	    -13.80399446	      1.89813265	     13.01519250	     28.56600424	    -17.93844553	     -5.15256808	    -15.25537206
      2.69000000	     88.61591447	     24.68720406	    -11.25600176	     -0.08324632	     -0.68196459	      0.60635609	      3.79849392	    -15.07375582	     18.63709682	    -35.83929373	    -18.77192750	    -14.70374019	      2.46741695	     14.10449389	     25.71729863	    -14.33411885	     -6.87981555	    -15.01645016
      2.70000000	     88.57784660	     23.91292610	    -10.87895842	     -0.07169322	     -0.68282185	      0.61069603	      3.16187219	    -14.19034365	     20.52716546	    -37.29407436	    -18.34971748	    -15.21328802	      2.93294417	     15.20934274	     22.88493849	    -11.01032587	     -8.33452885	    -14.60917590
      2.71000000	     88.55994206	     22.99447368	    -10.42870288	     -0.06054491	     -0.68348154	      0.61427775	      2.44233814	    -13.46579995	     22.46166945	    -38.73960837	    -17.89847997	    -15.45455539	      3.35185932	     16.21079150	     20.21916861	     -8.13214309	     -9.61160900	    -14.03770187
      2.72000000	     88.54079141	     21.94033098	     -9.93257561	     -0.04978414	     -0.68397583	      0.61706274	      1.71436489	    -12.94377963	     24.45158842	    -40.11507858	    -17.48986247	    -15.50076106	      3.73182432	     17.15504735	     17.77200637	     -5.74330496	    -10.55502145	    -13.31476041
      2.73000000	     88.42135855	     20.70335853	     -9.43059786	     -0.03944258	     -0.68438672	      0.61895742	      1.13362390	    -12.36434153	     26.63257903	    -41.45682027	    -17.21958866	    -15.48646574	      4.14033295	     18.07183277	     15.69804135	     -3.99324675	    -11.07054930	    -12.60167179
      2.74000000	     88.22442387	     19.42944184	     -8.89728969	     -0.02940260	     -0.68474821	      0.62000304	      0.73554446	    -12.04531854	     28.87689947	    -42.62959880	    -16.57559835	    -15.20331239	      4.62264564	     18.85763373	     13.85071449	     -2.72604948	    -12.16621651	    -11.76977286
      2.75000000	     87.97308043	     17.98699788	     -8.41829408	     -0.01964377	     -0.68504248	      0.62021105	      0.52003247	    -11.73244752	     31.22171503	    -43.56790083	    -16.37978292	    -15.10901719	      5.10990394	     19.81275664	     12.32507826	     -2.00427043	    -12.31245708	    -11.18849592
      2.76000000	     87.62210059	     16.52113965	     -7.93845842	     -0.01005206	     -0.68533898	      0.61957576	      0.57835919	    -11.55892096	     33.58507053	    -44.22400031	    -15.83167544	    -14.75493047	      5.73463853	     20.64833056	     11.00353955	     -1.75059767	    -12.71994194	    -10.48913406
      2.77000000	     87.23938800	     14.97527881	     -7.53280958	     -0.00054659	     -0.68559102	      0.61816982	      0.85828266	    -11.44964998	     35.92807321	    -44.49984110	    -15.72965631	    -14.70534598	      6.41040772	     21.50655851	      9.90072737	     -1.93587557	    -12.57158688	    -10.11824113
      2.78000000	     86.81582739	     13.42034751	     -7.16556653	      0.00899272	     -0.68581812	      0.61602951	      1.37703500	    -11.44721728	     38.14895503	    -44.35265045	    -15.60728284	    -14.66483507	      7.19249995	     22.25175950	      8.92160551	     -2.50036688	    -12.31936514	     -9.79765173
      2.79000000	     86.37900718	     11.88088793	     -6.85730873	      0.01868498	     -0.68599624	      0.61323358	      2.10378198	    -11.55024868	     40.17821734	    -43.73817826	    -15.52476761	    -14.64989388	      8.04838304	     22.83291567	      8.01645850	     -3.34554350	    -11.84935525	     -9.56153073
      2.80000000	     85.94619137	     10.38610151	     -6.60070516	      0.02866113	     -0.68611488	      0.60985104	      2.99417226	    -11.75558426	     41.93691958	    -42.66558262	    -15.53861781	    -14.69736581	      8.95575686	     23.20048317	      7.13571945	     -4.40888211	    -11.03278893	     -9.39268648
      2.81000000	     85.52710355	      9.03363474	     -6.37558179	      0.03902782	     -0.68617657	      0.60595657	      4.02508827	    -12.18726617	     43.35715023	    -41.17664117	    -15.73894415	    -14.88204005	      9.88527794	     23.15597226	      6.24367997	     -5.61688378	     -9.88487007	     -9.22121326
      2.82000000	     85.15006002	      7.75037129	     -6.20242789	      0.04988843	     -0.68614915	      0.60167988	      5.08100470	    -12.66303379	     44.41251026	    -39.34247204	    -16.06522901	    -15.17346899	     10.77844474	     23.01685210	      5.28883511	     -6.82742931	     -8.88543624	     -9.06501037
      2.83000000	     84.81391803	      6.60571350	     -6.06891702	      0.06131111	     -0.68605214	      0.59711243	      6.11012967	    -13.23984513	     45.10232314	    -37.29924975	    -16.42623339	    -15.51196362	     11.62200106	     22.75143632	      4.25541562	     -7.95804141	     -8.04332412	     -8.97907548
      2.84000000	     84.53758838	      5.62663445	     -6.01480046	      0.07333536	     -0.68588316	      0.59237723	      7.03448868	    -13.89858051	     45.49297418	    -35.19151078	    -16.79559658	    -15.91172599	     12.35534088	     22.38855729	      3.19533115	     -8.94077040	     -7.34697715	     -8.88062000
      2.85000000	     84.36708949	      4.81752947	     -6.19405449	      0.08594211	     -0.68563219	      0.58764236	      7.79609409	    -14.62395539	     45.76755930	    -33.13081657	    -16.91009250	    -16.06124981	     12.88234216	     22.14788312	      2.27333478	     -9.70737293	     -7.14097165	     -8.82589958
      2.86000000	     84.22882306	      4.23346927	     -6.15224712	      0.09912926	     -0.68538240	      0.58287877	      8.24480991	    -15.31905091	     45.57694344	    -31.40429588	    -17.29011673	    -16.75858223	     13.37899022	     21.52520811	      1.18532017	    -10.47809700	     -6.73392722	     -8.59810444
      2.87000000	     84.32967272	      3.77712027	     -6.44858984	      0.11279380	     -0.68497575	      0.57843779	      8.33404284	    -15.98064865	     45.42679026	    -29.90327156	    -17.58466530	    -17.77826140	     13.46287342	     21.13242771	      0.45097620	    -11.09077341	     -6.79660285	     -8.08454856
      2.88000000	     84.53128862	      3.58925691	     -6.76501141	      0.12686736	     -0.68455317	      0.57429191	      8.11478535	    -16.66001943	     45.13559002	    -28.82737403	    -17.47349899	    -18.02833232	     13.41650674	     20.67942014	     -0.17100067	    -11.62585887	     -7.19867528	     -7.94318324
      2.89000000	     84.92929759	      3.54606276	     -7.17481806	      0.14126896	     -0.68400352	      0.57063288	      7.48793363	    -17.18483976	     44.74583933	    -28.12057902	    -17.11238702	    -18.55591789	     13.10167602	     20.30393125	     -0.57093515	    -12.14985230	     -8.27365507	     -7.49163225
      2.90000000	     85.50775557	      3.71486392	     -7.64516387	      0.15586743	     -0.68333748	      0.56754821	      6.58231416	    -17.75037721	     44.25211047	    -27.71845706	    -16.59637648	    -18.85946700	     12.55694551	     19.89304134	     -0.71125596	    -12.74563768	     -9.56637164	     -7.13534895
      2.91000000	     86.26032330	      4.06002432	     -8.16902603	      0.17055832	     -0.68252333	      0.56514764	      5.44166338	    -18.29231147	     43.64741476	    -27.51996033	    -15.92261728	    -18.96728258	     11.79928403	     19.48115472	     -0.58017145	    -13.46170641	    -11.11336378	     -6.79185820
      2.92000000	     87.17013497	      4.56889114	     -8.72888254	      0.18524060	     -0.68154386	      0.56352245	      4.14932486	    -18.83801720	     42.90468993	    -27.39055032	    -15.15244249	    -18.84666475	     10.85781310	     19.04415018	     -0.17812249	    -14.34684241	    -12.81862927	     -6.50558857
      2.93000000	     88.20833006	      5.22300161	     -9.31038135	      0.19981010	     -0.68038169	      0.56274501	      2.78283435	    -19.38798595	     42.00017449	    -27.18987833	    -14.36312858	    -18.46972362	      9.76375085	     18.55801142	      0.49603343	    -15.45522948	    -14.52345293	     -6.31811078
      2.94000000	     89.34016299	      6.01058607	     -9.92109785	      0.21417486	     -0.67902395	      0.56287126	      1.42304141	    -19.95501011	     40.93301820	    -26.77908346	    -13.64059602	    -17.86230198	      8.54032565	     17.98074498	      1.45202520	    -16.81157019	    -16.04756082	     -6.26186529
      2.95000000	     90.52418013	      6.90846252	    -10.54246259	      0.22827576	     -0.67747081	      0.56391013	      0.12045835	    -20.52848287	     39.67850857	    -26.05576991	    -13.01352481	    -17.01546887	      7.22620528	     17.27549929	      2.65934587	    -18.42584457	    -17.30162879	     -6.36043831
      2.96000000	     91.71474827	      7.89669851	    -11.16451593	      0.24206019	     -0.67572299	      0.56583777	     -1.07074202	    -21.12951832	     38.22413218	    -24.93987522	    -12.56664141	    -16.07022815	      5.85625461	     16.40481972	      4.09450695	    -20.29126847	    -18.12704355	     -6.65175028
      2.97000000	     92.85742034	      8.94659808	    -11.75348908	      0.25551266	     -0.67379152	      0.56857416	     -2.14391334	    -21.69763576	     36.55338238	    -23.42036227	    -12.27653920	    -14.96701760	      4.48572585	     15.36272681	      5.69813255	    -22.37902544	    -18.57699638	     -7.12263393
      2.98000000	     93.88923112	     10.02922355	    -12.23757510	      0.26862867	     -0.67169990	      0.57199299	     -3.10185281	    -22.17032622	     34.61738119	    -21.52139184	    -12.15639245	    -13.75930413	      3.17726050	     14.12622824	      7.38480092	    -24.65856386	    -18.59232312	     -7.80020964
      2.99000000	     94.78901508	     11.15607860	    -12.70883803	      0.28140903	     -0.66947561	      0.57600610	     -3.82628058	    -22.80205264	     32.51172098	    -19.20405045	    -12.25719692	    -12.89617156	      1.94794595	     12.76484886	      9.20568699	    -27.02659867	    -18.29827614	     -8.56669868
      3.00000000	     95.49536457	     12.27664490	    -13.03796404	      0.29387134	     -0.66716182	      0.58036888	     -4.42428741	    -23.31390470	     30.19328401	    -16.65103973	    -12.59261392	    -12.04090264	      0.85520981	     11.26741299	     11.05538116	    -29.49780645	    -17.65490450	     -9.48654243
      3.01000000	     95.98651878	     13.39905726	    -13.24542043	      0.30602185	     -0.66481592	      0.58492401	     -4.84862407	    -23.80838305	     27.72680570	    -13.92522952	    -13.04360157	    -11.38657053	     -0.07499516	      9.69108426	     12.94319140	    -31.99451133	    -16.85221617	    -10.41195189
      3.02000000	     96.25015239	     14.51996969	    -13.29204175	      0.31784095	     -0.66249331	      0.58940781	     -5.15672979	    -24.14586588	     25.19970070	    -11.27103009	    -13.80838531	    -10.88971052	     -0.83648937	      8.02105835	     14.87211599	    -34.55300409	    -15.67879688	    -11.41097688
      3.03000000	     96.29871429	     15.68890551	    -13.21255658	      0.32936236	     -0.66026700	      0.59372031	     -5.26773698	    -24.61979796	     22.64527500	     -8.67615034	    -14.22521672	    -10.56514215	     -1.41512440	      6.30447672	     16.83881558	    -37.05960540	    -14.93933210	    -12.10742369
      3.04000000	     96.20277394	     16.71273239	    -12.99011530	      0.34055269	     -0.65812249	      0.59765730	     -5.37516298	    -24.77424828	     20.11044773	     -6.28754127	    -15.37290877	    -10.44295711	     -1.92849513	      4.83143515	     18.87930399	    -39.58523381	    -13.28927450	    -12.96600723
      3.05000000	     95.97006886	     17.80867009	    -12.67074827	      0.35139426	     -0.65617801	      0.60104281	     -5.37061475	    -24.91863297	     17.77113461	     -4.32268837	    -16.24961947	    -10.51406874	     -2.35019156	      3.19183991	     21.02978469	    -42.09991194	    -11.96366071	    -13.39924993
      3.06000000	     95.67642764	     18.88873782	    -12.28833655	      0.36191743	     -0.65443861	      0.60382363	     -5.31432444	    -25.02987933	     15.60457589	     -2.70084147	    -16.97245731	    -10.58216087	     -2.75331704	      1.61550137	     23.29335924	    -44.55453896	    -10.71784132	    -13.62594135
      3.07000000	     95.38044571	     19.91651492	    -11.89277328	      0.37211334	     -0.65290771	      0.60591714	     -5.22850222	    -25.18900159	     13.64346782	     -1.41377156	    -17.24441083	    -10.46230964	     -3.20630536	      0.13897581	     25.70821920	    -46.94306867	     -9.99732244	    -13.78218484
      3.08000000	     95.12153804	     20.87402271	    -11.41427167	      0.38201008	     -0.65156350	      0.60720862	     -5.21932796	    -25.08521348	     11.88683431	     -0.63154859	    -17.89934327	    -10.52152802	     -3.75582273	     -1.31686408	     28.18876663	    -49.26803646	     -8.45415065	    -13.60480006
      3.09000000	     94.94032464	     21.77599499	    -10.97542233	      0.39164944	     -0.65042372	      0.60776296	     -5.21208176	    -25.22961958	     10.28045527	     -0.06266758	    -18.00338020	    -10.38497344	     -4.42164170	     -2.68038000	     30.78608030	    -51.42125423	     -7.70583558	    -13.51951544
      3.10000000	     94.84862264	     22.55427277	    -10.49369601	      0.40111337	     -0.64943542	      0.60753354	     -5.31077550	    -25.17527977	      8.78585627	      0.17597077	    -18.08696097	    -10.21069511	     -5.22878822	     -3.93656398	     33.38987828	    -53.37379586	     -6.60849407	    -13.22443317
      3.11000000	     94.86196427	     23.25088844	    -10.07075642	      0.41044459	     -0.64860469	      0.60661623	     -5.46209973	    -25.32318466	      7.38008249	      0.26692458	    -17.93303762	    -10.00674106	     -6.16800337	     -5.09156947	     36.02555986	    -55.01433174	     -6.21487856	    -13.19516680
      3.12000000	     94.94318130	     23.86041845	     -9.55422708	      0.41977020	     -0.64789550	      0.60502022	     -5.72158220	    -25.32550466	      5.95433338	      0.11365485	    -17.59779723	     -9.62406731	     -7.20016488	     -6.17555457	     38.49368451	    -56.28861419	     -5.28584618	    -12.93687304
      3.13000000	     95.12847358	     24.33239784	     -9.13177799	      0.42914459	     -0.64727739	      0.60290881	     -6.05780729	    -25.45213986	      4.55262001	     -0.05792148	    -17.29468540	     -9.39612008	     -8.34552593	     -7.05814136	     40.90057732	    -57.07949575	     -5.08635958	    -12.93715360
      3.14000000	     95.37175465	     24.69696870	     -8.67106985	      0.43871205	     -0.64672363	      0.60034103	     -6.48949133	    -25.51180957	      3.07158124	     -0.30242415	    -16.84618318	     -9.11750322	     -9.54634301	     -7.77327332	     43.04787264	    -57.33617995	     -4.82656920	    -12.92632927
      3.15000000	     95.64102950	     24.93893832	     -8.18400653	      0.44855595	     -0.64621852	      0.59740915	     -6.96086502	    -25.30445370	      1.60073111	     -0.68992493	    -16.10537169	     -8.63623393	    -10.75778600	     -8.26201979	     44.89277533	    -57.01435196	     -4.54411545	    -12.85196791
      3.16000000	     95.97280467	     25.08361665	     -7.78621159	      0.45877551	     -0.64575816	      0.59427719	     -7.49046599	    -25.25653822	      0.08304063	     -0.99038840	    -15.77075053	     -8.45707118	    -11.98202540	     -8.50895016	     46.44964989	    -56.08005353	     -4.62187588	    -12.87697690
      3.17000000	     96.30827095	     25.12274571	     -7.38511178	      0.46945954	     -0.64531578	      0.59099499	     -8.03178485	    -25.06903978	     -1.44361344	     -1.34026402	    -15.34330653	     -8.27007709	    -13.17072839	     -8.43565581	     47.59389636	    -54.57283385	     -4.77771077	    -12.90956219
      3.18000000	     96.68965492	     25.07059718	     -7.16262571	      0.48066855	     -0.64492014	      0.58764132	     -8.53155564	    -24.77553759	     -2.75458926	     -1.77533877	    -15.13278297	     -8.17892496	    -14.32167993	     -8.07649988	     48.46472538	    -52.58157793	     -4.89959342	    -12.91454510
      3.19000000	     96.99712746	     25.03770713	     -6.70683400	      0.49249948	     -0.64453738	      0.58424171	     -9.08613157	    -24.60825140	     -4.32432883	     -2.26882069	    -14.78986782	     -7.97099957	    -15.35328074	     -7.43501583	     48.65613140	    -50.27436050	     -5.24009635	    -13.01032932
      3.20000000	     97.31488795	     24.95319942	     -6.45765617	      0.50491101	     -0.64421159	      0.58088240	     -9.53763610	    -24.39085302	     -5.57934759	     -2.88926519	    -14.64095552	     -7.78136917	    -16.29390670	     -6.50585248	     48.62829658	    -47.78475247	     -5.52585727	    -13.16890837
      3.21000000	     97.59108327	     24.87513579	     -6.26753726	      0.51790568	     -0.64393755	      0.57758926	     -9.92015773	    -24.25475182	     -6.67536227	     -3.64387048	    -14.64876786	     -7.56241971	    -17.08751358	     -5.36058266	     48.29934141	    -45.33420958	     -5.76510635	    -13.43711236
      3.22000000	     97.80824923	     24.81822061	     -6.15386538	      0.53142260	     -0.64373535	      0.57441029	    -10.20996452	    -24.22922021	     -7.56258799	     -4.54881166	    -14.85342662	     -7.27285106	    -17.69207805	     -4.07394964	     47.76754564	    -43.11675745	     -5.93372569	    -13.90784964
      3.23000000	     97.95218146	     24.77900456	     -6.16457621	      0.54536561	     -0.64362510	      0.57140453	    -10.37398080	    -24.32717586	     -8.15368576	     -5.62357341	    -15.26518744	     -6.94518444	    -18.06498439	     -2.74489690	     47.16971048	    -41.29188254	     -5.91930365	    -14.51124268
      3.24000000	     97.99133337	     24.76892990	     -6.31459069	      0.55963510	     -0.64363534	      0.56865295	    -10.37879355	    -24.59020983	     -8.42202416	     -6.84227860	    -15.86794872	     -6.57821850	    -18.15654329	     -1.47631429	     46.59309803	    -39.94981606	     -5.68886868	    -15.20233626
      3.25000000	     97.89560582	     24.78575516	     -6.57995336	      0.57411875	     -0.64378524	      0.56622644	    -10.20944737	    -25.02534645	     -8.38117574	     -8.18712192	    -16.59644747	     -6.19947587	    -17.92771938	     -0.35896122	     46.07586205	    -39.11963108	     -5.26409813	    -15.87992841
      3.26000000	     97.65015721	     24.80880503	     -6.91841323	      0.58870069	     -0.64408222	      0.56419842	     -9.85680073	    -25.55922512	     -8.05559086	     -9.64154382	    -17.43648630	     -5.81398350	    -17.37882950	      0.57220422	     45.61079256	    -38.74299266	     -4.66892527	    -16.52212167
      3.27000000	     97.23924690	     24.81352784	     -7.31015560	      0.60327909	     -0.64453893	      0.56265265	     -9.31507288	    -26.16031752	     -7.46657623	    -11.17219787	    -18.37032436	     -5.41257810	    -16.53326905	      1.34330489	     45.19298678	    -38.70185971	     -3.93165847	    -17.10638987
      3.28000000	     96.65204830	     24.79564805	     -7.71036375	      0.61775683	     -0.64515479	      0.56167607	     -8.57759091	    -26.75829276	     -6.63833230	    -12.78079051	    -19.26675655	     -5.07799177	    -15.41349917	      1.94547599	     44.76276592	    -38.82113899	     -3.17597124	    -17.53357161
      3.29000000	     95.92006175	     24.70121632	     -8.17520444	      0.63204851	     -0.64593502	      0.56140060	     -7.68502084	    -27.36942251	     -5.57292100	    -14.37890345	    -20.27968537	     -4.66455857	    -14.13172746	      2.53157368	     44.34154311	    -38.89157352	     -2.24618752	    -17.85864669
      3.30000000	     95.01525110	     24.59134569	     -8.49071985	      0.64608467	     -0.64684460	      0.56176988	     -6.61704007	    -27.73447877	     -4.35217438	    -16.12381202	    -20.94149480	     -4.55599267	    -12.62015624	      2.89814523	     43.73817594	    -38.86753653	     -1.66643811	    -17.94142641
      3.31000000	     94.02363703	     24.38246900	     -8.87770265	      0.65980924	     -0.64788544	      0.56296756	     -5.42325440	    -27.93247110	     -2.86069108	    -17.86163186	    -21.60142953	     -4.47493490	    -11.08227400	      3.34333097	     43.08393310	    -38.48969801	     -1.05980435	    -17.90009567
      3.32000000	     92.96733112	     24.09162740	     -9.23817133	      0.67321830	     -0.64902794	      0.56495171	     -4.17368867	    -27.90386206	     -1.21541467	    -19.59636380	    -22.13512851	     -4.50584368	     -9.52523063	      3.81677976	     42.29106253	    -37.75564083	     -0.56665980	    -17.69663115
      3.33000000	     91.91930973	     23.73061243	     -9.55728262	      0.68629360	     -0.65021493	      0.56772439	     -2.94239441	    -27.54698541	      0.56531173	    -21.32498874	    -22.51270199	     -4.69285184	     -8.02423341	      4.32757246	     41.28630535	    -36.58357095	     -0.23755358	    -17.36306114
      3.34000000	     90.91662785	     23.30781511	     -9.86080275	      0.69907180	     -0.65144072	      0.57122470	     -1.78008114	    -26.90168263	      2.45760779	    -23.00215377	    -22.74410873	     -5.03957233	     -6.61623509	      4.91688101	     40.09011202	    -34.98197329	     -0.07714812	    -16.91762109
      3.35000000	     90.04594070	     22.85498070	    -10.23707948	      0.71156883	     -0.65265793	      0.57538818	     -0.76051804	    -26.04433116	      4.50384734	    -24.58794114	    -22.79157580	     -5.78129044	     -5.37324185	      5.54144427	     38.75750746	    -32.95590487	     -0.21966783	    -16.15464834
      3.36000000	     89.27263231	     22.37383717	    -10.42486213	      0.72385064	     -0.65384048	      0.58002780	      0.03243187	    -24.88994452	      6.41888658	    -26.07474944	    -22.68924215	     -6.74263837	     -4.23631586	      6.27462025	     37.06566820	    -30.59063053	     -0.66248445	    -15.64154743
      3.37000000	     88.65445049	     21.86488088	    -10.49591921	      0.73594416	     -0.65495482	      0.58499234	      0.56784014	    -23.44506555	      8.26192236	    -27.44867759	    -22.61920553	     -7.41011447	     -3.24924804	      7.09151795	     35.10116716	    -27.96416663	     -0.93939995	    -15.30204178
      3.38000000	     88.24401845	     21.40775772	    -10.57616677	      0.74783755	     -0.65597870	      0.59019692	      0.80615142	    -22.11431315	     10.08656120	    -28.65733701	    -22.10489456	     -8.97130074	     -2.46728160	      8.00705322	     32.96291879	    -25.07070979	     -2.24876641	    -14.92139133
      3.39000000	     87.97991941	     20.97469121	    -10.49064789	      0.75955664	     -0.65689905	      0.59533333	      0.79636875	    -20.60579098	     11.82325793	    -29.80596653	    -21.81114096	    -10.30617307	     -1.76888067	      8.83693829	     30.61017828	    -22.14943485	     -3.38289755	    -14.92860617
      3.40000000	     87.89995138	     20.54567547	    -10.30990488	      0.77109279	     -0.65766728	      0.60032660	      0.48577273	    -19.20671297	     13.44017865	    -30.80582374	    -21.39244013	    -11.41986031	     -1.23705489	      9.77830009	     28.10118759	    -19.19407157	     -4.47026351	    -14.83820438
      3.41000000	     87.93314191	     20.12423127	    -10.06103172	      0.78237891	     -0.65831399	      0.60491457	      0.01130969	    -17.77719599	     15.11263889	    -31.80770828	    -20.93442465	    -12.55319975	     -0.77467807	     10.55622357	     25.61413897	    -16.44499323	     -5.78163564	    -14.95596088
      3.42000000	     88.08000340	     19.71081426	     -9.70472850	      0.79344814	     -0.65881034	      0.60907691	     -0.65828060	    -16.63862717	     16.68039918	    -32.69250033	    -20.46224104	    -13.36487414	     -0.40603960	     11.34377698	     23.07410043	    -13.85033463	     -6.84438918	    -14.90234856
      3.43000000	     88.24812101	     19.27630313	     -9.29668688	      0.80422107	     -0.65920673	      0.61262142	     -1.36056149	    -15.62379777	     18.33978106	    -33.59458863	    -19.97268357	    -14.02268706	     -0.05728805	     12.00302582	     20.66836066	    -11.58413787	     -7.89037291	    -14.84949165
      3.44000000	     88.39794219	     18.77870122	     -8.85009685	      0.81468723	     -0.65952683	      0.61548159	     -2.03219485	    -14.72446592	     20.10722643	    -34.49919837	    -19.44816398	    -14.52748582	      0.28208322	     12.56291521	     18.45520687	     -9.70590864	     -9.00316501	    -14.84655517
      3.45000000	     88.50979997	     18.22002846	     -8.38015650	      0.82486562	     -0.65978008	      0.61765396	     -2.62504074	    -14.07048647	     21.95132962	    -35.34080839	    -19.18884397	    -14.72297912	      0.61761457	     13.14532853	     16.41417339	     -8.14838166	     -9.38350463	    -14.56171480
      3.46000000	     88.51639591	     17.61785245	     -7.85894987	      0.83478845	     -0.66002971	      0.61907305	     -3.02967703	    -13.62099807	     23.87650153	    -36.13488766	    -18.79194080	    -14.88090236	      1.03320079	     13.65842147	     14.52507306	     -6.91383920	     -9.93839485	    -14.25585445
      3.47000000	     88.39632991	     16.95122235	     -7.35277020	      0.84447090	     -0.66030548	      0.61973533	     -3.18107295	    -13.32625073	     25.93685875	    -36.84425472	    -18.41519028	    -14.94477384	      1.53781389	     14.16538788	     12.84985090	     -5.99533842	    -10.38917911	    -13.95788400
      3.48000000	     88.14983511	     16.23803180	     -6.83314657	      0.85398229	     -0.66062277	      0.61965473	     -3.05684522	    -13.19363979	     28.04164784	    -37.38937207	    -17.77632344	    -14.82260896	      2.15856230	     14.63878107	     11.30073035	     -5.32540187	    -11.03863760	    -13.74077158
      3.49000000	     87.79632945	     15.39317049	     -6.36485066	      0.86336629	     -0.66095942	      0.61886888	     -2.66156754	    -13.04327708	     30.20452912	    -37.71180267	    -17.64920120	    -14.81702681	      2.86026034	     15.17568058	      9.93414556	     -4.92364597	    -10.98760880	    -13.46058311
      3.50000000	     87.32384674	     14.48785366	     -5.91019423	      0.87273150	     -0.66134099	      0.61741756	     -1.97240815	    -12.93360802	     32.31687688	    -37.74794040	    -17.48374567	    -14.82927594	      3.69701112	     15.65012703	      8.64363774	     -4.70773459	    -10.89206504	    -13.17086106
      3.51000000	     86.76995900	     13.53878264	     -5.50454673	      0.88217532	     -0.66174824	      0.61536723	     -1.02229969	    -12.87500938	     34.32687081	    -37.44355591	    -17.33241119	    -14.86252123	      4.63719044	     16.05418368	      7.40682515	     -4.62336379	    -10.68622796	    -12.90831718
      3.52000000	     86.14270140	     12.55410337	     -5.15233653	      0.89176062	     -0.66217893	      0.61279124	      0.16934982	    -12.83958449	     36.16646556	    -36.76346597	    -17.24747261	    -14.93852307	      5.67479030	     16.38752278	      6.21837415	     -4.67677977	    -10.34510392	    -12.68537306
      3.53000000	     85.48523016	     11.55350379	     -4.87577383	      0.90161897	     -0.66259250	      0.60977216	      1.53675038	    -12.82768097	     37.77994715	    -35.70714778	    -17.26121483	    -15.08033453	      6.75532583	     16.60236230	      5.04012917	     -4.78097088	     -9.86171017	    -12.50368792
      3.54000000	     84.81849968	     10.56600385	     -4.67061302	      0.91182129	     -0.66297872	      0.60638699	      3.03696267	    -12.88712361	     39.10744419	    -34.30838656	    -17.40367185	    -15.31371048	      7.85015766	     16.70292646	      3.86676872	     -4.93623723	     -9.24428520	    -12.35415659
      3.55000000	     84.17524739	      9.61122029	     -4.53703419	      0.92242883	     -0.66330369	      0.60272504	      4.60432526	    -13.05007544	     40.11427016	    -32.63923173	    -17.67023824	    -15.63133464	      8.90518830	     16.68936802	      2.70945578	     -5.14876185	     -8.58400882	    -12.22877480
      3.56000000	     83.59416641	      8.71224067	     -4.48894075	      0.93350463	     -0.66356568	      0.59888073	      6.16630890	    -13.33516225	     40.80449656	    -30.79948820	    -18.01618603	    -16.02769713	      9.86302736	     16.57935550	      1.59106294	     -5.40400974	     -7.95490146	    -12.11170496
      3.57000000	     83.06374569	      7.87093200	     -4.53878562	      0.94503782	     -0.66375508	      0.59491377	      7.67646849	    -13.67846424	     41.25167548	    -28.98125371	    -18.49049762	    -16.67086928	     10.69211606	     16.34915682	      0.60213712	     -5.77837509	     -7.33304627	    -11.95079151
      3.58000000	     82.70570135	      7.12617062	     -4.76053235	      0.95705011	     -0.66382476	      0.59100767	      9.02110203	    -14.21689429	     41.49485177	    -27.20184956	    -18.55426443	    -16.77342437	     11.28340741	     16.20714243	     -0.23612709	     -6.16050491	     -7.20145464	    -11.88135882
      3.59000000	     82.44035375	      6.46088005	     -4.81439297	      0.96955526	     -0.66382422	      0.58718045	     10.07988298	    -14.74474615	     41.29637001	    -25.72019422	    -18.80929997	    -17.45143020	     11.80635490	     16.07356445	     -1.22070769	     -6.60854562	     -6.95498044	    -11.65363101
      3.60000000	     82.40506004	      5.90145415	     -5.19946618	      0.98239088	     -0.66367637	      0.58362408	     10.86283047	    -15.35363264	     41.18220603	    -24.50262243	    -18.76174552	    -17.61194265	     11.94776032	     16.00737680	     -1.73257150	     -7.20613692	     -7.02684549	    -11.55464427
      3.61000000	     82.53400143	      5.49473622	     -5.52775241	      0.99554343	     -0.66344973	      0.58034328	     11.28438169	    -15.98678761	     40.84957670	    -23.68992804	    -18.54304378	    -18.19266534	     11.85856392	     15.72974391	     -2.11060198	     -8.01390769	     -7.52799456	    -11.22376809
      3.62000000	     82.91272568	      5.17928942	     -5.96122504	      1.00894015	     -0.66307046	      0.57752902	     11.28329150	    -16.54516071	     40.41706607	    -23.14737116	    -18.20291503	    -18.54474821	     11.47985048	     15.61342299	     -2.25708012	     -8.91439378	     -8.20233750	    -10.93279278
      3.63000000	     83.51002431	      5.01616382	     -6.40612938	      1.02248250	     -0.66256910	      0.57518654	     10.89393443	    -17.07079350	     39.86387384	    -22.87977639	    -17.69540869	    -18.76035099	     10.84207993	     15.41554280	     -2.18902855	     -9.99310289	     -9.19447867	    -10.62076277
      3.64000000	     84.30761644	      5.00503208	     -6.85339414	      1.03606504	     -0.66196537	      0.57339179	     10.17828008	    -17.54890050	     39.17481387	    -22.74138884	    -17.08561105	    -18.80145613	      9.98760634	     15.15457191	     -1.91137793	    -11.24246141	    -10.43298011	    -10.30615397
      3.65000000	     85.25894466	      5.12718183	     -7.30441485	      1.04962659	     -0.66126135	      0.57221682	      9.21214163	    -17.91966856	     38.35670669	    -22.62140870	    -16.16184889	    -18.49062817	      9.04242214	     15.03478006	     -1.50498838	    -12.53734134	    -12.29663650	     -9.81454783
      3.66000000	     86.37607669	      5.41986167	     -7.74182737	      1.06303462	     -0.66043993	      0.57164557	      8.06694540	    -18.33867639	     37.39862852	    -22.39430520	    -15.40009598	    -17.92052636	      7.88758861	     14.63995591	     -0.84905325	    -14.08289965	    -13.98343895	     -9.51445406
      3.67000000	     87.58409080	      5.85187722	     -8.14224865	      1.07621748	     -0.65952990	      0.57169681	      6.83027658	    -18.74523724	     36.28242635	    -21.98052659	    -14.72159729	    -17.14339468	      6.65231236	     14.10531851	     -0.01868085	    -15.81520730	    -15.61039229	     -9.25937841
      3.68000000	     88.81691291	      6.38712313	     -8.46027374	      1.08912789	     -0.65853650	      0.57233498	      5.53990545	    -19.05007229	     34.98568124	    -21.36954582	    -14.09307617	    -16.08615174	      5.40623845	     13.42878784	      0.92946588	    -17.72912092	    -17.13927380	     -9.07439516
      3.69000000	     90.06326265	      7.05136035	     -8.73925416	      1.10170374	     -0.65747075	      0.57356040	      4.32633899	    -19.55359990	     33.51121888	    -20.42703277	    -13.82064670	    -15.52459979	      4.13022610	     12.49894653	      2.04654324	    -19.82798611	    -17.95768060	     -9.16799038
      3.70000000	     91.23298152	      7.73337746	     -9.09868103	      1.11390230	     -0.65632514	      0.57533527	      3.21870002	    -19.96949634	     32.04854087	    -19.25642951	    -13.41009455	    -13.99785644	      2.92997480	     11.63042671	      3.40870090	    -22.02130457	    -19.20474455	     -8.92538821
      3.71000000	     92.28773942	      8.46256912	     -9.32949759	      1.12574471	     -0.65515078	      0.57752799	      2.21441705	    -20.46042273	     30.36054742	    -17.84256062	    -13.22985577	    -13.01969541	      1.81624757	     10.51213180	      4.84345827	    -24.36456111	    -19.56273972	     -9.12873157
      3.72000000	     93.16887044	      9.17686680	     -9.47928115	      1.13721177	     -0.65394845	      0.58004717	      1.33140905	    -20.88913037	     28.55189497	    -16.28750383	    -13.17655402	    -12.54366142	      0.83350718	      9.25893309	      6.39163040	    -26.80385455	    -19.69705559	     -9.43465508
      3.73000000	     93.89712084	      9.85506840	     -9.64791731	      1.14832975	     -0.65275234	      0.58283676	      0.59213671	    -21.36133629	     26.70382583	    -14.56447804	    -13.42796650	    -11.72892975	     -0.02911132	      7.97962875	      8.12728674	    -29.27035579	    -19.24211258	     -9.79445348
      3.74000000	     94.41171696	     10.49125830	     -9.75253096	      1.15910907	     -0.65159534	      0.58577337	      0.01804704	    -21.85349212	     24.77698490	    -12.76021031	    -13.61800439	    -11.39892111	     -0.70878538	      6.65127827	      9.96821322	    -31.71533967	    -18.67683269	    -10.26113041
      3.75000000	     94.71150810	     11.11461809	     -9.80283989	      1.16956162	     -0.65051616	      0.58868985	     -0.41628539	    -22.24465374	     22.87744095	    -11.03796432	    -13.85210531	    -11.24387952	     -1.21293791	      5.16527660	     11.93719609	    -34.14081775	    -17.99447120	    -10.78130654
      3.76000000	     94.85813148	     11.59851635	     -9.77670489	      1.17969299	     -0.64947760	      0.59148963	     -0.79630697	    -22.46017547	     20.95259582	     -9.39251251	    -14.56276264	    -11.46011724	     -1.58476169	      3.83028767	     14.01733857	    -36.56130878	    -16.39347613	    -11.40873066
      3.77000000	     94.84568000	     12.08034661	     -9.72125440	      1.18954341	     -0.64855697	      0.59409366	     -1.02769473	    -22.68819516	     19.09583155	     -7.84449791	    -15.08129228	    -11.79781872	     -1.80238590	      2.41845083	     16.21764688	    -38.89144835	    -15.08490598	    -11.88121962
      3.78000000	     94.71630983	     12.54709380	     -9.65606776	      1.19911573	     -0.64775634	      0.59641232	     -1.12993333	    -22.92762966	     17.34465010	     -6.41902564	    -15.33194291	    -11.90577262	     -1.89038344	      1.01850651	     18.55426189	    -41.13967473	    -14.14664170	    -12.31582212
      3.79000000	     94.52628605	     12.90953347	     -9.48109099	      1.20842173	     -0.64701902	      0.59829984	     -1.24183463	    -22.80435084	     15.65911871	     -5.25084390	    -15.97507921	    -12.37425400	     -1.92887975	     -0.28722718	     20.94829391	    -43.37519327	    -12.38952380	    -12.65487277
      3.80000000	     94.31523459	     13.31241989	     -9.28790093	      1.21748948	     -0.64639238	      0.59975838	     -1.26503154	    -22.81980469	     14.07992624	     -4.22185927	    -16.33878286	    -12.59236711	     -1.92186699	     -1.63734844	     23.43583870	    -45.53613390	    -11.11740158	    -12.80902358
      3.81000000	     94.12909767	     13.69867914	     -9.05582435	      1.22633573	     -0.64584419	      0.60073829	     -1.27017204	    -22.81413985	     12.58888067	     -3.34992866	    -16.60482508	    -12.63398511	     -1.92708632	     -2.92415414	     25.98924530	    -47.63776533	     -9.91892438	    -12.88100755
      3.82000000	     94.00433045	     14.07609450	     -8.78011491	      1.23499759	     -0.64535737	      0.60122772	     -1.28815167	    -22.84997814	     11.14767217	     -2.59709646	    -16.76646556	    -12.49232475	     -1.98832554	     -4.14742965	     28.57459561	    -49.66389977	     -8.82676918	    -12.87788572
      3.83000000	     93.97003952	     14.44133670	     -8.50680706	      1.24350431	     -0.64491676	      0.60124995	     -1.33127442	    -23.04351006	      9.74926851	     -1.89619782	    -16.75862351	    -12.21979600	     -2.14115241	     -5.26422379	     31.20296740	    -51.57418050	     -8.19386361	    -12.93414332
      3.84000000	     94.03377082	     14.80632711	     -8.15539398	      1.25191876	     -0.64450835	      0.60079571	     -1.46074155	    -23.25869528	      8.31671591	     -1.28447223	    -16.75255485	    -11.81578815	     -2.41327332	     -6.33192336	     33.75740104	    -53.34235302	     -7.41495926	    -12.96503811
      3.85000000	     94.18243402	     15.15041818	     -7.68514769	      1.26030178	     -0.64411164	      0.59987586	     -1.70125883	    -23.32502016	      6.82683236	     -0.81456211	    -16.71430177	    -11.13057906	     -2.81252248	     -7.32762936	     36.16101593	    -54.91855212	     -6.28716620	    -12.81783244
      3.86000000	     94.43836709	     15.49651535	     -7.30903937	      1.26867240	     -0.64375399	      0.59863828	     -1.99301127	    -23.70397544	      5.35092053	     -0.26708640	    -16.54944180	    -10.68208949	     -3.34263763	     -8.20215177	     38.55697557	    -56.17564181	     -5.97175801	    -12.89927735
      3.87000000	     94.77132973	     15.80997043	     -6.86350170	      1.27713027	     -0.64340654	      0.59707291	     -2.40952416	    -24.06283247	      3.74941743	      0.27657621	    -16.38944696	    -10.12493958	     -4.01228869	     -8.95198622	     40.73764657	    -57.07384221	     -5.57091847	    -13.01855467
      3.88000000	     95.17183330	     16.09178526	     -6.41645808	      1.28572869	     -0.64308005	      0.59524228	     -2.92309649	    -24.36482761	      2.10524157	      0.79004720	    -16.21475687	     -9.57020778	     -4.80904231	     -9.55651563	     42.71174890	    -57.53279288	     -5.24106269	    -13.15024332
      3.89000000	     95.60653482	     16.33738101	     -5.96415963	      1.29453374	     -0.64278970	      0.59320292	     -3.50881508	    -24.59265890	      0.40940239	      1.27690654	    -16.03301166	     -9.01096437	     -5.70598832	     -9.98464945	     44.41619849	    -57.48285302	     -4.96821882	    -13.29275239
      3.90000000	     96.06632435	     16.55730146	     -5.56818543	      1.30360141	     -0.64254117	      0.59101922	     -4.13357559	    -24.75633387	     -1.25187294	      1.70008505	    -15.85706028	     -8.56321272	     -6.68637445	    -10.23505731	     45.84425387	    -56.86520099	     -4.83639886	    -13.42172922
      3.91000000	     96.51989757	     16.75563701	     -5.20535529	      1.31299622	     -0.64236319	      0.58871558	     -4.77127808	    -24.84437627	     -2.88459645	      2.03400852	    -15.70275814	     -8.19541272	     -7.72555155	    -10.26230693	     46.92396342	    -55.67856344	     -4.79457567	    -13.53601102
      3.92000000	     96.94892348	     16.94577627	     -4.89537732	      1.32277579	     -0.64227326	      0.58632713	     -5.38508522	    -24.85130659	     -4.41890619	      2.20652629	    -15.57595005	     -7.91508555	     -8.80593223	    -10.03384298	     47.62727765	    -53.94311088	     -4.83244032	    -13.62488597
      3.93000000	     97.33646864	     17.15013679	     -4.63748065	      1.33299107	     -0.64228771	      0.58386964	     -5.94409229	    -24.78529785	     -5.81475282	      2.16783684	    -15.47480956	     -7.71265996	     -9.90640519	     -9.55421831	     47.93319378	    -51.73939157	     -4.93448740	    -13.69731865
      3.94000000	     97.69251788	     17.35987610	     -4.57914137	      1.34364881	     -0.64243484	      0.58137934	     -6.36840208	    -24.61950082	     -6.83520782	      1.82803611	    -15.41215383	     -7.62686955	    -11.02237635	     -8.76409355	     47.98984979	    -49.16627634	     -4.99405652	    -13.70536902
      3.95000000	     97.94670632	     17.67273633	     -4.27200733	      1.35484061	     -0.64268400	      0.57878062	     -6.81742167	    -24.51739041	     -8.00657656	      1.18708209	    -15.34447332	     -7.47867671	    -12.10309947	     -7.79260980	     47.40592269	    -46.49112131	     -5.18416379	    -13.86517456
      3.96000000	     98.14237726	     18.00805831	     -4.15513712	      1.36648148	     -0.64308332	      0.57617669	     -7.09736662	    -24.37843171	     -8.75246459	      0.18817220	    -15.31284958	     -7.35184549	    -13.13401726	     -6.52362372	     46.68154933	    -43.82433145	     -5.32666998	    -14.13003646
      3.97000000	     98.24158847	     18.39624238	     -4.09734830	      1.37854575	     -0.64362374	      0.57357523	     -7.23488457	    -24.25772618	     -9.19373812	     -1.19082667	    -15.32965538	     -7.23127309	    -14.03633911	     -5.07589019	     45.79136185	    -41.39798589	     -5.35486909	    -14.46135979
      3.98000000	     98.20493079	     18.84980200	     -4.16634832	      1.39097516	     -0.64433742	      0.57105832	     -7.16715341	    -24.25263997	     -9.24661779	     -2.91519360	    -15.35410480	     -6.89487081	    -14.71594560	     -3.54178614	     44.89477113	    -39.36359565	     -5.31813600	    -15.21248090
      3.99000000	     98.04177119	     19.28135518	     -4.21084958	      1.40368528	     -0.64514419	      0.56861801	     -6.99154955	    -24.26864216	     -9.10212123	     -4.91692349	    -15.54238462	     -6.80118436	    -15.12703766	     -2.00345033	     43.99118557	    -37.92158066	     -5.07258696	    -15.53596414
      4.00000000	     97.68898109	     19.74297347	     -4.41219457	      1.41659520	     -0.64613197	      0.56642180	     -6.55338151	    -24.42763871	     -8.52102102	     -7.16968254	    -15.86689141	     -6.59021904	    -15.15334159	     -0.62248977	     43.27840567	    -37.02005058	     -4.61562257	    -16.09442529
      4.01000000	     97.14711552	     20.18205051	     -4.69485785	      1.42962127	     -0.64726886	      0.56452402	     -5.91521526	    -24.72647773	     -7.63329833	     -9.56967190	    -16.31786846	     -6.33246217	    -14.77693309	      0.53089559	     42.73697047	    -36.64416435	     -4.04574586	    -16.62098032
      4.02000000	     96.41418156	     20.56477225	     -5.11953290	      1.44270882	     -0.64854776	      0.56303988	     -5.05885416	    -25.16383674	     -6.40106201	    -12.02861977	    -16.96990170	     -5.84280249	    -14.01666616	      1.46232480	     42.40917132	    -36.62706001	     -3.25270743	    -17.16969178
      4.03000000	     95.45084829	     20.87925519	     -5.56140200	      1.45579409	     -0.64994698	      0.56197181	     -3.93796438	    -25.55885725	     -4.88174703	    -14.57342456	    -17.73136939	     -5.46688197	    -12.83162627	      2.08544595	     42.18440832	    -36.85300197	     -2.51035227	    -17.41831562
      4.04000000	     94.32441005	     21.11779568	     -6.08149378	      1.46881897	     -0.65143741	      0.56137134	     -2.62401831	    -25.96147292	     -3.07662738	    -17.13114760	    -18.70778755	     -4.91905592	    -11.32807902	      2.38161976	     42.07356321	    -37.15742062	     -1.67263990	    -17.47565984
      4.05000000	     92.93800171	     21.22101254	     -6.51684936	      1.48177032	     -0.65301192	      0.56122574	     -1.04409665	    -26.17215929	     -1.12334063	    -19.68285894	    -19.50647002	     -4.71005962	     -9.48437680	      2.58050714	     41.90847485	    -37.35481354	     -1.17867281	    -17.37183912
      4.06000000	     91.51240810	     21.25175806	     -7.28804592	      1.49457299	     -0.65464566	      0.56164059	      0.67694805	    -26.52355191	      1.25031646	    -22.11152142	    -20.89368088	     -3.79218493	     -7.57062870	      2.60736893	     41.98296528	    -37.28978442	     -0.36356510	    -16.89583699
      4.07000000	     89.89517906	     21.17032138	     -7.91167425	      1.50724337	     -0.65629899	      0.56236874	      2.57011873	    -26.62074256	      3.62603651	    -24.50784095	    -22.04155656	     -3.11786039	     -5.44936530	      2.59285472	     41.89392527	    -36.99834634	      0.14322648	    -16.28122792
      4.08000000	     88.18601021	     21.01297483	     -8.46765587	      1.51973131	     -0.65794836	      0.56333967	      4.52449047	    -26.61831023	      5.95318925	    -26.79334123	    -23.29816897	     -2.26573580	     -3.25541366	      2.58316925	     41.68022077	    -36.47212657	      0.58225884	    -15.44386503
      4.09000000	     86.49694037	     20.83412981	     -9.07415384	      1.53193290	     -0.65955372	      0.56439434	      6.47887427	    -26.58321851	      8.29953426	    -28.97295647	    -24.43796751	     -1.58411048	     -1.10433462	      2.52315935	     41.46432343	    -35.79755954	      0.81375152	    -14.69019471
