Inverse Dynamics Generalized Forces
version=1
nRows=291
nColumns=19
inDegrees=no
endheader
time	pelvis_to_ground_rx_moment	pelvis_to_ground_ry_moment	pelvis_to_ground_rz_moment	pelvis_to_ground_tx_force	pelvis_to_ground_ty_force	pelvis_to_ground_tz_force	left_hip_abduction_moment	left_hip_rotation_moment	left_hip_flexion_moment	right_hip_abduction_moment	right_hip_rotation_moment	right_hip_flexion_moment	left_knee_flexion_moment	right_knee_flexion_moment	left_ankle_flexion_moment	right_ankle_flexion_moment	left_subtalar_angle_moment	right_subtalar_angle_moment
      0.29000000	     74.92602338	     -8.25956869	      2.81110859	     16.58613923	    243.04016427	     65.22533924	     35.90344309	      2.82078554	      5.08285154	     28.46837848	     11.53522673	     11.14993587	     -1.75132615	     -0.26257071	      0.10941744	      0.14258151	     -0.20414767	      0.04188630
      0.30000000	     67.48081298	      7.78213950	      2.45588841	     -8.05862558	    226.35871848	     28.33439804	     35.69594098	      1.83592439	      3.56306795	     22.95112198	      9.92427702	     -2.43152385	     -2.96377346	     -0.82514681	      0.05849263	      0.03069001	     -0.19756146	      0.02804411
      0.31000000	     60.84349591	     22.91861324	      1.77825048	    -28.60380317	    211.49281184	     -6.66902233	     35.10920661	      0.91153704	      2.25617412	     18.65616429	      8.05352033	    -15.39901305	     -4.10165174	     -1.81955750	      0.01074647	     -0.08191358	     -0.19047461	      0.01767556
      0.32000000	     55.83497718	     36.44337702	      0.98930235	    -44.04528797	    200.10318588	    -36.21434642	     34.24384462	      0.09357705	      1.38976519	     16.22879175	      6.29157136	    -27.20924259	     -5.10510060	     -3.52486322	     -0.03344162	     -0.19608925	     -0.18474902	      0.01239141
      0.33000000	     53.15255206	     47.63580093	      0.29765688	    -53.83012880	    193.54728040	    -57.59630864	     33.23319866	     -0.57186456	      1.26207044	     16.11857438	      5.01818982	    -37.36388774	     -5.88846111	     -6.06783828	     -0.07248062	     -0.31099778	     -0.18215842	      0.01390047
      0.34000000	     53.31384960	     55.72154888	     -0.13050653	    -57.59127172	    192.75336405	    -69.35965936	     32.23683765	     -1.04166835	      2.25617887	     18.51705708	      4.57218549	    -45.40646059	     -6.33465540	     -9.37604325	     -0.10325567	     -0.42369338	     -0.18426273	      0.02371055
      0.35000000	     56.56665481	     59.90352007	     -0.20669413	    -54.96876560	    198.08486810	    -71.41680099	     31.42500453	     -1.28564091	      4.81337364	     23.29517790	      5.19481132	    -50.95036088	     -6.30283377	    -13.18020721	     -0.12130155	     -0.52923212	     -0.19228948	      0.04250622
      0.36000000	     62.77629166	     59.48931434	      0.04470032	    -45.64029830	    209.20912539	    -64.89661640	     30.94932020	     -1.30167293	      9.35263103	     29.96201256	      6.96659420	    -53.74364438	     -5.65228406	    -17.07065809	     -0.12156734	     -0.62128305	     -0.20698111	      0.06938040
      0.37000000	     71.35139257	     54.07401591	      0.45822108	    -29.54171524	    225.04276334	    -51.77378741	     30.90354182	     -1.12861327	     16.15638847	     37.68770694	      9.75492667	    -53.74217535	     -4.27605357	    -20.59188173	     -0.09953636	     -0.69315371	     -0.22844298	      0.10135871
      0.38000000	     81.27689039	     43.69765908	      0.73158222	     -7.14835928	    243.84857251	    -34.37745196	     31.28432723	     -0.84815423	     25.26156937	     45.42314570	     13.20706095	    -51.14675471	     -2.13264934	    -23.34298383	     -0.05229958	     -0.73897553	     -0.25607041	      0.13364177
      0.39000000	     91.27606609	     28.91296710	      0.49255398	     20.32982709	    263.49290054	    -14.90895198	     31.96179432	     -0.57085189	     36.38736292	     52.10750444	     16.81681555	    -46.37589118	      0.73340934	    -25.05039573	      0.02077097	     -0.75462896	     -0.28848471	      0.16068269
      0.40000000	    100.05691307	     10.73096093	     -0.56891524	     50.96169427	    281.79374870	      4.91207517	     32.66895841	     -0.40626405	     48.92302245	     56.90465464	     20.05883038	    -39.97593740	      4.18858196	    -25.59190128	      0.11799025	     -0.73804805	     -0.32333060	      0.17778500
      0.41000000	    106.55694075	     -9.54464064	     -2.55011398	     82.35798944	    296.85095441	     24.00220477	     33.02237645	     -0.42484808	     61.98770116	     59.38226237	     22.53999906	    -32.49994833	      8.02657447	    -24.97302967	      0.23590312	     -0.68895962	     -0.35704037	      0.18256090
      0.42000000	    110.10876294	    -30.53303209	     -5.24543315	    112.09833619	    307.27177816	     41.85936169	     32.58626476	     -0.62786887	     74.55399293	     59.56562014	     24.09696220	    -24.40556453	     11.99836650	    -23.27857324	      0.37003235	     -0.60854751	     -0.38490273	      0.17559249
      0.43000000	    110.49401475	    -50.96707592	     -8.17627507	    138.16157221	    312.26705323	     58.34687963	     30.97597095	     -0.94218818	     85.60998689	     57.85417179	     24.79439681	    -16.01245689	     15.84724863	    -20.62888304	      0.51549144	     -0.49948576	     -0.40164132	      0.16003063
      0.44000000	    107.90115981	    -69.81248213	    -10.73778023	    159.21429784	    311.64750515	     73.41112295	     27.97195517	     -1.24647629	     94.32429563	     54.84759878	     24.83512152	     -7.52655549	     19.34158888	    -17.15940117	      0.66732653	     -0.36634297	     -0.40242915	      0.14037336
      0.45000000	    102.82651694	    -86.30452291	    -12.39687986	    174.67969029	    305.76458456	     86.84526573	     23.60272035	     -1.41990483	    100.17325046	     51.15746226	     24.43804215	      0.89152777	     22.30008768	    -13.02423415	      0.82062124	     -0.21599208	     -0.38408177	      0.12100098
      0.46000000	     95.95550823	    -99.91786277	    -12.85504794	    184.59372674	    295.42258606	     98.18909368	     18.16466774	     -1.39275358	    102.99660026	     47.27007053	     23.74639300	      9.04872849	     24.60600164	     -8.41210494	      0.97048010	     -0.05759438	     -0.34608047	      0.10505136
      0.47000000	     88.04899789	   -110.29777073	    -12.11641357	    189.32616659	    281.76875444	    106.79408105	     12.17348106	     -1.17748957	    102.96986931	     43.49089480	     22.80060423	     16.66227986	     26.20871107	     -3.56071616	      1.11198284	      0.09802127	     -0.29109630	      0.09393684
      0.48000000	     79.84782881	   -117.18312115	    -10.44904154	    189.27679167	    266.16112780	    112.01152592	      6.26490110	     -0.86699490	    100.50692712	     39.96472504	     21.57321680	     23.34090263	     27.11339142	      1.24004928	      1.24017947	      0.23941804	     -0.22480273	      0.08748957
      0.49000000	     72.00135812	   -120.35073398	     -8.26869957	    184.65328520	    250.02007450	    113.41593152	      1.07421101	     -0.59978403	     96.12663826	     36.74125857	     20.03748079	     28.61194831	     27.36271966	      5.66079359	      1.35015565	      0.35579196	     -0.15494060	      0.08451859
      0.50000000	     65.02660206	   -119.60901393	     -6.00174609	    175.40956402	    234.68716544	    110.97073140	     -2.87110002	     -0.50761171	     90.33201521	     33.84631407	     18.23190015	     31.99145538	     27.01832557	      9.36189151	      1.43717413	      0.43822836	     -0.08986951	      0.08346515
      0.51000000	     59.30296588	   -114.85539851	     -3.98101441	    161.37088198	    221.32338154	    105.07278801	     -5.21980924	     -0.66884780	     83.54392999	     31.32919274	     16.29126516	     33.08265742	     26.15023352	     12.03617218	      1.49701121	      0.48078793	     -0.03706748	      0.08292597
      0.52000000	     55.09199831	   -106.17068076	     -2.39597988	    142.47655237	    210.85352245	     96.46298773	     -5.82258232	     -1.08396340	     76.09269424	     29.27860418	     14.43362024	     31.67474669	     24.83531860	     13.45620160	      1.52652332	      0.48116685	     -0.00197316	      0.08199239
      0.53000000	     52.56037238	    -93.89692628	     -1.29144323	    119.01259832	    203.93693631	     86.04541544	     -4.72268828	     -1.67707345	     68.24015400	     27.81233391	     12.91037566	     27.80966345	     23.15912987	     13.51408949	      1.52424056	      0.44079403	      0.01264658	      0.08041626
      0.54000000	     51.79272382	    -78.67194526	     -0.60277921	     91.75535191	    200.95043256	     74.69179956	     -2.11828113	     -2.32017583	     60.21079622	     27.04703149	     11.93793721	     21.80224311	     21.21709168	     12.24536175	      1.49079194	      0.36451240	      0.00673802	      0.07858617
      0.55000000	     52.78999449	    -61.41581241	     -0.21004759	     62.00142723	    201.97661157	     63.10052985	      1.69406304	     -2.87019497	     52.21751174	     27.05712719	     11.63339067	     14.21613915	     19.11298332	      9.83279851	      1.42897821	      0.26013548	     -0.01751513	      0.07732548
      0.56000000	     55.45181811	    -43.26350756	      0.01320158	     31.47191736	    206.79057650	     51.73938185	      6.37718646	     -3.20313096	     44.46790336	     27.83614444	     11.97483881	      5.80158759	     16.95285092	      6.58790780	      1.34337580	      0.13796350	     -0.05643280	      0.07758196
      0.57000000	     59.55281208	    -25.45095605	      0.17204851	      2.11174300	    214.85644194	     40.85924231	     11.59781700	     -3.23375786	     37.15267663	     29.27355621	     12.79918319	     -2.59577756	     14.83638935	      2.91124393	      1.23970716	      0.01000226	     -0.10556569	      0.08006851
      0.58000000	     64.73549404	     -9.17590180	      0.34246199	    -24.16437075	    225.36345276	     30.54641508	     17.05461265	     -2.92011403	     30.43091351	     31.15723599	     13.83844849	    -10.14287850	     12.85000417	     -0.76284301	      1.12430988	     -0.11137239	     -0.16025838	      0.08490833
      0.59000000	     70.53947109	      4.54913879	      0.57562297	    -45.73674871	    237.32076725	     20.78426263	     22.49394863	     -2.25770734	     24.41919500	     33.20667141	     14.78467120	    -16.13108250	     11.06232176	     -4.02851415	      1.00368411	     -0.21509697	     -0.21603824	      0.09144107
      0.60000000	     76.46880727	     15.03382293	      0.90780553	    -61.52037163	    249.70230606	     11.50611234	     27.71706203	     -1.26789991	     19.18151097	     35.13255254	     15.36514639	    -20.07501787	      9.52023008	     -6.56673195	      0.88391097	     -0.29289800	     -0.26888184	      0.09836369
      0.61000000	     82.08058846	     22.00402626	      1.36983113	    -71.12322328	    261.61027920	      2.63214984	     32.58140893	      0.01511785	     14.72104600	     36.70537440	     15.40531842	    -21.77629771	      8.24542968	     -8.18696269	      0.77004563	     -0.34020709	     -0.31545200	      0.10417047
      0.62000000	     87.06597601	     25.62462687	      1.99072542	    -74.87705536	    272.41203455	     -5.90751358	     36.99944709	      1.55437602	     10.97811360	     37.80887263	     14.86010476	    -21.33695459	      7.23261143	     -8.84329331	      0.66576372	     -0.35646347	     -0.35337055	      0.10767419
      0.63000000	     91.29408334	     26.45658979	      2.79582590	    -73.75526113	    281.80589917	    -14.15948979	     40.93608504	      3.31611801	      7.83052791	     38.45898455	     13.80726220	    -19.12628569	      6.44810355	     -8.62491832	      0.57314025	     -0.34483513	     -0.38142916	      0.10839046
      0.64000000	     94.80423962	     25.36549424	      3.80350508	    -69.21119934	    289.80032738	    -22.14327058	     44.40479628	      5.27284404	      5.09424264	     38.78124427	     12.40982170	    -15.71179773	      5.82854890	     -7.72668673	      0.49233206	     -0.31141871	     -0.39961833	      0.10665453
      0.65000000	     97.75616530	     23.38592692	      5.02320141	    -62.94353390	    296.62854859	    -29.85611555	     47.46303867	      7.40366410	      2.53247982	     38.95502805	     10.86248718	    -11.76031579	      5.28236248	     -6.40594964	      0.42138233	     -0.26407206	     -0.40902629	      0.10345686
      0.66000000	    100.36076135	     21.56195939	      6.45592074	    -56.62402370	    302.63428296	    -37.28214138	     50.20596136	      9.69251324	     -0.12328158	     39.14621806	      9.34045984	     -7.92513974	      4.69530630	     -4.93473997	      0.35640421	     -0.21113813	     -0.41166995	      0.10009034
      0.67000000	    102.81207468	     20.80182353	      8.09700101	    -51.65763009	    308.15472525	    -44.39916303	     52.75407080	     12.12510983	     -3.14634534	     39.45215884	      7.96581277	     -4.74545065	      3.93897241	     -3.55783512	      0.29211222	     -0.16031445	     -0.41024409	      0.09774303
      0.68000000	    105.23244612	     21.77063276	      9.93905547	    -49.01771942	    313.41517248	    -51.17758184	     55.22969045	     14.68451118	     -6.78641471	     39.87442114	      6.79652429	     -2.57596739	      2.88152949	     -2.46285958	      0.22262942	     -0.11781602	     -0.40781410	      0.09715615
      0.69000000	    107.63428631	     24.83165021	     11.97272771	    -49.17304663	    318.44414001	    -57.57020945	     57.72119579	     17.34502250	    -11.24284763	     40.32250401	      5.83441175	     -1.55592967	      1.40023792	     -1.76460458	      0.14239593	     -0.08791245	     -0.40737805	      0.09843549
      0.70000000	    109.89737495	     30.03393454	     14.18247309	    -52.09881756	    323.01720251	    -63.49537787	     60.24148310	     20.06394539	    -16.63950300	     40.64000661	      5.04350537	     -1.61786851	     -0.60448732	     -1.50262489	      0.04691700	     -0.07282102	     -0.41113320	      0.10104818
      0.71000000	    111.76153835	     37.12252043	     16.53457697	    -57.32386910	    326.63762917	    -68.81611530	     62.69222296	     22.76999047	    -22.99577047	     40.63963456	      4.36923507	     -2.52091066	     -3.19245424	     -1.64680889	     -0.06663160	     -0.07277053	     -0.41962489	      0.10396002
      0.72000000	    112.84003280	     45.55402506	     18.95896209	    -63.97970224	    328.56591395	    -73.32331383	     64.84673154	     25.34985426	    -30.19527723	     40.13806090	      3.75245785	     -3.89146796	     -6.36565306	     -2.10607466	     -0.19880091	     -0.08607533	     -0.43125144	      0.10584206
      0.73000000	    112.66488014	     54.52630923	     21.33230708	    -70.86520175	    327.91708894	    -76.73614911	     66.36371999	     27.63956715	    -37.96466089	     38.98944681	      3.13752766	     -5.26669273	    -10.05345322	     -2.73964155	     -0.34738373	     -0.10926765	     -0.44235422	      0.10530834
      0.74000000	    110.77324404	     63.02959331	     23.47164642	    -76.53815743	    323.83526699	    -78.72559085	     66.83833712	     29.42910825	    -45.87141425	     37.11965737	      2.47530676	     -6.13918325	    -14.10490909	     -3.37078508	     -0.50719243	     -0.13739523	     -0.44783452	      0.10116848
      0.75000000	    106.82953198	     69.92458690	     25.14527342	    -79.44184198	    315.72456997	    -78.95517747	     65.88488991	     30.48614452	    -53.34606439	     34.56162628	      1.72219410	     -6.00441258	    -18.29110171	     -3.80324928	     -0.67011838	     -0.16453553	     -0.44222012	      0.09267659
      0.76000000	    100.75815389	     74.07538215	     26.10464078	    -78.11512131	    303.48579977	    -77.13284608	     63.23496894	     30.60025012	    -59.74181970	     31.48602271	      0.83764765	     -4.42492660	    -22.32329606	     -3.84444734	     -0.82564041	     -0.18459924	     -0.42105975	      0.07975282
      0.77000000	     92.84662759	     74.55192371	     26.13518646	    -71.50985172	    287.69143273	    -73.06687159	     58.82792230	     29.64157867	    -64.43861397	     28.21283688	     -0.21704125	     -1.11856334	    -25.89094616	     -3.33809530	     -0.96200599	     -0.19240769	     -0.38234929	      0.06312999
      0.78000000	     83.77450033	     70.85470100	     25.11300410	    -59.33132613	    269.62714435	    -66.70581188	     52.86519995	     27.61650954	    -66.96856437	     25.18827374	     -1.47753284	      3.95118531	    -28.71318261	     -2.19980035	     -1.06796332	     -0.18475169	     -0.32751218	      0.04436553
      0.79000000	     74.53856586	     63.07787114	     23.04557989	    -42.26186754	    251.15231292	    -58.13712711	     45.80404357	     24.69595522	    -67.11910807	     22.92160703	     -2.97246666	     10.51900907	    -30.58854406	     -0.44375988	     -1.13460302	     -0.16100695	     -0.26144319	      0.02568962
      0.80000000	     66.28068922	     51.94883693	     20.07885273	    -21.97202620	    234.39338537	    -47.53959024	     38.28656384	     21.19959569	    -64.97893456	     21.89176344	     -4.71660495	     18.02129839	    -31.42800780	      1.80839465	     -1.15681787	     -0.12309351	     -0.19147415	      0.00970976
      0.81000000	     60.06309306	     38.72684941	     16.46740303	     -0.89947140	    221.34874343	    -35.11462570	     31.02489697	     17.53714341	    -60.91619565	     22.44609176	     -6.70234594	     25.66684763	    -31.26297213	      4.34018562	     -1.13399031	     -0.07489489	     -0.12564985	     -0.00097488
      0.82000000	     56.65550737	     24.97743264	     12.51980643	     18.17096363	    213.51471149	    -21.03514237	     24.67582448	     14.12449244	    -55.49798872	     24.71920667	     -8.89307880	     32.56805907	    -30.22711109	      6.87411618	     -1.06976719	     -0.02135607	     -0.07094018	     -0.00418618
      0.83000000	     56.39229574	     12.26550340	      8.53976178	     32.65165917	    211.63055823	     -5.44198458	     19.73654631	     11.30088084	    -49.37178332	     28.59547804	    -11.22216627	     37.91195514	    -28.51744773	      9.12277070	     -0.97108987	      0.03259178	     -0.03189309	      0.00145684
      0.84000000	     59.13159135	      1.83932704	      4.78237205	     40.69696968	    215.59558988	     11.50204828	     16.48246354	      9.27106988	    -43.13960941	     33.72602278	    -13.59814967	     41.13295794	    -26.34620921	     10.84729986	     -0.84684555	      0.08312902	     -0.01001967	      0.01626845
      0.85000000	     62.90280873	     -3.16597939	      0.89266031	     50.10080149	    224.39212811	      1.83582072	     15.39989870	      8.26842046	    -39.98799699	     39.59384784	    -15.91235097	     42.03821954	    -23.88193516	     11.90792600	     -2.44855113	      0.12843901	      0.67670400	      0.03939458
      0.86000000	     68.43302617	     -3.97587344	     -2.26360702	     50.74747343	    236.96276421	     -8.04713459	     16.08051305	      8.06337428	    -38.48850852	     45.60609654	    -18.04359850	     40.84329805	    -21.72116018	     12.29074388	     -3.82710967	      0.16915170	      1.29097040	      0.06889344
      0.87000000	     74.25468837	     -1.48422654	     -4.86233272	     48.03651647	    251.52018578	    -27.76928192	     18.34633961	      8.42227835	    -38.48467864	     51.18673439	    -19.85856454	     38.10510499	    -19.19401141	     12.10255226	     -5.38114729	      0.20820272	      2.06258074	      0.10195918
      0.88000000	     79.51871663	      3.24443309	     -6.80121125	     43.79915098	    266.42570175	    -58.06468949	     21.92071569	      9.10301555	    -39.70994093	     55.84761888	    -21.21182369	     34.57451427	    -16.16780450	     11.53640574	     -7.13231482	      0.25003561	      2.98673434	      0.13525553
      0.89000000	     83.60731175	      8.92983757	     -7.97455805	     39.53316142	    280.21056316	    -97.96643090	     26.49052679	      9.87964709	    -41.70021284	     59.22759449	    -21.95223106	     31.01040353	    -12.56693672	     10.81809480	     -9.11008322	      0.29916786	      4.03396346	      0.16534709
      0.90000000	     86.13509747	     14.23203320	     -8.32129299	     36.14890117	    291.58307048	   -144.23203544	     31.65661943	     10.56254801	    -43.77197982	     61.10242710	    -21.94094836	     28.00396612	     -8.41319007	     10.14867263	    -11.34303016	      0.35852555	      5.14973196	      0.18915450
      0.91000000	     87.04063344	     18.01337298	     -7.81692770	     34.13598773	    299.71737940	   -192.48219074	     37.09766782	     11.07894956	    -45.17018709	     61.37659968	    -21.08132443	     25.86156104	     -3.83771587	      9.66019865	    -13.85292741	      0.42817428	      6.28014624	      0.20431179
      0.92000000	     86.68575607	     20.14157200	     -6.40364705	     33.06280928	    304.65636737	   -239.71926400	     42.84089972	     11.49084079	    -45.80974118	     60.06843472	    -19.35270702	     24.57456296	      0.74485832	      9.39625616	    -16.61020410	      0.50478740	      7.39046431	      0.20937069
      0.93000000	     85.44349279	     21.31714772	     -4.13478917	     31.57421439	    306.65684998	   -283.92891788	     48.88120210	     11.79474243	    -46.13072749	     57.29559552	    -16.83489984	     23.87106770	      4.76343921	      9.31802457	    -19.49670310	      0.58193243	      8.44072392	      0.20389284
      0.94000000	     83.54866126	     22.53246774	     -1.20939482	     27.98463477	    305.89760918	   -323.30450269	     55.02131406	     11.88672050	    -46.66357677	     53.26333872	    -13.71202247	     23.32074980	      7.68312982	      9.32896535	    -22.33448255	      0.65115622	      9.37577288	      0.18847581
      0.95000000	     81.17898047	     24.65000011	      2.08163590	     20.89720730	    302.58464908	   -356.01851821	     60.95321260	     11.63768998	    -47.74845743	     48.25447622	    -10.25172268	     22.46036255	      9.12358164	      9.30932289	    -24.92536510	      0.70360293	     10.13687741	      0.16466884
      0.96000000	     78.49695071	     28.18606048	      5.40123645	      9.63866586	    297.02213983	   -380.55395607	     66.33399477	     10.95285158	    -49.45401852	     42.61595944	     -6.76316866	     20.90992180	      8.91663075	      9.15127930	    -27.09138578	      0.73173998	     10.68158997	      0.13474313
      0.97000000	     75.62884218	     33.22938035	      8.41159222	     -5.56073472	    289.57347603	   -396.02456854	     70.80689028	      9.80671695	    -51.59676936	     36.73442769	     -3.54353085	     18.45326204	      7.12144745	      8.78568357	    -28.70361750	      0.73083652	     10.98995683	      0.10140803
      0.98000000	     72.65585021	     39.45144145	     10.82507414	    -23.60314551	    280.62330342	   -402.34336810	     74.03593838	      8.26034704	    -53.80551959	     30.99803077	     -0.82697995	     15.07160360	      4.00450345	      8.19558817	    -29.69462357	      0.69986741	     11.05866822	      0.06752853
      0.99000000	     69.63729132	     46.16080322	     12.44735323	    -42.67184452	    270.59656842	   -400.21363928	     75.76639188	      6.46346982	    -55.58740768	     25.75212796	      1.24999189	     10.93876991	     -0.00536233	      7.41815655	    -30.05961093	      0.64163712	     10.90280240	      0.03579851
      1.00000000	     66.66216524	     52.40218527	     13.20010402	    -60.47650683	    260.00845523	   -391.01787707	     75.90321703	      4.63692597	    -56.40041022	     21.26154189	      2.65856062	      6.39117852	     -4.38284625	      6.53818957	    -29.84823112	      0.56225854	     10.55110215	      0.00841099
      1.01000000	     63.87758285	     57.10946148	     13.11628072	    -74.60288755	    249.47631033	   -376.60934399	     74.55143910	      3.03018700	    -55.73738144	     17.68785981	      3.46278649	      1.87403300	     -8.58550746	      5.67356529	    -29.15043581	      0.47024270	     10.04178071	     -0.01316063
      1.02000000	     61.47009461	     59.31151721	     12.31502602	    -82.95091453	    239.66085018	   -359.03925833	     71.99291910	      1.86107162	    -53.22436032	     15.08543943	      3.78751601	     -2.13586906	    -12.13744282	      4.95326780	    -28.08177502	      0.37532922	      9.42074407	     -0.02822492
      1.03000000	     59.63858402	     58.32987291	     10.96870479	    -84.14018875	    231.18742532	   -340.29193850	     68.63513743	      1.26303951	    -48.70303882	     13.41784649	      3.78093697	     -5.21198063	    -14.69759878	      4.49416795	    -26.76923742	      0.28717832	      8.73385128	     -0.03679255
      1.04000000	     58.56274333	     53.89928748	      9.26940657	    -77.74099411	    224.57859353	   -322.06094175	     64.93748125	      1.25868680	    -42.26444253	     12.58909180	      3.58394043	     -7.04198425	    -16.09496265	      4.38305378	    -25.33806633	      0.21408579	      8.02534703	     -0.03940203
      1.05000000	     58.37158158	     46.20176440	      7.40412267	    -64.30512628	    220.19291737	   -305.60062073	     61.33504331	      1.76528039	    -34.23268056	     12.47527683	      3.31349534	     -7.47102291	    -16.32991589	      4.66398647	    -23.90570722	      0.16190812	      7.33460620	     -0.03692102
      1.06000000	     59.10892417	     35.83898442	      5.54145169	    -45.26489327	    218.17082893	   -291.67129107	     58.17210043	      2.62242837	    -25.11675759	     12.94533036	      3.05980372	     -6.52872857	    -15.54500830	      5.32898301	    -22.57297251	      0.13334756	      6.69287580	     -0.03036532
      1.07000000	     60.70780503	     23.76447880	      3.82696890	    -22.73460701	    218.40507366	   -280.59264040	     55.66242622	      3.63024096	    -15.55343306	     13.86999626	      2.89163272	     -4.43397196	    -13.98453960	      6.31370135	    -21.42160676	      0.12760943	      6.12412318	     -0.02075796
      1.08000000	     62.98845533	     11.16731600	      2.38138806	      0.77360477	    220.54761410	   -272.35881808	     53.88404565	      4.58938343	     -6.23738041	     15.12413310	      2.86295062	     -1.56821524	    -11.94763604	      7.50144680	    -20.51349756	      0.14053718	      5.64391652	     -0.00905432
      1.09000000	     65.67341706	     -0.68401755	      1.29666897	     22.69229577	    224.04726362	   -266.76743862	     52.79381136	      5.33315820	      2.15903405	     16.58782648	      3.01602733	      1.57996530	     -9.74149147	      8.73588445	    -19.89163101	      0.16539604	      5.25916121	      0.00387030
      1.10000000	     68.41654909	    -10.60346048	      0.63169479	     40.72693734	    228.21812035	   -263.52534215	     52.25165967	      5.74652464	      9.06229124	     18.15052799	      3.37947977	      4.48324093	     -7.64140106	      9.83881280	    -19.57999184	      0.19407452	      4.97101520	      0.01721564
      1.11000000	     70.85488302	    -17.60970578	      0.41038598	     53.08981616	    232.33754557	   -262.33500926	     52.06241314	      5.77059264	     14.04772011	     19.72015766	      3.96267495	      6.63923715	     -5.86911907	     10.62853228	    -19.58659663	      0.21820416	      4.77420827	      0.03028309
      1.12000000	     72.66350761	    -21.00040511	      0.62044430	     58.62096257	    235.75315844	   -262.94458104	     52.01584264	      5.39377750	     16.86310265	     21.23527995	      4.74989347	      7.62067105	     -4.58480736	     10.93649523	    -19.90505313	      0.22997762	      4.66034566	      0.04254381
      1.13000000	     73.61519515	    -20.39340043	      1.21506131	     56.83151462	    237.98863766	   -265.15572964	     51.93026055	      4.63978060	     17.43969376	     22.67509516	      5.69827307	      7.11120285	     -3.88761234	     10.62187376	    -20.51745094	      0.22279931	      4.61870462	      0.05370210
      1.14000000	     73.62527823	    -15.76093984	      2.11694392	     47.91809773	    238.82637089	   -268.80006526	     51.68524505	      3.55916168	     15.91010965	     24.06175613	      6.74201507	      4.92883156	     -3.81172757	      9.58402136	    -21.39513976	      0.19191970	      4.63852855	      0.06370112
      1.15000000	     72.77345826	     -7.44419419	      3.22462928	     32.74179077	    238.34611202	   -273.70118289	     51.24244166	      2.22450728	     12.61816903	     25.45201897	      7.80231919	      1.03749734	     -4.32475910	      7.77228073	    -22.50172208	      0.13497858	      4.71008463	      0.07266625
      1.16000000	     71.29550243	      3.85813681	      4.41983979	     12.75953654	    236.90891268	   -279.62710769	     50.64979703	      0.72742529	      8.11108514	     26.91883832	      8.80023363	     -4.45108580	     -5.32772625	      5.19307628	    -23.79280203	      0.05231366	      4.82393014	      0.08081428
      1.17000000	     69.54624252	     17.12243243	      5.57395281	    -10.07440929	    235.09313269	   -286.26712315	     50.03015892	     -0.82433298	      3.11199317	     28.52666663	      9.66922304	    -11.28028849	     -6.65833039	      1.91527159	    -25.21810460	     -0.05294663	      4.97127446	      0.08834618
      1.18000000	     67.94572813	     31.06056613	      6.55334566	    -33.44860932	    233.60235474	   -293.23742758	     49.56122969	     -2.31428978	     -1.53458168	     30.30653025	     10.36534300	    -19.05399865	     -8.10159572	     -1.92626980	    -26.72431963	     -0.17494041	      5.14336679	      0.09533774
      1.19000000	     66.92144522	     44.21878887	      7.22708280	    -54.88702196	    233.17077347	   -300.10549942	     49.45063378	     -3.63023346	     -4.94786580	     32.23926655	     10.87447189	    -27.24989636	     -9.41264640	     -6.13166494	    -28.25859709	     -0.30537733	      5.32993440	      0.10167222
      1.20000000	     66.85186316	     55.11004893	      7.47877607	    -71.98745846	    234.47952766	   -306.44006864	     49.90068203	     -4.68069858	     -6.31173697	     34.25518263	     11.21661163	    -35.24976009	    -10.34449801	    -10.44567239	    -29.76954331	     -0.43428270	      5.51888426	      0.10707474
      1.21000000	     68.02320811	     62.38212186	      7.22315921	    -82.70190035	    238.08392514	   -311.87223647	     51.07019466	     -5.41250798	     -4.98595256	     36.25266390	     11.44661824	    -42.39229476	    -10.68223955	    -14.57843916	    -31.21031828	     -0.55115087	      5.69285045	      0.11124785
      1.22000000	     70.59153731	     64.99107598	      6.42537427	    -85.61208583	    244.34627879	   -316.13764548	     53.02628066	     -5.82326206	     -0.60525869	     38.13006121	     11.65052779	    -48.04331636	    -10.27052362	    -18.23533154	    -32.53621785	     -0.64614806	      5.83049011	      0.11402327
      1.23000000	     74.55697196	     62.34601175	      5.11945739	    -80.13088004	    253.37168364	   -319.08758419	     55.70170478	     -5.96145926	      6.85414126	     39.81950831	     11.93629003	    -51.67167066	     -9.03222928	    -21.15099778	    -33.70404739	     -0.71110274	      5.90814851	      0.11545670
      1.24000000	     79.74348743	     54.40641470	      3.41959626	    -66.60349219	    264.93789056	   -320.66251514	     58.86596315	     -5.91192351	     17.04872582	     41.30846785	     12.41587679	    -52.92178547	     -6.97518121	    -23.12310985	    -34.67224347	     -0.74040914	      5.90279835	      0.11586302
      1.25000000	     85.78539233	     41.71438320	      1.51556405	    -46.29506475	    278.42441925	   -320.82268955	     62.12437646	     -5.76967879	     29.28681951	     42.63614880	     13.17711210	    -51.66923326	     -4.18541984	    -24.03926775	    -35.39808813	     -0.73189054	      5.79336605	      0.11578496
      1.26000000	     92.12884853	     25.33624457	     -0.35212692	    -21.22619475	    292.78297449	   -319.45616392	     64.95402079	     -5.61005217	     42.59547416	     43.86255313	     14.25165248	    -48.03697491	     -0.81305423	    -23.88778724	    -35.83810389	     -0.68722253	      5.56686878	      0.11585845
      1.27000000	     98.07272494	      6.70152345	     -1.93143020	      6.13673226	    306.59509965	   -316.29494874	     66.78196221	     -5.46417997	     55.83959564	     45.02354906	     15.59219030	    -42.36093297	      2.95074426	    -22.74786732	    -35.94792266	     -0.61151030	      5.21917973	      0.11658788
      1.28000000	    102.84437368	    -12.61733963	     -3.00188935	     33.26024075	    318.23081461	   -310.87207777	     67.08177745	     -5.30998659	     67.86618226	     46.09171770	     17.06867263	    -35.11767639	      6.89611839	    -20.76413141	    -35.68287168	     -0.51214706	      4.75954362	      0.11812596
      1.29000000	    105.71382402	    -31.13672656	     -3.41535066	     57.90886978	    326.08515532	   -302.56028769	     65.47881117	     -5.08293191	     77.65812005	     46.95768939	     18.48502551	    -26.83954408	     10.81315795	    -18.11562021	    -35.00197329	     -0.39750511	      4.20793628	      0.12016284
      1.30000000	    106.11700333	    -47.66848788	     -3.12532028	     78.44451748	    328.84728938	   -290.68718695	     61.82754611	     -4.70093230	     84.47899892	     47.44013952	     19.61302175	    -18.03752622	     14.51077827	    -14.98764427	    -33.87120175	     -0.27588914	      3.59393600	      0.12196660
      1.31000000	    103.77408347	    -61.47402541	     -2.19700633	     94.03520596	    325.75615724	   -274.68677509	     56.24800954	     -4.09535452	     87.98621168	     47.32600047	     20.23741517	     -9.13899570	     17.83368625	    -11.54955069	    -32.26856263	     -0.15476063	      2.95238302	      0.12254993
      1.32000000	    100.20672571	    -71.55204185	     -0.18286060	    112.73251515	    317.88241592	   -275.00140239	     49.10921816	     -3.23950262	     88.28659632	     46.66493062	     20.19503588	     -1.29572138	     20.67663409	     -7.48723579	    -30.18943735	     -1.85703142	      2.31990145	      0.77743658
      1.33000000	     93.80412577	    -77.16966605	      1.65911867	    122.33321746	    304.07338693	   -268.53984635	     40.96890850	     -2.16809574	     85.90763722	     45.06934198	     19.24133408	      4.53499857	     22.98932881	     -4.18630529	    -27.65187027	     -2.88005258	      1.73121459	      1.30285034
      1.34000000	     86.20890111	    -79.93655465	      3.48922956	    129.46091572	    286.66192460	   -263.92556465	     32.48784987	     -0.98423807	     81.67850511	     42.62892986	     17.59845062	      9.16633401	     24.76782627	     -0.97300649	    -24.70237622	     -4.14178210	      1.21505527	      2.02011619
      1.35000000	     78.48862875	    -80.68674968	      5.06206864	    135.46950620	    267.69377097	   -262.08819084	     24.33841364	      0.14872775	     76.55813153	     39.53421754	     15.44677497	     12.67950659	     26.04222917	      2.14727024	    -21.41852938	     -5.65482823	      0.79115922	      2.93906304
      1.36000000	     71.76018734	    -80.31043014	      6.17612506	    141.51156725	    249.41470525	   -263.71136337	     17.13323929	      1.02768784	     71.43666838	     36.09063205	     13.02613547	     15.29997024	     26.85294591	      5.21712185	    -17.91400264	     -7.42080949	      0.46819151	      4.04343683
      1.37000000	     66.94449830	    -79.53551306	      6.67845971	    148.14619313	    233.83484982	   -268.89272971	     11.36737323	      1.44695251	     66.95858998	     32.62995994	     10.56941656	     17.30819671	     27.23108863	      8.27881517	    -14.33456818	     -9.42166998	      0.24212052	      5.28443484
      1.38000000	     64.55748886	    -78.74817057	      6.47965791	    155.08035435	    222.34517203	   -276.84392158	      7.37002268	      1.24972321	     63.40958451	     29.43613435	      8.25801141	     18.92840363	     27.18757706	     11.30880500	    -10.84901233	    -11.61356256	      0.09850538	      6.58429712
      1.39000000	     64.56471712	    -77.83754203	      5.56329577	    161.09412259	    215.41129198	   -286.01156239	      5.27958923	      0.37790648	     60.69282850	     26.66131159	      6.20205643	     20.16741464	     26.71390992	     14.14907014	     -7.62941523	    -13.92663856	      0.01347787	      7.85469650
      1.40000000	     66.31744618	    -76.07007932	      3.98600231	    164.19140746	    212.38480584	   -295.10991086	      5.03851904	     -1.09415524	     58.38937433	     24.20370657	      4.45018676	     20.61819134	     25.78571401	     16.47788765	     -4.82744204	    -16.27884379	     -0.03826464	      9.02697803
      1.41000000	     68.80512213	    -72.29426285	      1.91089439	    162.04457675	    211.86251595	   -303.68372137	      6.40907450	     -2.95582616	     55.91210579	     21.78631999	      3.06266850	     19.56578494	     24.38019991	     17.90095950	     -2.55155135	    -18.57975486	     -0.07798982	     10.05895734
      1.42000000	     71.08480164	    -65.45559097	     -0.37831326	    152.70027953	    212.41260251	   -311.58685075	      9.01678909	     -4.89806169	     52.71521052	     19.18752433	      2.16203387	     16.37626618	     22.50760144	     18.09846922	     -0.85115516	    -20.73947248	     -0.11744362	     10.92159603
      1.43000000	     72.57815831	    -54.98556059	     -2.53257698	    135.15025369	    213.10021023	   -318.55174000	     12.41957774	     -6.58447236	     48.46699300	     16.39214552	      1.90591234	     10.75978117	     20.23438936	     16.91097277	      0.28720825	    -22.67674740	     -0.15950195	     11.59084306
      1.44000000	     73.17709744	    -40.98932424	     -4.22377720	    109.67605000	    213.68652691	   -324.24159574	     16.18344157	     -7.73016790	     43.13914358	     13.61293623	      2.41736781	      2.86200005	     17.69041267	     14.37025849	      0.93100873	    -24.33253914	     -0.20129456	     12.05389141
      1.45000000	     73.68275875	    -22.22784072	     -5.31541445	     77.06082296	    214.90100746	   -322.15270342	     20.43349566	     -8.10309051	     35.12395632	     11.18093321	      3.70537192	     -6.74233663	     13.23486049	     10.69522910	      1.18631690	    -25.67921810	     -0.28795542	     12.31352243
      1.46000000	     73.19374838	     -4.95353341	     -5.48242803	     40.82909855	    216.40766352	   -330.09791797	     23.87778114	     -7.84129003	     29.32277187	      9.40235602	      5.61507269	    -17.11153153	     11.90170540	      6.26723134	      1.10403449	    -26.71626986	     -0.32159123	     12.38908573
      1.47000000	     73.04428200	     11.88901610	     -4.95445596	      5.36428131	    219.24545983	   -334.15686093	     26.91413279	     -6.89302435	     23.61576414	      8.45614433	      7.83171752	    -27.06607616	     10.53870173	      1.57876331	      1.00230604	    -27.46198702	     -0.34374453	     12.31251302
      1.48000000	     73.49832804	     26.45940746	     -3.88435706	    -25.80299835	    223.63327113	   -334.73255721	     29.52977825	     -5.41053475	     18.46866933	      8.34517864	      9.93983525	    -35.38113288	      9.27291922	     -2.83921734	      0.89136841	    -27.94531587	     -0.35545546	     12.12114055
      1.49000000	     74.60001017	     37.12242989	     -2.47842531	    -49.55164853	    229.40618264	   -332.26215650	     31.75939191	     -3.57942761	     14.28810028	      8.90205370	     11.51952220	    -41.00919557	      8.21712250	     -6.50257112	      0.78170204	    -28.20041682	     -0.35864056	     11.85213731
      1.50000000	     76.20796527	     42.76015762	     -0.94463470	    -63.73885532	    236.09481601	   -327.28746984	     33.66156517	     -1.57773056	     11.35844951	      9.85072088	     12.24974454	    -43.27584186	      7.45460335	     -9.05434271	      0.68277361	    -28.26683283	     -0.35551834	     11.53906022
      1.51000000	     78.09428811	     42.96549437	      0.54770676	    -67.56774689	    243.11350848	   -320.51337619	     35.30254764	      0.45365732	      9.80308164	     10.89974372	     11.98184494	    -41.98850893	      7.03008375	    -10.31126230	      0.60190051	    -28.18500507	     -0.34817351	     11.20893189
      1.52000000	     80.04993739	     38.09882583	      1.88852522	    -61.69660881	    249.95329218	   -312.79617385	     36.74864463	      2.42503349	      9.56974834	     11.82797823	     10.76330794	    -37.45562178	      6.94571192	    -10.28089356	      0.54341934	    -27.99545557	     -0.33828457	     10.88155069
      1.53000000	     81.95249568	     29.21139682	      3.02979742	    -48.09735146	    256.29987818	   -305.04096048	     38.06531786	      4.29788119	     10.43411983	     12.53337767	      8.81012864	    -30.41691735	      7.15987818	     -9.14490890	      0.50826772	    -27.73625734	     -0.32708155	     10.56955391
      1.54000000	     83.78133970	     17.86857780	      3.97731545	    -29.71348258	    262.05727662	   -298.03605393	     39.31954905	      6.07557774	     12.01915801	     13.03656620	      6.44345852	    -21.90975267	      7.58827221	     -7.21695879	      0.49396881	    -27.43973921	     -0.31547778	     10.27746568
      1.55000000	     85.59179393	      5.91462514	      4.77834836	     -9.98835009	    267.29629640	   -292.33508843	     40.58301359	      7.79029158	     13.82979243	     13.44380675	      4.01316548	    -13.10274527	      8.10767183	     -4.88548088	      0.49497093	    -27.13255411	     -0.30428577	     10.00443364
      1.56000000	     87.47005218	     -4.78723155	      5.50806888	      7.65385100	    272.17291918	   -288.24643893	     41.93310417	      9.48966459	     15.30256518	     13.88523088	      1.82835314	     -5.12087157	      8.56345761	     -2.54870704	      0.50331062	    -26.83729843	     -0.29442500	      9.74687333
      1.57000000	     89.49536617	    -12.59628992	      6.25590768	     20.28013142	    276.85775716	   -285.89672565	     43.44756156	     11.22545677	     15.86691336	     14.46013920	      0.11140068	      1.10683117	      8.78129316	     -0.55615986	      0.50954559	    -26.57370138	     -0.28701855	      9.50102876
      1.58000000	     91.72346843	    -16.29027534	      7.11316380	     25.81227769	    281.49762198	   -285.31923303	     45.19066548	     13.04596113	     15.00834352	     15.21068757	     -1.02149437	      4.96313473	      8.58164180	      0.83722747	      0.50386555	    -26.36034052	     -0.28338299	      9.26537046
      1.59000000	     94.18579420	    -15.18532348	      8.16066921	     23.22400115	    286.19794679	   -286.50930955	     47.19125750	     14.99119025	     12.32470392	     16.12840126	     -1.55636385	      6.20096324	      7.79560431	      1.49651205	      0.47723137	    -26.21427175	     -0.28492310	      9.04198811
      1.60000000	     96.86399076	     -9.15129247	      9.45548508	     12.53451779	    290.96508715	   -289.41363795	     49.41325581	     17.08649632	      7.57366193	     17.16159200	     -1.55879955	      4.91458193	      6.28190229	      1.39600399	      0.42234735	    -26.14933801	     -0.29277083	      8.83518185
      1.61000000	     99.64283026	      1.40166420	     11.02057945	     -5.27577101	    295.61526831	   -293.89306096	     51.72454694	     19.33133459	      0.70957136	     18.21493852	     -1.14914098	      1.49668666	      3.94458084	      0.60660869	      0.33438336	    -26.17649125	     -0.30715699	      8.65043366
      1.62000000	    102.26747724	     15.56767235	     12.83462052	    -28.41625381	    299.69367103	   -299.66784288	     53.87758181	     21.68331173	     -8.09521293	     19.15411820	     -0.48020567	     -3.41494424	      0.74991119	     -0.71687196	      0.21149844	    -26.30259257	     -0.32684268	      8.49601479
      1.63000000	    104.32156713	     32.03461095	     14.82140127	    -54.50683331	    302.45022409	   -306.28157002	     55.51559277	     24.04062547	    -18.44681217	     19.81236265	      0.28299033	     -9.01332318	     -3.25872644	     -2.35658123	      0.05517357	    -26.52960232	     -0.34886573	      8.37986758
      1.64000000	    105.26116088	     49.20665623	     16.84130310	    -80.83367581	    302.91475488	   -313.11222277	     56.21448603	     26.23082211	    -29.74727645	     20.01386754	      0.98002695	    -14.40857377	     -7.95027381	     -4.05462796	     -0.12973047	    -26.85336311	     -0.36865661	      8.30883853
      1.65000000	    104.51170155	     65.36918701	     18.69549753	   -104.64946500	    300.08738930	   -319.43266710	     55.56448503	     28.01920744	    -41.24482858	     19.60811326	      1.46995337	    -18.72555526	    -13.10574966	     -5.54026658	     -0.33527572	    -27.26151918	     -0.38063558	      8.28528594
      1.66000000	    101.62585222	     78.89900511	     20.15242862	   -123.51988852	    293.22335841	   -324.51705678	     53.28039285	     29.14740923	    -52.12379325	     18.51553040	      1.64543712	    -21.21235714	    -18.43411670	     -6.56202171	     -0.55107262	    -27.73243915	     -0.37939895	      8.30520054
      1.67000000	     96.45739885	     88.48061490	     20.99492269	   -135.65454725	    282.12843183	   -327.74187365	     49.30679688	     29.39779408	    -61.61797296	     16.77266639	      1.44272503	    -21.34113580	    -23.60359533	     -6.91901817	     -0.76505374	    -28.23624085	     -0.36128741	      8.35692382
      1.68000000	     89.28586864	     93.28419553	     21.07564100	   -140.16283913	    267.35360459	   -328.62016777	     43.87575185	     28.66410828	    -69.12133502	     14.56320943	      0.84514393	    -18.88274491	    -28.28369884	     -6.48392800	     -0.96436956	    -28.73415838	     -0.32576838	      8.42162501
      1.69000000	     80.84093986	     93.09385542	     20.36197375	   -137.22571892	    250.21975367	   -326.76461351	     37.49051718	     27.00266402	    -74.27771152	     12.22278229	     -0.11934898	    -13.95568149	    -32.19244336	     -5.21910647	     -1.13656092	    -29.17814452	     -0.27602312	      8.47585244
      1.70000000	     72.19840279	     88.36086177	     18.94868895	   -128.14058225	    232.64422247	   -321.80533847	     30.83382085	     24.63887165	    -77.02707318	     10.20286645	     -1.38662606	     -7.04071155	    -35.13716604	     -3.18569685	     -1.27087277	    -29.51188078	     -0.21836190	      8.49329612
      1.71000000	     64.57338518	     80.13740571	     17.02230352	   -115.15242296	    216.80085432	   -313.29784546	     24.62392737	     21.91651049	    -77.58384285	      9.00426975	     -2.87264164	      1.05917917	    -37.03329931	     -0.54064538	     -1.35928836	    -29.67251183	     -0.16047451	      8.45115804
      1.72000000	     59.06386338	     69.87924276	     14.78995983	   -101.05132325	    204.70741010	   -300.67224548	     19.46536998	     19.20604036	    -76.35015682	      9.08574121	     -4.49575126	      9.32729947	    -37.89466400	      2.48248014	     -1.39710503	    -29.59177652	     -0.10911180	      8.33288619
      1.73000000	     56.42991190	     59.15696540	     12.40735320	    -88.61023634	    197.86373597	   -283.27668266	     15.74373502	     16.81045836	    -73.79638900	     10.77506788	     -6.19925062	     16.70148149	    -37.80230110	      5.60818444	     -1.38313709	    -29.19733613	     -0.06824507	      8.13039933
      1.74000000	     56.11707094	     50.86781367	      9.65443192	    -76.24595581	    197.63113276	   -276.04958504	     13.64911970	     14.97194930	    -71.97917777	     14.20094372	     -7.96571427	     22.27517652	    -36.67859496	      8.56320613	     -1.93264138	    -28.41607304	      0.37500102	      7.84331318
      1.75000000	     58.49169674	     45.66863405	      6.81860105	    -68.40670040	    203.40257069	   -268.36425480	     12.99926356	     13.73051140	    -70.82577125	     19.26304101	     -9.81524600	     25.49338911	    -35.26747700	     11.12426900	     -2.79863579	    -27.18134057	      0.94215526	      7.47846573
      1.76000000	     62.84008388	     43.16179502	      3.75287787	    -63.69473900	    214.51334570	   -263.16744124	     13.67865747	     12.91008481	    -69.88573986	     25.64158475	    -11.78235578	     26.29638666	    -32.91656798	     13.16060520	     -3.66012959	    -25.44555924	      1.64604401	      7.04694254
      1.77000000	     68.29473873	     42.70441500	      0.46848366	    -60.53457611	    229.57303927	   -261.67049356	     15.45075230	     12.35202410	    -68.94457858	     32.83919783	    -13.87189007	     25.14486122	    -29.48329311	     14.65083901	     -4.53803420	    -23.19606495	      2.47797506	      6.55928270
      1.78000000	     73.96378637	     43.05743633	     -2.89614113	    -56.82431061	    246.84372181	   -264.45577239	     18.10087493	     11.92520055	    -67.59497058	     40.24230330	    -16.00734159	     22.89688086	    -24.86621332	     15.66677418	     -5.50198211	    -20.46820497	      3.41348293	      6.02279924
      1.79000000	     79.08871998	     42.68765308	     -6.06941398	    -50.59398111	    264.45950093	   -270.85107066	     21.45441115	     11.57049524	    -65.30998406	     47.18784363	    -17.99745763	     20.56987891	    -19.08729805	     16.33077423	     -6.65790600	    -17.35588380	      4.41326796	      5.44100489
      1.80000000	     83.11568454	     40.20346914	     -8.70632117	    -40.33493715	    280.71484627	   -279.74186426	     25.40562990	     11.31935246	    -61.62030413	     53.02738245	    -19.54426071	     19.06503574	    -12.30415798	     16.76529843	     -8.11850045	    -14.01469119	      5.44724604	      4.81429179
      1.81000000	     85.73385285	     35.11066260	    -10.41523846	    -25.69548792	    294.39305348	   -291.11553614	     29.96261759	     11.28300371	    -56.63631262	     57.18986031	    -20.30007609	     18.94418497	     -4.90742524	     17.05710492	     -9.94689784	    -10.65054095	      6.49850717	      4.14417147
      1.82000000	     86.90319943	     27.91755757	    -10.83165925	     -7.91468770	    304.80451133	   -305.26970465	     35.19836593	     11.55738428	    -51.03258054	     59.24894427	    -19.96028057	     20.32245734	      2.48480494	     17.24597902	    -12.10721375	     -7.49159381	      7.52944140	      3.43981610
      1.83000000	     86.72285136	     19.75577212	     -9.77262531	     10.61274033	    311.56598470	   -321.96901074	     41.08805013	     12.10097735	    -45.68065276	     58.98587179	    -18.35919369	     22.89707960	      9.18099978	     17.34013022	    -14.47657795	     -4.74577517	      8.48629543	      2.72250204
      1.84000000	     85.35674273	     11.98508843	     -7.29502681	     27.02889311	    314.50387666	   -340.09236913	     47.45153418	     12.73383634	    -41.33464858	     56.41981841	    -15.53114704	     26.04821919	     14.55796371	     17.32225793	    -16.88277713	     -2.55996410	      9.30931776	      2.02496231
      1.85000000	     83.05138697	      5.88897735	     -3.65718894	     38.69925914	    313.73924975	   -357.83394123	     54.01922532	     13.21986622	    -38.48865477	     51.80873218	    -11.71815277	     29.01143270	     18.14718346	     17.15901029	    -19.14417671	     -0.99227950	      9.95092837	      1.38541691
      1.86000000	     80.06553491	      2.43756408	      0.72735768	     43.74229932	    309.60371355	   -373.16010340	     60.43354127	     13.32415961	    -37.33078371	     45.61389086	     -7.32020751	     31.07395515	     19.69373007	     16.82037201	    -21.10253011	     -0.00872604	     10.38464316	      0.83782792
      1.87000000	     77.15416641	      0.86100764	      5.16952848	     45.63151496	    303.91606856	   -378.24169324	     66.24920126	     12.86353220	    -37.77443045	     39.33741815	     -3.02963899	     32.89135774	     19.17298602	     15.85100639	    -22.64528982	      1.01740034	     10.60696959	      0.11990571
      1.88000000	     73.16544515	      3.92242822	      9.66280464	     33.05437355	    293.58698552	   -390.04940618	     71.00997727	     11.75650512	    -39.50653750	     31.26195978	      1.39961867	     31.81612482	     16.77876141	     16.20346355	    -23.71254569	      1.01722926	     10.63084463	      0.06730127
      1.89000000	     69.00073840	     10.00724740	     13.48100590	     15.08845188	    281.64930937	   -393.32619100	     74.33608040	     10.04921425	    -42.04150306	     23.65665593	      5.03437053	     28.84109820	     12.88548320	     15.95556967	    -24.29836162	      0.97457386	     10.48399709	      0.01570017
      1.90000000	     64.76959140	     18.40570684	     16.33886681	     -6.67362223	    268.66296613	   -389.07083669	     75.99380159	      7.90964609	    -44.78752012	     16.96149375	      7.66954657	     24.10795122	      7.99551122	     15.15963462	    -24.43970673	      0.89356976	     10.20091439	     -0.03083367
      1.91000000	     60.58466108	     28.11942171	     18.09109908	    -30.12791438	    255.19479662	   -378.87954899	     75.93380747	      5.59296717	    -47.11855787	     11.45011192	      9.25318177	     17.94275087	      2.67355072	     13.92687693	    -24.20259600	      0.78185425	      9.81700885	     -0.06910328
      1.92000000	     56.56695201	     37.99306062	     18.72036075	    -52.91993208	    241.78755094	   -364.66189006	     74.30017397	      3.38943487	    -48.45054105	      7.21240467	      9.86075053	     10.81043606	     -2.52516240	     12.40816877	    -23.66977629	      0.64964032	      9.36466878	     -0.09703987
      1.93000000	     52.84279532	     46.86129258	     18.31079960	    -72.73405873	    228.92883533	   -348.35910812	     71.40770751	      1.56644052	    -48.31372960	      4.16901074	      9.65314453	      3.26558626	     -7.11980901	     10.77305073	    -22.93015000	      0.50857653	      8.86893710	     -0.11385316
      1.94000000	     49.53524450	     53.70064822	     17.01408492	    -87.58837533	    217.03804541	   -331.70864206	     67.68908485	      0.31623502	    -46.41502498	      2.11705275	      8.83039726	     -4.10434739	    -10.75522869	      9.18787486	    -22.07136820	      0.37035627	      8.35133037	     -0.11998211
      1.95000000	     46.76629264	     57.76928111	     15.01715277	    -96.10858934	    206.47395064	   -316.08066077	     63.63589609	     -0.27668669	    -42.67760005	      0.79526723	      7.59216273	    -10.74738739	    -13.23225451	      7.79339017	    -21.17516666	      0.24518052	      7.82992720	     -0.11684379
      1.96000000	     44.65301736	     58.70792498	     12.51757584	    -97.72616446	    197.54568028	   -302.39225252	     59.73010416	     -0.24323459	    -37.24676594	     -0.04967531	      6.11354325	    -16.22015006	    -14.51177884	      6.68415056	    -20.31340108	      0.14036833	      7.32128518	     -0.10647192
      1.97000000	     43.29530925	     56.57595389	      9.70916616	    -92.73831010	    190.51597339	   -291.09657834	     56.37622720	      0.28848205	    -30.45821447	     -0.61082855	      4.53864488	    -20.24902129	    -14.69506997	      5.89394859	    -19.54780193	      0.05948243	      6.84210279	     -0.09114123
      1.98000000	     42.76310426	     51.80405339	      6.77509824	    -82.20330175	    185.59882419	   -282.23499607	     53.85088276	      1.13219242	    -22.76544586	     -0.99129222	      2.98728268	    -22.76331267	    -13.97969091	      5.39071985	    -18.92747564	      0.00221132	      6.40780436	     -0.07304668
      1.99000000	     43.08435971	     45.09451272	      3.88590448	    -67.72073727	    182.94745754	   -275.54029361	     52.27787292	      2.08803068	    -14.65758216	     -1.19893030	      1.56633155	    -23.89424182	    -12.60979754	      5.08150929	    -18.48864878	     -0.03507650	      6.02972926	     -0.05406812
      2.00000000	     44.23514147	     37.30331245	      1.19885925	    -51.16899894	    182.63543500	   -270.56114396	     51.62785039	      2.97864478	     -6.59432860	     -1.15954890	      0.37770415	    -23.94069763	    -10.83411248	      4.82675848	    -18.25463890	     -0.05836387	      5.71389946	     -0.03561513
      2.01000000	     46.14054211	     29.31899051	     -1.14418550	    -34.43575415	    184.64235159	   -266.78841661	     51.74128576	      3.67138641	      1.03405762	     -0.73807116	     -0.48088197	    -23.30491966	     -8.87823934	      4.46344921	    -18.23793269	     -0.07476543	      5.45986574	     -0.01853835
      2.02000000	     48.69077035	     21.94076147	     -3.02050278	    -19.16114992	    188.86176039	   -263.76397832	     52.36715238	      4.08782166	      7.93070106	      0.24022604	     -0.92104515	    -22.40786544	     -6.92791599	      3.83497350	    -18.44152017	     -0.09119572	      5.26194302	     -0.00310187
      2.03000000	     51.77492969	     15.76623884	     -4.32947333	     -6.51630404	    195.13647002	   -261.14684516	     53.21340102	      4.20409917	     13.90842576	      1.96955617	     -0.87019631	    -21.60174377	     -5.12210248	      2.82287927	    -18.86161041	     -0.11313830	      5.11081506	      0.01098300
      2.04000000	     55.31827302	     11.10166523	     -4.99488343	      2.95246969	    203.30822012	   -258.74985705	     53.99890155	      4.04409614	     18.90506565	      4.63982564	     -0.27485746	    -21.09924515	     -3.54970297	      1.37414752	    -19.48898390	     -0.14373455	      4.99668859	      0.02445667
      2.05000000	     59.30894885	      7.91015572	     -4.96743520	      9.39000537	    213.25656640	   -256.54302107	     54.50026303	      3.66891321	     22.99766376	      8.40312068	      0.90022072	    -20.93576270	     -2.24837162	     -0.48233491	    -20.30990457	     -0.18334054	      4.91004462	      0.03833815
      2.06000000	     63.79219841	      5.81116372	     -4.23058984	     13.59401686	    224.90187477	   -254.62524412	     54.57837019	      3.16477671	     26.40741027	     13.32914117	      2.67380811	    -20.97302007	     -1.20491336	     -2.63462989	    -21.30572926	     -0.22959130	      4.84407691	      0.05368176
      2.07000000	     68.83239967	      4.13815030	     -2.81193303	     16.86386345	    238.16571746	   -253.18547967	     54.18552779	      2.63142787	     29.48685951	     19.35737904	      5.04499608	    -20.94364859	     -0.35773297	     -4.90364358	    -22.45215856	     -0.27794710	      4.79522369	      0.07126439
      2.08000000	     74.45531126	      2.05873969	     -0.80008900	     20.73515439	    252.89986306	   -252.46485661	     53.35650141	      2.16825218	     32.67661960	     26.26280387	      7.98122346	    -20.52650291	      0.39419179	     -7.07397413	    -23.71968944	     -0.32265851	      4.76146710	      0.09124511
      2.09000000	     80.58797692	     -1.26414548	      1.64159010	     26.65100326	    268.81102930	   -252.71075448	     52.18154049	      1.85912550	     36.43009946	     33.65453261	     11.40091621	    -19.42951724	      1.17381400	     -8.93199320	    -25.07544982	     -0.35791575	      4.74204417	      0.11293477
      2.10000000	     87.02389584	     -6.52110096	      4.27661773	     35.66510930	    285.41317472	   -254.11072459	     50.76632413	      1.76013142	     41.13055718	     41.01928053	     15.16181144	    -17.45283653	      2.10779427	    -10.30011424	    -26.48280053	     -0.37878893	      4.73499593	      0.13482310
      2.11000000	     93.41694650	    -14.13895009	      6.82489914	     48.23429064	    302.01667793	   -256.71487632	     49.17878587	      1.89307303	     47.00863931	     47.80488839	     19.06623839	    -14.51832230	      3.30782634	    -11.05912125	    -27.89987278	     -0.38172921	      4.73788731	      0.15489466
      2.12000000	     99.31003370	    -24.20435756	      9.01849761	     64.12618105	    317.75110109	   -260.35653976	     47.40684820	      2.24600876	     54.07177360	     53.51987004	     22.88526354	    -10.66774751	      4.84991004	    -11.15600424	    -29.27994511	     -0.36474733	      4.74637896	      0.17114616
      2.13000000	    104.18458691	    -36.44931144	     10.66274284	     82.46634279	    331.61646452	   -264.60745986	     45.34185648	      2.78177584	     62.07471166	     57.81368907	     26.39180021	     -6.03969143	      6.76292214	    -10.59912067	    -30.56986714	     -0.32751860	      4.75433081	      0.18212247
      2.14000000	    107.52133539	    -50.29619191	     11.67713708	    101.91598430	    342.56203508	   -268.77812123	     42.80091256	      3.45062026	     70.54141568	     60.51160646	     29.38901349	     -0.83695821	      9.02428732	     -9.44540321	    -31.71277301	     -0.27145593	      4.75560998	      0.18724452
      2.15000000	    108.86343880	    -64.95066550	     12.10381059	    120.91919575	    349.59053147	   -271.98130908	     39.58008140	      4.20369024	     78.83879671	     61.60279260	     31.72611263	      4.70391269	     11.56959726	     -7.78565102	    -32.64776199	     -0.19956866	      4.74422589	      0.18680698
      2.16000000	    107.87445696	    -79.49958514	     12.08427815	    137.93928887	    351.87996695	   -273.24824051	     35.52243070	      5.00120213	     86.27054844	     61.19930737	     33.30049690	     10.33168641	     14.30137813	     -5.73311291	    -33.31527601	     -0.11607505	      4.71701116	      0.18171488
      2.17000000	    104.39438890	    -93.00532034	     11.81038982	    151.64282713	    348.91270499	   -271.65596929	     30.58454766	      5.81374031	     92.18401393	     59.48677382	     34.05059258	     15.78720638	     17.10140889	     -3.41664443	    -33.65793490	     -0.02601034	      4.67489448	      0.17313753
      2.18000000	    100.39644817	   -102.63579499	     12.20254555	    163.18400137	    342.14234909	   -277.98512678	     24.88703992	      6.61659207	     96.07435789	     58.34219245	     34.28528375	     19.30858629	     19.84137846	     -0.97676382	    -33.62203836	     -0.58259381	      4.62187734	      0.63004182
      2.19000000	     93.76319390	   -108.73022285	     12.20407786	    169.78158580	    329.18671280	   -284.12401367	     18.73256634	      7.37844169	     97.66387456	     55.89918214	     33.13261258	     21.20615820	     22.39117496	      1.24867334	    -33.15915180	     -1.24710279	      4.56416165	      1.07823271
      2.20000000	     85.96223318	   -110.87287360	     12.29166358	    171.95804539	    312.11408571	   -291.81334176	     12.58553827	      8.04833438	     96.93781021	     52.98582003	     31.10504305	     21.47252459	     24.62515550	      3.45017721	    -32.22924540	     -2.08037727	      4.50652605	      1.64645410
      2.21000000	     77.73757284	   -108.90319702	     12.35018805	    169.85168907	    292.21628745	   -301.33917457	      7.00502759	      8.54817256	     94.13120140	     49.68121796	     28.31590379	     19.98369070	     26.43063378	      5.58974376	    -30.80570913	     -3.11801848	      4.45161637	      2.35334934
      2.22000000	     69.89650844	   -103.05289650	     12.18926280	    163.80960138	    271.07800678	   -312.43240763	      2.54752712	      8.77701294	     89.66829445	     46.02524785	     24.95316034	     16.79000793	     27.71759800	      7.63468732	    -28.88259449	     -4.39437339	      4.39613268	      3.20810522
      2.23000000	     63.22198079	    -93.97434336	     11.62340086	    154.37172612	    250.44128898	   -323.97393181	     -0.33650360	      8.62626569	     84.06566587	     42.07392203	     21.29562234	     12.19389022	     28.42644672	      9.56194916	    -26.48153226	     -5.92932480	      4.33054024	      4.20236930
      2.24000000	     58.37438645	    -82.69212468	     10.53659492	    142.19588170	    232.04695543	   -333.68291054	     -1.37067572	      7.99792391	     77.81773149	     37.94750562	     17.69193034	      6.78875523	     28.52550780	     11.34401195	    -23.65662153	     -7.70884348	      4.23956322	      5.29662652
      2.25000000	     55.75342169	    -70.23157488	      8.88021919	    127.81671580	    217.29999804	   -338.78820094	     -0.47794972	      6.82499153	     71.27990309	     33.83500106	     14.45167840	      1.20722552	     27.99558581	     12.87818837	    -20.49490895	     -9.67983106	      4.10399386	      6.42068048
      2.26000000	     55.35892008	    -56.94760962	      6.61738236	    111.25467943	    206.76074676	   -338.37624104	      2.21884811	      5.09811294	     64.60478798	     29.91647643	     11.70777977	     -4.46522064	     26.82099881	     13.92152740	    -17.11903640	    -11.75137189	      3.90366933	      7.49806679
      2.27000000	     56.88390634	    -42.62701519	      3.78688162	     92.06341641	    200.26781662	   -333.49861650	      6.40995880	      2.89006879	     57.76050358	     26.34806137	      9.50194976	    -10.58267767	     25.00024839	     14.19205166	    -13.68262748	    -13.80833955	      3.62082846	      8.45877195
      2.28000000	     59.85314674	    -26.93212607	      0.55334902	     69.68785653	    197.25743316	   -326.10385791	     11.63348356	      0.36305361	     50.62012533	     23.25770318	      7.88300342	    -17.55600415	     22.57031560	     13.48014602	    -10.35877141	    -15.73879182	      3.24691303	      9.25142603
      2.29000000	     63.69254656	     -9.67549138	     -2.83011273	     43.74225281	    196.94026804	   -318.23182130	     17.34415585	     -2.25136683	     43.06720473	     20.70735441	      6.90826698	    -25.64839133	     19.62553776	     11.67823924	     -7.32034673	    -17.45316232	      2.78670382	      9.84709048
      2.30000000	     67.85437743	      9.01215004	     -6.06303824	     14.28586287	    198.52937362	   -311.50442873	     22.99720113	     -4.69264018	     35.06907026	     18.72204169	      6.63025002	    -34.83966901	     16.31525829	      8.80610124	     -4.71515461	    -18.89500590	      2.26201578	     10.24038154
      2.31000000	     71.91408656	     28.63108712	     -8.85137589	    -18.00803762	    201.39401888	   -306.83280936	     28.12728612	     -6.71783403	     26.71057744	     17.32539862	      7.06295110	    -44.78999813	     12.82480177	      5.01315673	     -2.64059042	    -20.04160089	      1.70919748	     10.44651771
      2.32000000	     75.60730331	     48.36061042	    -10.96270975	    -51.82735732	    205.10872691	   -304.33683488	     32.41082334	     -8.14229905	     18.19267233	     16.54659650	      8.14600269	    -54.89567667	      9.34630259	      0.55720179	     -1.12906048	    -20.89827504	      1.17096790	     10.49366080
      2.33000000	     78.81572442	     67.14697841	    -12.26481999	    -85.30294092	    209.42322986	   -303.47347301	     35.69559947	     -8.86577165	      9.81740621	     16.40262327	      9.72759133	    -64.39101830	      6.05628570	     -4.22686060	     -0.15006623	    -21.49112942	      0.68606338	     10.41561943
      2.34000000	     81.52323068	     83.80426497	    -12.73660884	   -116.18690148	    214.19595014	   -303.32346141	     37.99248536	     -8.87964384	      1.96927811	     16.87540426	     11.57428521	    -72.46187431	      3.11202414	     -8.96308320	      0.37436631	    -21.85999589	      0.28142130	     10.24743348
      2.35000000	     84.22248612	    100.23993391	    -12.20588608	   -144.74590601	    219.28283975	   -297.29177291	     39.84764953	     -7.94946658	     -7.81385781	     17.88234367	     13.40021248	    -78.34523116	     -1.38992310	    -13.26783956	      0.45534627	    -22.04891361	     -0.22967314	     10.01949541
      2.36000000	     85.77549647	    108.05793314	    -11.37281342	   -163.79540609	    224.84358140	   -300.64240499	     40.61213105	     -6.95174520	    -12.26593739	     19.26099515	     14.90961791	    -81.42046834	     -2.07664878	    -16.78922521	      0.37206629	    -22.10285600	     -0.26584602	      9.75791575
      2.37000000	     86.94755910	    110.78877023	    -10.08714132	   -173.40924148	    230.30047916	   -300.75079464	     40.94911743	     -5.56785842	    -15.12375462	     20.78768249	     15.84635916	    -81.28374848	     -2.33494577	    -19.24349477	      0.29722599	    -22.06380907	     -0.29467802	      9.48425434
      2.38000000	     87.76831406	    108.11750762	     -8.49880413	   -172.80947633	    235.53650955	   -298.01188711	     41.09366579	     -3.92886629	    -16.23370400	     22.22271999	     16.03777320	    -77.80622807	     -2.15295457	    -20.44782214	      0.23675519	    -21.96956014	     -0.31735603	      9.21648815
      2.39000000	     88.31393809	    100.16893791	     -6.73618154	   -162.06430431	    240.50642283	   -293.16454652	     41.22371717	     -2.14523254	    -15.55968111	     23.36034744	     15.41965728	    -71.15684808	     -1.53803455	    -20.34065826	      0.19533644	    -21.85481821	     -0.33536108	      8.96996563
      2.40000000	     88.71998339	     87.50883344	     -4.89641688	   -142.11860317	    245.26665761	   -287.16717565	     41.45077024	     -0.29855472	    -13.19550017	     24.06901985	     14.03855509	    -61.78085451	     -0.51944594	    -18.98536480	      0.17609876	    -21.75226320	     -0.34985256	      8.75829184
      2.41000000	     89.16809603	     71.09461899	     -3.04401235	   -114.71858767	    249.96727584	   -281.03342545	     41.82754360	      1.56042247	     -9.36849579	     24.30868122	     12.03278200	    -50.34443559	      0.84907308	    -16.55682967	      0.18018397	    -21.69223219	     -0.36128468	      8.59207233
      2.42000000	     89.85300205	     52.18806681	     -1.21614313	    -82.24596160	    254.80639582	   -275.67701901	     42.36757910	      3.40833008	     -4.43114708	     24.12490065	      9.60071551	    -37.66047850	      2.48785569	    -13.31527480	      0.20633277	    -21.70103736	     -0.36938774	      8.47844887
      2.43000000	     90.93472237	     32.23630471	      0.56895163	    -47.46830085	    259.95865268	   -271.79263453	     43.06766048	      5.24182918	      1.16327644	     23.62025482	      6.96499468	    -24.60567316	      4.29266620	     -9.57523473	      0.25080484	    -21.80181491	     -0.37349847	      8.41999706
      2.44000000	     92.49809900	     12.72847584	      2.30540863	    -13.24114661	    265.50897624	   -269.79269083	     43.92544315	      7.06998358	      6.89659912	     22.91978472	      4.34008002	    -12.02895906	      6.13845644	     -5.66587169	      0.30769393	    -22.00994560	     -0.37305072	      8.41395105
      2.45000000	     94.54168571	     -4.93247605	      3.99512374	     17.77403203	    271.42754009	   -269.82722634	     44.95013097	      8.90923817	     12.22546192	     22.14822715	      1.90930121	     -0.67827893	      7.88426665	     -1.89845827	      0.36952489	    -22.33324468	     -0.36803892	      8.45433921
      2.46000000	     96.97932983	    -19.52605148	      5.64567633	     43.32051289	    277.57116674	   -271.87343813	     46.16627273	     10.78114371	     16.61909813	     21.40380284	     -0.18725342	      8.84521522	      9.37846381	      1.45613054	      0.42799246	    -22.77157775	     -0.35937062	      8.53089466
      2.47000000	     99.66459156	    -30.09155428	      7.27055217	     61.70545015	    283.71474824	   -275.81544491	     47.60907320	     12.71121874	     19.59467497	     20.74860761	     -1.85631840	     16.12117419	     10.46489156	      4.18433040	      0.47469215	    -23.31784694	     -0.34900107	      8.63277611
      2.48000000	    102.42265594	    -35.99805553	      8.88822996	     71.91965320	    289.59618161	   -281.49849072	     49.30908949	     14.72671572	     20.75605198	     20.20977824	     -3.05202233	     20.93633207	     10.99219122	      6.14492334	      0.50175815	    -23.95886221	     -0.33966191	      8.74941565
      2.49000000	    105.07304124	    -36.99491750	     10.51944293	     73.70440200	    294.94251963	   -288.73320813	     51.26776822	     16.85136117	     19.83395164	     19.78493644	     -3.77364807	     23.29249274	     10.82622556	      7.27533386	      0.50242388	    -24.67768282	     -0.33419228	      8.87254867
      2.50000000	    107.43927404	    -33.23869742	     12.18307683	     67.54951718	    299.47518031	   -297.25959581	     53.43012202	     19.09662452	     16.71243400	     19.45024643	     -4.06348928	     23.40780386	      9.86167094	      7.59718121	      0.47152554	    -25.45386981	     -0.33480009	      8.99632191
      2.51000000	    109.33494831	    -25.26474790	     13.88951275	     54.58484577	    302.88008943	   -306.70407586	     55.66247850	     21.45021849	     11.43376692	     19.16115847	     -4.00185325	     21.68804113	      8.03069153	      7.20874458	      0.40588544	    -26.26370582	     -0.34251491	      9.11774959
      2.52000000	    110.53730681	    -13.93155750	     15.63239938	     36.42246595	    304.76920886	   -316.57178659	     57.74149717	     23.86233132	      4.19280401	     18.84643037	     -3.69828499	     18.68317736	      5.31185557	      6.27184788	      0.30456509	    -27.08129398	     -0.35679687	      9.23511190
      2.53000000	    110.77664406	     -0.36637037	     17.37639526	     15.01814235	    304.67234499	   -326.26070311	     59.35967438	     26.23105468	     -4.66318323	     18.41261551	     -3.28027528	     15.04144027	      1.74346525	      4.99781460	      0.16914774	    -27.88003327	     -0.37525077	      9.34791847
      2.54000000	    109.75829048	     14.09127598	     19.04331777	     -7.44455817	    302.08964626	   -335.09131302	     60.15488669	     28.39332492	    -14.63042045	     17.76250993	     -2.88046792	     11.45969038	     -2.56040434	      3.63122051	      0.00412281	    -28.63388645	     -0.39362798	      9.45472490
      2.55000000	    107.22973045	     27.97984402	     20.50497683	    -28.70186705	    296.61376296	   -342.35787704	     59.77032211	     30.13252495	    -25.06203897	     16.83023592	     -2.62295042	      8.62298492	     -7.40023158	      2.42977157	     -0.18286263	    -29.31732532	     -0.40634934	      9.55263536
      2.56000000	    103.07809915	     39.86529400	     21.59278613	    -46.64039007	    288.09846072	   -347.39341637	     57.93914523	     31.21146146	    -35.21798432	     15.62102580	     -2.60859828	      7.12635822	    -12.49715647	      1.63837050	     -0.38119051	    -29.90239930	     -0.40760015	      9.63529807
      2.57000000	     97.42694148	     48.54413018	     22.12886450	    -59.59423647	    276.81957548	   -349.62975566	     54.57314471	     31.42992559	    -44.35310864	     14.24110467	     -2.90181173	      7.38096792	    -17.51930175	      1.45350422	     -0.57808367	    -30.36028571	     -0.39296001	      9.69177942
      2.58000000	     90.69632811	     53.24523486	     21.97376599	    -66.63803382	    263.56390904	   -348.63179464	     49.82426989	     30.69199780	    -51.82763463	     12.90741114	     -3.52318334	      9.53634545	    -22.12596499	      1.99406144	     -0.76010871	    -30.65981662	     -0.36119979	      9.70786006
      2.59000000	     83.58430599	     53.76261699	     21.07005606	    -67.76569201	    249.58613708	   -344.08142458	     44.08537077	     29.05310511	    -57.20179316	     11.92784761	     -4.45101692	     13.44039976	    -26.01687260	      3.28252861	     -0.91496414	    -30.76738360	     -0.31519176	      9.66822052
      2.60000000	     76.95571650	     50.46063784	     19.45490376	    -63.86729979	    236.41224213	   -335.71196159	     37.91493650	     26.71761795	    -60.27747284	     11.65627000	     -5.63325348	     18.65603345	    -28.96955463	      5.24388067	     -1.03276438	    -30.64698549	     -0.26108965	      9.56010645
      2.61000000	     71.66081566	     44.16543868	     17.23411345	    -56.52705141	    225.53765705	   -323.24135696	     31.90877435	     23.98383881	    -61.08452431	     12.42761028	     -7.00458042	     24.52626834	    -30.85655421	      7.71794377	     -1.10654473	    -30.26193490	     -0.20618186	      9.37592644
      2.62000000	     68.34500995	     35.98316936	     14.53600039	    -47.70203765	    218.12387421	   -306.35140183	     26.56905974	     21.16290945	    -59.83180607	     14.48683608	     -8.50251445	     30.27968258	    -31.64304281	     10.48391754	     -1.13236703	    -29.57434809	     -0.15656180	      9.11453290
      2.63000000	     67.31929531	     27.09030470	     11.47269342	    -39.33589023	    214.80089790	   -284.74055899	     22.21874873	     18.50862953	    -56.84311056	     17.93235376	    -10.07879474	     35.15927556	    -31.37003009	     13.28928464	     -1.10938081	    -28.54802283	     -0.11557082	      8.78290565
      2.64000000	     68.20444915	     20.81621299	      8.24376749	    -29.64728009	    217.80211364	   -276.60904771	     19.85655777	     16.76845500	    -54.92504762	     22.68089027	    -11.70260715	     38.56405969	    -30.11364570	     15.88671901	     -1.72766430	    -27.15138980	      0.46824383	      8.39210525
      2.65000000	     70.30615294	     16.37834860	      4.67182207	    -22.76923956	    223.89678764	   -266.97926296	     18.23210846	     15.25237165	    -52.83014187	     28.46799512	    -13.35297960	     40.17021495	    -28.31743704	     18.07090673	     -2.49960445	    -25.36309564	      1.07894846	      7.95466144
      2.66000000	     73.31571261	     13.99049874	      0.98181213	    -17.63309190	    233.33869016	   -261.07006108	     17.76548009	     14.14261794	    -50.82287507	     34.87660672	    -14.99983492	     40.01035135	    -25.59005340	     19.70981447	     -3.28989148	    -23.18209553	      1.77896779	      7.47882292
      2.67000000	     76.58407849	     13.30639304	     -2.64366299	    -13.44572652	    245.11056272	   -260.07304007	     18.36223940	     13.36581310	    -48.97012264	     41.39429648	    -16.57913861	     38.48176832	    -21.91593625	     20.76455418	     -4.14089241	    -20.63496298	      2.53371319	      6.96865712
      2.68000000	     79.54926206	     13.49388212	     -5.94964011	     -9.04060014	    258.03635735	   -264.23649532	     19.92283247	     12.84145615	    -47.13391172	     47.47700957	    -17.97086482	     36.24763096	    -17.31699869	     21.27916101	     -5.13401146	    -17.78409435	      3.30259135	      6.42138275
      2.69000000	     81.81841592	     13.38743979	     -8.65231119	     -3.19281630	    270.86457037	   -272.39877839	     22.33186803	     12.50524349	    -44.95513118	     52.61277140	    -18.99507669	     34.06404748	    -11.88240855	     21.35448931	     -6.37391868	    -14.72996052	      4.05093346	      5.82830815
      2.70000000	     83.23617771	     11.95110827	    -10.46981377	      5.08311322	    282.60147599	   -283.20114752	     25.56563632	     12.36406156	    -42.11203220	     56.36913624	    -19.43238999	     32.57529916	     -5.80005068	     21.10724741	     -7.95257260	    -11.61112650	      4.77932116	      5.17884459
      2.71000000	     83.86445695	      8.92748512	    -11.13022659	     15.82998964	    292.72241068	   -296.38584551	     29.75696077	     12.49329266	    -38.78032978	     58.42574026	    -19.06972104	     32.14745279	      0.54681281	     20.63517569	     -9.89555463	     -8.59502700	      5.51406924	      4.46903854
      2.72000000	     83.83219977	      4.81937355	    -10.46696049	     27.87477642	    300.88007287	   -311.90535486	     35.00323615	     12.91037930	    -35.52188249	     58.60138468	    -17.76062211	     32.79218635	      6.61964614	     20.00116037	    -12.13687135	     -5.85638875	      6.26562676	      3.70899034
      2.73000000	     83.16199442	      0.54163697	     -8.51994049	     39.24282850	    306.60685461	   -329.20359421	     41.15658476	     13.48538546	    -32.95889793	     56.87634731	    -15.48061621	     34.19766863	     11.86575833	     19.24038899	    -14.54319530	     -3.54603367	      7.01945571	      2.92525686
      2.74000000	     81.80882715	     -2.88513859	     -5.51781749	     47.70300363	    309.39944251	   -346.91087905	     47.84674185	     13.99508076	    -31.53928804	     53.39993005	    -12.35725597	     35.81226038	     15.81721585	     18.36085590	    -16.94867086	     -1.76011537	      7.73881123	      2.15946146
      2.75000000	     79.78581901	     -4.55468557	     -1.80391195	     51.31847669	    308.98980057	   -363.13994739	     54.63701143	     14.22020653	    -31.46319215	     48.47554373	     -8.65882896	     36.99316831	     18.14266895	     17.35203153	    -19.19205941	     -0.52129270	      8.37966519	      1.45861596
      2.76000000	     77.16525428	     -3.88124581	      2.21640384	     48.90551060	    305.39360468	   -375.96807489	     61.07514951	     13.99470948	    -32.67012882	     42.52418907	     -4.74221297	     37.18593278	     18.69257925	     16.21136745	    -21.13812132	      0.22058682	      8.90276463	      0.86264260
      2.77000000	     74.38680151	     -1.72511677	      6.05676107	     43.22132409	    299.94568017	   -379.85674892	     66.70716379	     13.23546089	    -34.88417948	     36.53997287	     -1.05993075	     36.99528345	     17.51030205	     14.79293691	    -22.69320085	      0.98357394	      9.27742494	      0.10789202
      2.78000000	     70.74478214	      3.78277735	      9.58326944	     26.77595059	    290.03443874	   -386.98094653	     71.13670321	     11.96044515	    -37.68598183	     29.57282827	      2.42576028	     34.39882757	     14.81658181	     14.35617096	    -23.80787222	      0.96177311	      9.48478326	      0.06340058
      2.79000000	     66.86020539	     11.27653140	     12.35016314	      6.69071772	    278.54770798	   -385.95478054	     74.08880666	     10.28473318	    -40.59114255	     23.15218655	      5.10644344	     30.20369697	     10.96920430	     13.48049065	    -24.47755669	      0.90416183	      9.52196758	      0.02070118
      2.80000000	     62.88147044	     20.07430521	     14.21677109	    -15.48538126	    266.10376106	   -378.15853412	     75.45160240	      8.39377210	    -43.11994803	     17.54902529	      6.88626648	     24.60878989	      6.41254331	     12.24578463	    -24.73243027	      0.81545588	      9.39941711	     -0.01733250
      2.81000000	     58.97151083	     29.36287631	     15.15890479	    -37.96657007	    253.35748496	   -365.53096125	     75.28827923	      6.50451418	    -44.85029288	     12.90360349	      7.79167192	     17.94938861	      1.61863258	     10.77246148	    -24.62942497	      0.70312509	      9.14042563	     -0.04860001
      2.82000000	     55.28975341	     38.28552824	     15.24266473	    -58.92063174	    240.92744508	   -350.24583367	     73.81496130	      4.82290088	    -45.45365326	      9.22689609	      7.94209151	     10.65795347	     -2.96927218	      9.20451711	    -24.24185554	      0.57649657	      8.77587560	     -0.07189227
      2.83000000	     51.96700090	     46.03584338	     14.59084380	    -76.66362799	    229.32467312	   -334.39446742	     71.35177542	      3.50595048	    -44.72407311	      6.42301729	      7.50971852	      3.22071027	     -6.98581495	      7.69120032	    -23.65105518	      0.44562099	      8.33883468	     -0.08688277
      2.84000000	     49.08864573	     51.94727160	     13.35193649	    -89.84627750	    218.91642765	   -319.72249947	     68.26512549	      2.63776108	    -42.59411152	      4.32742018	      6.67963230	     -3.87218227	    -10.17542697	      6.36829850	    -22.93760604	      0.32004002	      7.86301562	     -0.09401783
      2.85000000	     46.69881641	     55.57527023	     11.67981382	    -97.61658978	    209.93076579	   -307.46650597	     64.92280029	      2.22435793	    -39.13879936	      2.75072377	      5.61970814	    -10.18411584	    -12.40758117	      5.33966430	    -22.17772368	      0.20768903	      7.37761392	     -0.09434817
      2.86000000	     44.80579886	     56.76012989	      9.72350686	    -99.73783388	    202.48581157	   -298.30519054	     61.65112144	      2.20248048	    -34.56563117	      1.51927101	      4.46511116	    -15.39211270	    -13.67263883	      4.66052961	    -21.43959327	      0.11401188	      6.90904103	     -0.08931925
      2.87000000	     43.39535171	     55.65222476	      7.62349783	    -96.62357379	    196.62396586	   -292.40257906	     58.70615685	      2.45981552	    -29.18691706	      0.50751380	      3.31709190	    -19.33561251	    -14.06278999	      4.32592051	    -20.78271349	      0.04136725	      6.47823851	     -0.08052635
      2.88000000	     42.43548795	     52.68753530	      5.51159367	    -89.27113197	    192.33503773	   -289.50556174	     56.24848985	      2.86041764	    -23.37688760	     -0.34216590	      2.25200093	    -22.03997271	    -13.74045180	      4.26688794	    -20.25572366	     -0.01113133	      6.10134420	     -0.06947285
      2.89000000	     41.87885759	     48.51472236	      3.51203963	    -79.09585073	    189.56833312	   -289.08129558	     54.33226754	      3.26987863	    -17.52241046	     -1.01388187	      1.33440993	    -23.70452700	    -12.90281429	      4.35643404	    -19.89590210	     -0.04722678	      5.78822601	     -0.05738787
      2.90000000	     41.67285502	     43.88586257	      1.74227866	    -67.69532559	    188.25773357	   -290.45941763	     52.91430811	      3.57635046	    -11.97704416	     -1.42254104	      0.62823919	    -24.65343585	    -11.75081399	      4.42581125	    -19.72888004	     -0.07257648	      5.54299895	     -0.04512632
      2.91000000	     41.78565788	     39.53993007	      0.31098772	    -56.60639365	    188.36474516	   -292.93418253	     51.88459950	      3.70296767	     -7.02712960	     -1.42204658	      0.20191975	    -25.26382601	    -10.46953772	      4.28825234	    -19.76919001	     -0.09353219	      5.36534987	     -0.03312167
      2.92000000	     42.23470003	     36.09437477	     -0.68665186	    -47.09801412	    189.91709360	   -295.83433236	     51.10192957	      3.61124851	     -2.86547388	     -0.81530259	      0.12750427	    -25.88994053	     -9.21382290	      3.76625744	    -20.02052826	     -0.11600813	      5.25144788	     -0.02135160
      2.93000000	     43.10945013	     33.95578684	     -1.17313085	    -40.01549415	    193.03176953	   -298.56128633	     50.42710087	      3.29847488	      0.42567275	      0.63073629	      0.47667344	    -26.79392327	     -8.09975049	      2.72037715	    -20.47686826	     -0.14458863	      5.19386719	     -0.00932136
      2.94000000	     44.58189377	     33.25129557	     -1.09277912	    -35.67198235	    197.91956698	   -300.60659070	     49.75249762	      2.79234859	      2.88851979	      3.15788370	      1.31614096	    -28.09313253	     -7.19946919	      1.07637519	    -21.12457398	     -0.18192456	      5.18300523	      0.00389292
      2.95000000	     46.89518550	     33.79086019	     -0.41880474	    -33.80054944	    204.85948939	   -301.56442939	     49.02733055	      2.14409693	      4.70121696	      6.97114177	      2.70189552	    -29.73626539	     -6.53734798	     -1.15468643	    -21.94421778	     -0.22847662	      5.20916542	      0.01948866
      2.96000000	     50.31900241	     35.07140455	      0.83410919	    -33.58532433	    214.12749493	   -301.15869458	     48.27257916	      1.42119943	      6.18282800	     12.17531634	      4.66873664	    -31.51692621	     -6.08511743	     -3.86935501	    -22.91081991	     -0.28258990	      5.26222387	      0.03861771
      2.97000000	     55.06836597	     36.33931335	      2.59000489	    -33.79102826	    225.88213693	   -299.27034753	     47.57693311	      0.69781635	      7.77493631	     18.70580562	      7.21144719	    -33.12471227	     -5.76239593	     -6.88196524	    -23.99437307	     -0.34083854	      5.33217019	      0.06191296
      2.98000000	     61.20753483	     36.70086633	      4.68741873	    -32.97417612	    240.03666916	   -295.95443945	     47.07364687	      0.04395457	      9.99882314	     26.27691716	     10.25910905	    -34.22045700	     -5.44287926	     -9.95181621	    -25.16097663	     -0.39860027	      5.40736583	      0.08900738
      2.99000000	     68.57196736	     35.25681820	      6.86167536	    -29.73546009	    256.16876217	   -291.41598169	     46.89832323	     -0.48537165	     13.39150789	     34.37494418	     13.65272670	    -34.51197666	     -4.96634861	    -12.82134379	    -26.37237659	     -0.45077295	      5.47434073	      0.11827673
      3.00000000	     76.74212238	     31.24623615	      8.75216032	    -22.98464728	    273.50549405	   -285.95122466	     47.13788252	     -0.86028154	     18.41976328	     42.31423618	     17.14205326	    -33.80991978	     -4.16025558	    -15.25618857	    -27.58726607	     -0.49247108	      5.51890186	      0.14697168
      3.01000000	     85.07968039	     24.17896858	      9.95308323	    -12.18311952	    290.98203612	   -279.86012861	     47.77573501	     -1.08207122	     25.38159360	     49.35418793	     20.41522309	    -32.05271291	     -2.86514779	    -17.07733835	    -28.76053532	     -0.51952578	      5.52568473	      0.17174983
      3.02000000	     92.81577509	     13.93352924	     10.10964225	      2.50145313	    307.35767282	   -273.33174167	     48.64479993	     -1.18199958	     34.30803669	     54.84908301	     23.16209891	    -29.29497871	     -0.96382643	    -18.17601851	    -29.84263962	     -0.52868386	      5.48053703	      0.18947524
      3.03000000	     99.17443635	      0.78375678	      9.03214498	     20.20382736	    321.36318122	   -266.32627553	     49.41556929	     -1.20878053	     44.90366367	     58.38231000	     25.15186466	    -25.66437556	      1.59629802	    -18.50779023	    -30.77678759	     -0.51761142	      5.37121044	      0.19806217
      3.04000000	    103.48979847	    -14.64934983	      6.78350965	     39.54264727	    331.84176788	   -258.51308095	     49.62920054	     -1.20642879	     56.55004121	     59.83873145	     26.29158779	    -21.30939047	      4.79279195	    -18.07330138	    -31.49721626	     -0.48492158	      5.19101673	      0.19707423
      3.05000000	    105.29617913	    -31.48923064	      3.70040332	     58.90349355	    337.86388800	   -249.29459100	     48.78155207	     -1.19196442	     68.37374426	     59.39574387	     26.63883997	    -16.36423518	      8.52748755	    -16.89926399	    -31.92938605	     -0.43030379	      4.94100292	      0.18781958
      3.06000000	    104.38284221	    -48.71157513	      0.33091649	     76.73764719	    338.82216665	   -237.93008754	     46.44135142	     -1.14441797	     79.36943813	     57.44524901	     26.36325561	    -10.94270721	     12.63347666	    -15.02986394	    -31.99264642	     -0.35476469	      4.63249977	      0.17290157
      3.07000000	    100.82633157	    -65.25150779	     -2.69867866	     91.80408465	    334.52318795	   -223.72480792	     42.38000083	     -1.01311796	     88.56056195	     54.48000232	     25.67520670	     -5.15777356	     16.88834737	    -12.53123873	    -31.60547960	     -0.26098716	      4.28600284	      0.15544172
      3.08000000	     95.00206795	    -80.08906110	     -4.84535545	    103.29457624	    325.27047201	   -206.21118427	     36.67484430	     -0.74706133	     95.15441797	     50.98467290	     24.75395658	      0.84613333	     21.02771586	     -9.50429883	    -30.69330228	     -0.15361121	      3.92711106	      0.13827914
      3.09000000	     87.56348646	    -92.31134823	     -5.78329561	    110.83639002	    311.90791460	   -185.26646633	     29.74498028	     -0.33333329	     98.65136891	     47.36266239	     23.70532215	      6.86671752	     24.75925802	     -6.09653523	    -29.20055304	     -0.03915475	      3.58213207	      0.12340396
      3.10000000	     79.38413792	   -101.14978032	     -5.46709295	    114.39585189	    295.78891119	   -161.13537455	     22.30834582	      0.17364403	     98.87707610	     43.91003420	     22.56119883	     12.63766922	     27.77619720	     -2.50483361	    -27.10780355	      0.07446981	      3.27023182	      0.11177692
      3.11000000	     71.44772442	   -105.98628450	     -4.10361852	    114.10335818	    278.63983652	   -134.38394154	     15.25995246	      0.65314209	     95.92514139	     40.82863634	     21.31167872	     17.84237212	     29.77324895	      1.03216458	    -24.44680215	      0.17870322	      2.99951846	      0.10349708
      3.12000000	     64.70737903	   -106.33791850	     -2.05440935	    110.05730548	    262.32883457	   -105.84206279	      9.51207839	      0.95431432	     90.04243179	     38.25709086	     19.94824072	     22.13941095	     30.46672670	      4.24991206	    -21.31421687	      0.26522884	      2.76330599	      0.09811779
      3.13000000	     59.94772107	   -101.86182273	      0.28290806	    102.19200529	    248.61032123	    -76.59195413	      5.83849709	      0.95323374	     81.52480955	     36.29605192	     18.49804841	     25.19677806	     29.63130048	      6.88130752	    -17.87354868	      0.32687576	      2.54482370	      0.09493995
      3.14000000	     57.68487353	    -92.37884029	      2.57459642	     90.23801246	    238.89415537	    -47.98049980	      4.76448107	      0.60678809	     70.64813476	     35.01411888	     17.03794062	     26.73255670	     27.14091165	      8.68693872	    -14.34027389	      0.35836423	      2.32108274	      0.09323345
      3.15000000	     58.10231254	    -77.95357838	      4.60387691	     73.85037899	    234.05924264	    -21.61769542	      6.49120969	     -0.01384676	     57.68069103	     34.43312913	     15.68549296	     26.55662812	     23.01884769	      9.48943250	    -10.95093988	      0.35681222	      2.07184055	      0.09237870
      3.16000000	     61.03381739	    -59.00381972	      6.27071611	     52.84713319	    234.33374923	      0.67535545	     10.87071768	     -0.72870050	     42.96177667	     34.50088010	     14.57212821	     24.60638682	     17.48227068	      9.20664150	     -7.92423525	      0.32204963	      1.78464584	      0.09191272
      3.17000000	     65.96625228	    -36.37912505	      7.56236050	     27.45655278	    239.21677698	     17.06086787	     17.41212964	     -1.28828877	     26.98605678	     35.06451266	     13.80849793	     20.96642233	     10.95396688	      7.87531982	     -5.42180600	      0.25677742	      1.46072984	      0.09147944
      3.18000000	     72.06875161	    -11.35779298	      8.51328261	     -1.52879133	    247.46096096	     26.02717586	     25.32876060	     -1.43641371	     10.44747633	     35.85691480	     13.45377872	     15.86369598	      4.02356997	      5.65664559	     -3.52119393	      0.16652993	      1.11653188	      0.09071000
      3.19000000	     78.27122466	     14.44563288	      9.16248664	    -32.73179933	    257.17298781	     26.78126035	     33.63824964	     -0.98492314	     -5.77132810	     36.50666972	     13.49872732	      9.63930953	     -2.63623993	      2.81935819	     -2.20846239	      0.05934376	      0.77820342	      0.08909772
