Inverse Dynamics Generalized Forces
version=1
nRows=252
nColumns=19
inDegrees=no
endheader
time	pelvis_obliquity_moment	pelvis_rotation_moment	pelvis_tilt_moment	pelvis_to_ground_tx_force	pelvis_to_ground_ty_force	pelvis_to_ground_tz_force	left_hip_abduction_moment	left_hip_rotation_moment	left_hip_flexion_moment	right_hip_abduction_moment	right_hip_rotation_moment	right_hip_flexion_moment	left_knee_flexion_moment	right_knee_flexion_moment	left_ankle_flexion_moment	right_ankle_flexion_moment	left_subtalar_angle_moment	right_subtalar_angle_moment
      1.58000000	     72.84262725	      4.88308326	     -1.58589216	    -29.77756397	    243.53583167	    145.40392483	     31.94734530	     11.86775019	     -4.38081882	     25.75950082	     -2.62499141	      4.38156435	    -10.19091004	      2.03536428	      0.10911006	      0.04645932	     -0.21496158	      0.04305662
      1.59000000	     73.00985593	      9.39018145	      1.05781735	    -44.74811363	    240.87161871	    114.17804855	     36.97743096	     12.32380371	     -7.17055677	     21.03936186	     -1.24733181	      4.28984976	    -11.71623043	      2.37270754	      0.05149107	      0.03270863	     -0.23423487	      0.03973276
      1.60000000	     72.62032520	     12.15169452	      2.75916230	    -55.60916072	    237.13100911	     83.02784198	     40.95034389	     12.32965799	     -8.65049018	     16.98483648	     -0.10384388	      4.54976720	    -12.72197180	      2.95427759	      0.00595498	      0.02552923	     -0.25041945	      0.03735677
      1.61000000	     72.02678285	     11.91353506	      3.57647215	    -59.49857927	    233.13722815	     53.10330574	     43.76222822	     12.02483823	     -8.27705405	     13.65319541	      0.84653766	      5.74364089	    -13.03749578	      3.95490966	     -0.02139892	      0.02977132	     -0.26398877	      0.03524453
      1.62000000	     71.59458449	      8.05221720	      3.65173740	    -54.81517061	    229.80721205	     25.29439485	     45.42703512	     11.53405060	     -5.80089258	     11.00401127	      1.65911129	      8.17777500	    -12.58512005	      5.46068468	     -0.02740826	      0.04784624	     -0.27529010	      0.03284231
      1.63000000	     71.60394674	      0.58491144	      3.17176419	    -41.31506336	    227.91030618	      0.22817284	     46.02397212	     10.93902235	     -1.25399922	      8.94135566	      2.40373133	     11.85493631	    -11.37297233	      7.46247907	     -0.01168898	      0.07955932	     -0.28443267	      0.02981133
      1.64000000	     72.19660991	     -9.95439157	      2.33511444	    -19.90522134	    227.92150347	    -21.69938906	     45.65104008	     10.27544290	      5.11133502	      7.35933186	      3.16373577	     16.51970081	     -9.47552671	      9.86852629	      0.02388668	      0.12252143	     -0.29130686	      0.02605356
      1.65000000	     73.36993202	    -22.69245678	      1.33023166	      7.70829471	    229.98501101	    -40.28756229	     44.39781435	      9.54771262	     12.89516248	      6.17983163	      4.03214281	     21.74420026	     -7.01319255	     12.52628060	      0.07567659	      0.17292248	     -0.29571051	      0.02168295
      1.66000000	     75.01137739	    -36.59780078	      0.32258327	     39.40620225	    233.97538034	    -55.50009885	     42.34016175	      8.75037299	     21.61692928	      5.37852377	      5.10408236	     27.02922756	     -4.13541123	     15.24749345	      0.13869548	      0.22638461	     -0.29750312	      0.01697956
      1.67000000	     76.96247081	    -50.63688544	     -0.55322780	     73.00243534	    239.63073299	    -67.43192721	     39.55420639	      7.88637688	     30.77323373	      4.99865428	      6.46626361	     31.90101435	     -1.00697516	     17.83264871	      0.20720330	      0.27857551	     -0.29667964	      0.01237066
      1.68000000	     79.08980626	    -63.87927985	     -1.19768796	    106.48143433	    246.70485428	    -76.26547788	     36.14269662	      6.97616485	     39.88303000	      5.15012999	      8.18563217	     35.98055128	      2.20233754	     20.08973001	      0.27540279	      0.32550086	     -0.29334634	      0.00843726
      1.69000000	     81.33068302	    -75.53531028	     -1.54752480	    138.08106307	    255.06083845	    -82.22364382	     32.26030602	      6.05601140	     48.51598361	      5.99147117	     10.29828134	     39.00581428	      5.32437159	     21.84323450	      0.33792584	      0.36365145	     -0.28767818	      0.00591076
      1.70000000	     83.69511557	    -84.94510280	     -1.57771408	    166.25578220	    264.66050373	    -85.53815924	     28.12393603	      5.16847742	     56.30932789	      7.69727835	     12.79782294	     40.80935358	      8.19850936	     22.93577666	      0.39007215	      0.39010389	     -0.27992116	      0.00563767
      1.71000000	     86.22970677	    -91.55948623	     -1.30917700	    189.60983930	    275.46139018	    -86.44816310	     24.00254394	      4.34989693	     62.98404425	     10.41608788	     15.62207353	     41.27314382	     10.68119909	     23.22905260	      0.42806244	      0.40250541	     -0.27043127	      0.00849521
      1.72000000	     88.95859834	    -94.94068520	     -0.82291010	    206.87579416	    287.26271098	    -85.22692036	     20.19028099	      3.61925743	     68.36245486	     14.22135996	     18.63807529	     40.28511423	     12.65921414	     22.60918099	      0.44941418	      0.39892841	     -0.25972087	      0.01523026
      1.73000000	     91.81779435	    -94.79419021	     -0.27544098	    216.98269051	    299.55180730	    -82.21313575	     16.97130869	      2.97152733	     72.38106276	     19.05739877	     21.62857659	     37.71882574	     14.06286123	     20.99816575	      0.45330833	      0.37774210	     -0.24850574	      0.02621142
      1.74000000	     94.59981250	    -91.03406266	      0.09533809	    219.22751719	    311.40777325	    -77.80878293	     14.58258558	      2.37735445	     75.09117680	     24.68709285	     24.28858874	     33.45360285	     14.87490108	     18.37095707	      0.44077355	      0.33773759	     -0.23772918	      0.04114426
      1.75000000	     96.93314003	    -83.87478108	     -0.01319708	    213.52148435	    321.52582251	    -72.40994985	     13.17897343	      1.78982739	     76.64537442	     30.65997175	     26.24593564	     27.44316078	     15.13305405	     14.77639241	      0.41461430	      0.27866499	     -0.22853713	      0.05886654
      1.76000000	     98.32700053	    -73.92515027	     -0.92117741	    200.62808826	    328.41543865	    -66.26780588	     12.80777057	      1.15679794	     77.27508596	     36.32823351	     27.11923446	     19.82168313	     14.92624994	     10.35885333	      0.37913298	      0.20207501	     -0.22222911	      0.07735696
      1.77000000	     98.28767847	    -62.22793489	     -2.88740808	    182.25268531	    330.75001116	    -59.33146042	     13.39681729	      0.43521086	     77.25825076	     40.93426211	     26.61460913	     11.00561964	     14.38420439	      5.37309893	      0.33969033	      0.11209121	     -0.22016629	      0.09403747
      1.78000000	     96.47515408	    -50.18469962	     -6.01132821	    160.87070613	    327.75756222	    -51.16807375	     14.75615094	     -0.39597241	     76.87425026	     43.76964180	     24.63912561	      1.73142930	     13.66023433	      0.18184513	      0.30211683	      0.01570091	     -0.22357961	      0.10634090
      1.79000000	     92.84955366	    -39.35699932	    -10.15063504	    139.31978624	    319.51729888	    -41.03982353	     16.59708109	     -1.32707972	     76.36103797	     44.36600300	     21.38572839	     -7.01183270	     12.91116590	     -4.77078318	      0.27206644	     -0.07768610	     -0.23333822	      0.11237530
      1.80000000	     87.74691814	    -31.18806156	    -14.90046668	    120.28701065	    307.04053541	    -28.14473817	     18.57247097	     -2.31646404	     75.89023133	     42.64616339	     17.33869078	    -14.15455469	     12.27837637	     -9.01102402	      0.25441321	     -0.15747056	     -0.24977884	      0.11143070
      1.81000000	     84.89182233	    -24.95021624	    -18.56576496	    112.61578649	    296.02785424	    -35.80132804	     20.33599849	     -3.29910070	     75.55672200	     41.19906762	     13.88938058	    -19.80808986	     11.86979811	    -10.86400038	      0.25269047	     -2.56436723	     -0.27260626	      0.98415879
      1.82000000	     80.50505121	    -21.99389714	    -22.40533063	    107.49359339	    281.78492762	    -37.95716194	     21.61080415	     -4.20391970	     75.37197294	     37.68181875	     10.16984049	    -23.55816810	     11.74213793	    -11.99159405	      0.26856148	     -4.36769305	     -0.30084196	      1.54464323
      1.83000000	     77.16749153	    -22.23264559	    -25.12324377	    108.66941051	    268.88451226	    -44.31618251	     22.24945123	     -4.97372570	     75.25495121	     33.86844413	      7.40793952	    -24.78326148	     11.88594344	    -11.21950139	      0.30139839	     -6.40306913	     -0.33280703	      2.11726307
      1.84000000	     75.29916144	    -24.82345407	    -26.47897124	    114.72516447	    258.40991672	    -55.70931282	     22.26604213	     -5.57875424	     75.02394716	     30.36448915	      5.81276122	    -23.87131751	     12.21880933	     -8.63453291	      0.34808760	     -8.66744256	     -0.36614426	      2.68361067
      1.85000000	     74.92467710	    -28.51430456	    -26.49853489	    123.18122138	    250.69481695	    -72.11324883	     21.82842567	     -6.01681612	     74.40129540	     27.52972700	      5.31223837	    -21.54046689	     12.59226755	     -4.59664608	      0.40315769	    -11.13867926	     -0.39789892	      3.23028731
      1.86000000	     75.82915074	    -31.93607263	    -25.37399795	    131.11641892	    245.62620393	    -92.68612555	     21.21007571	     -6.29977127	     73.04480473	     25.51435537	      5.68627275	    -18.59137767	     12.81567962	      0.39368991	      0.45932647	    -13.76459002	     -0.42469969	      3.74884591
      1.87000000	     77.73252707	    -33.90383488	    -23.36310338	    135.86395774	    242.97538457	   -116.09960601	     20.71422242	     -6.43422205	     70.61211383	     24.32900565	      6.69075491	    -15.68298459	     12.69547073	      5.83677662	      0.50851970	    -16.46284930	     -0.44310340	      4.22447533
      1.88000000	     80.21761242	    -33.41535103	    -20.79241933	    135.01394187	    242.28957493	   -140.49892471	     20.58989246	     -6.40763058	     66.84699619	     23.87710399	      8.06319174	    -13.45671887	     12.08143680	     11.14426433	      0.54323859	    -19.10827611	     -0.45010058	      4.62588481
      1.89000000	     82.79153043	    -29.73320012	    -18.00691369	    126.66606085	    242.96918617	   -163.84908718	     20.95950408	     -6.18715135	     61.65821245	     24.03222780	      9.57814727	    -12.53617041	     10.90688818	     15.67380565	      0.55795214	    -21.53801307	     -0.44363411	      4.91517294
      1.90000000	     85.05431568	    -22.61377293	    -15.28089473	    109.98834867	    244.51663886	   -184.54320709	     21.77551219	     -5.73105400	     55.15853345	     24.70797086	     11.11676731	    -13.31918041	      9.20970903	     18.90736707	      0.55011756	    -23.58697273	     -0.42290894	      5.06375484
      1.91000000	     86.70319618	    -12.37714297	    -12.79198778	     85.34461727	    246.52475702	   -201.48290835	     22.82508572	     -5.00904705	     47.65820965	     25.84506991	     12.64741053	    -15.89674643	      7.12883146	     20.51476131	      0.52057209	    -25.11078775	     -0.38841877	      5.05757315
      1.92000000	     87.52568746	      0.10783675	    -10.62982665	     54.27170871	    248.65045774	   -213.95215542	     23.79519873	     -4.02728800	     39.63567583	     27.37961769	     14.17450592	    -20.01898236	      4.88031052	     20.38190156	      0.47330120	    -25.99826744	     -0.34185149	      4.90266365
      1.93000000	     87.39515808	     13.52085248	     -8.83365854	     19.35682646	    250.60453335	   -221.56320634	     24.37961064	     -2.84791386	     31.69488051	     29.19781801	     15.67325575	    -25.12849128	      2.72125612	     18.61191029	      0.41473015	    -26.18697617	     -0.28599395	      4.62162156
      1.94000000	     86.25575256	     26.28100592	     -7.42790775	    -16.05133556	    252.10736095	   -224.30407627	     24.38109194	     -1.58811129	     24.49305474	     31.09728095	     17.04088341	    -30.46518982	      0.90872875	     15.49772391	      0.35267106	    -25.67299273	     -0.22453550	      4.25120312
      1.95000000	     84.09543747	     36.79421216	     -6.43297256	    -48.29524494	    252.84982267	   -222.57802454	     23.77425128	     -0.39364613	     18.63896430	     32.76468564	     18.08695181	    -35.20383601	     -0.33996050	     11.46797025	      0.29508817	    -24.51317158	     -0.16172719	      3.83060397
      1.96000000	     80.96303020	     43.69525872	     -5.85376615	    -73.92810161	    252.54831135	   -217.18605631	     22.72387154	      0.60293679	     14.59138817	     33.80651171	     18.57330183	    -38.57212213	     -0.87918985	      7.02718874	      0.24892239	    -22.81274046	     -0.10206344	      3.39411422
      1.97000000	     77.01374291	     46.05373281	     -5.66097678	    -90.23034570	    251.07694618	   -209.26925089	     21.56009272	      1.32508068	     12.58167319	     33.82290292	     18.28368539	    -39.94825723	     -0.65538810	      2.68873974	      0.21913672	    -20.71008471	     -0.05003395	      2.96441183
      1.98000000	     72.54390453	     43.52743662	     -5.77285818	    -95.65815446	    248.57797232	   -200.21417581	     20.71196441	      1.78307233	     12.56930642	     32.50417215	     17.09773184	    -38.94386061	      0.28529961	     -1.09721145	      0.20804105	    -18.36296445	     -0.00979526	      2.55382517
      1.99000000	     67.98265630	     36.41395955	     -6.04761529	    -90.10284650	    245.48529863	   -191.49596942	     20.61627031	      2.08102487	     14.24203701	     29.71147371	     15.03921722	    -35.44829275	      1.80268917	     -4.00015517	      0.21501685	    -15.93058189	      0.01524834	      2.16623994
      2.00000000	     63.83999533	     25.59385796	     -6.29369230	    -74.88118915	    242.45333810	   -184.45947449	     21.62536635	      2.39534002	     17.06334947	     25.52697762	     12.28364895	    -29.63296087	      3.68042655	     -5.84461329	      0.23673055	    -13.55885668	      0.02283210	      1.80263224
      2.01000000	     60.61739366	     12.39023072	     -6.29582578	    -52.47095972	    240.20410018	   -180.06904986	     23.93023187	      2.93082250	     20.35065423	     20.26371065	      9.12495646	    -21.92154957	      5.65168613	     -6.62001228	      0.26772588	    -11.37066952	      0.01214997	      1.46644740
      2.02000000	     58.70493076	     -1.63181574	     -5.85382929	    -26.05403117	    239.33072578	   -178.73460087	     27.51104739	      3.86683225	     23.36422005	     14.42962856	      5.90902831	    -12.92321754	      7.42769705	     -6.45555820	      0.30119455	     -9.45879720	     -0.01589596	      1.16548423
      2.03000000	     58.29096385	    -14.88431998	     -4.82590654	      1.00872405	    240.11679305	   -180.27915356	     32.12556127	      5.30810188	     25.39368616	      8.64601411	      2.95600972	     -3.34593767	      8.72544250	     -5.57325132	      0.32976928	     -7.88273420	     -0.05858181	      0.90853393
      2.04000000	     59.31627728	    -25.95450068	     -3.16545693	     25.64986585	    242.43789182	   -184.05161216	     37.33794548	      7.25409272	     25.83331301	      3.54114154	      0.49675060	      6.09386468	      9.29248850	     -4.23695943	      0.34625503	     -6.67182122	     -0.11146621	      0.70141935
      2.05000000	     61.48686067	    -33.75287994	     -0.94072331	     45.41936775	    245.77856291	   -189.14057426	     42.57971160	      9.59526551	     24.23802651	     -0.35314447	     -1.35966128	     14.75411722	      8.92840670	     -2.70808442	      0.34427923	     -5.83180973	     -0.16871957	      0.54356796
      2.06000000	     64.33522035	    -37.58864520	      1.66773324	     58.61478868	    249.34710793	   -194.61570157	     47.22624943	     12.13530546	     20.35462640	     -2.67585761	     -2.62309021	     22.12601273	      7.50336648	     -1.21644499	      0.31886598	     -5.35332947	     -0.22360729	      0.42772009
      2.07000000	     67.30479112	    -37.17685609	      4.39103241	     64.24946394	    252.24291838	   -199.72530852	     50.67430409	     14.63013628	     14.12900613	     -3.27295474	     -3.39231462	     27.86490332	      4.97440836	      0.05531218	      0.26691763	     -5.21762747	     -0.26906320	      0.34066517
      2.08000000	     69.83674900	    -32.58507006	      6.90917248	     61.92212571	    253.63180614	   -203.99041241	     52.41391180	     16.83155026	      5.69219744	     -2.19386383	     -3.81226939	     31.78837535	      1.39708078	      0.97498260	      0.18757009	     -5.39905179	     -0.29834554	      0.26573233
      2.09000000	     71.44921824	    -24.13932036	      8.89326939	     51.65138938	    252.89950802	   -207.18662527	     52.09330344	     18.52567855	     -4.67169797	      0.34253677	     -4.03268493	     33.84878885	     -3.07248780	      1.45874274	      0.08239720	     -5.86271752	     -0.30578819	      0.18506696
      2.10000000	     71.80853339	    -12.32111003	     10.04935628	     33.74376889	    249.77129681	   -209.21894175	     49.57425520	     19.56231507	    -16.56641849	      4.00168974	     -4.17700339	     34.09440040	     -8.18878563	      1.46808579	     -0.04456757	     -6.55897496	     -0.28761992	      0.08304304
      2.11000000	     70.78681116	      2.30876280	     10.16485993	      8.73656871	    244.38849897	   -209.92848224	     44.96976287	     19.87523800	    -29.52391942	      8.39179971	     -4.32609448	     32.63883502	    -13.64252771	      1.00950466	     -0.18704924	     -7.41812095	     -0.24272971	     -0.05117737
      2.12000000	     68.49840750	     19.14852760	      9.15384898	    -22.60224914	    237.33277869	   -208.88206132	     38.64984520	     19.49257556	    -43.04154964	     13.12547628	     -4.51652996	     29.64714930	    -19.09843795	      0.13792688	     -0.33702826	     -8.34710656	     -0.17316613	     -0.22055038
      2.13000000	     65.29972564	     37.55874341	      7.08904884	    -59.24807232	    229.58905616	   -205.22607250	     31.20408367	     18.53321477	    -56.61407996	     17.87995722	     -4.75228808	     25.33733752	    -24.23775375	     -1.04028636	     -0.48549115	     -9.23227455	     -0.08415861	     -0.41806145
      2.14000000	     61.74042727	     56.84690042	      4.20627723	    -99.89327434	    222.43927094	   -197.67365575	     23.36341052	     17.18577748	    -69.75916948	     22.44507969	     -5.02491148	     19.98789269	    -28.79571461	     -2.37115854	     -0.62336140	     -9.94841836	      0.01646359	     -0.62681694
      2.15000000	     56.41431404	     75.84683205	     -0.08956387	   -135.78346143	    215.01059520	   -199.97704090	     14.99178924	     14.96818741	    -82.02649953	     26.74078936	     -5.33348048	     13.93392314	    -32.00810277	     -3.67217861	     -3.06661313	    -10.37476663	      0.66548673	     -0.82374923
      2.16000000	     52.16624365	     96.45811859	     -3.95342128	   -174.11087482	    212.12115396	   -201.80526253	      8.14002426	     13.48226271	    -95.08941599	     30.79359635	     -5.69348693	      7.54156415	    -35.09274584	     -4.76666280	     -5.76496105	    -10.41348868	      1.43835346	     -0.98580305
      2.17000000	     48.75979239	    116.20811576	     -7.45303374	   -209.76898139	    213.37003146	   -204.07338913	      2.90532899	     12.29014029	   -107.11462912	     34.67066257	     -6.12725814	      1.16286783	    -36.99240713	     -5.52783492	     -8.65810525	    -10.00728803	      2.17823623	     -1.09668164
      2.18000000	     46.50400518	    134.37006504	    -10.15720234	   -241.21624316	    219.22390267	   -206.88395669	     -0.16835271	     11.52997148	   -117.76471759	     38.39093972	     -6.64143042	     -4.90647153	    -37.70404773	     -5.91544291	    -11.64064609	     -9.15331403	      2.76355536	     -1.15309177
      2.19000000	     45.51515753	    150.27269383	    -11.72794460	   -267.46411131	    229.37933843	   -210.02657258	     -0.68359863	     11.26843921	   -126.68607161	     41.84710824	     -7.20410412	    -10.44807271	    -37.38445301	     -5.98787132	    -14.64517226	     -7.90932705	      3.08804354	     -1.16573442
      2.20000000	     45.69322631	    163.27650029	    -11.96301003	   -288.14036463	    242.61874664	   -212.61125174	      1.54796429	     11.48902288	   -133.46885697	     44.76551267	     -7.73493735	    -15.31656624	    -36.33474480	     -5.88356380	    -17.62238664	     -6.38983404	      3.09228314	     -1.15274809
      2.21000000	     46.67379135	    172.68102361	    -10.83990312	   -303.19360546	    256.76267510	   -213.05232398	      6.39966750	     12.07191733	   -137.58056617	     46.72405187	     -8.11799463	    -19.40996745	    -34.89975510	     -5.77386187	    -20.50027669	     -4.75243621	      2.78263996	     -1.12921781
      2.22000000	     47.80335495	    177.63135250	     -8.54153412	   -312.29872427	    268.85463026	   -209.66488512	     13.33156689	     12.79867261	   -138.34016561	     47.23809389	     -8.23538064	    -22.61769295	    -33.31949429	     -5.79532856	    -23.15936186	     -3.17187095	      2.22684016	     -1.09847833
      2.23000000	     48.37178871	    177.39221530	     -5.37419432	   -314.89177107	    275.93856053	   -201.35423166	     21.49368313	     13.46719376	   -135.25354242	     45.90164945	     -8.00648848	    -24.76116183	    -31.76936473	     -5.98148749	    -25.40874359	     -1.80461027	      1.52690693	     -1.04792678
      2.24000000	     47.86414480	    171.49698015	     -1.71429589	   -310.12399513	    275.91428750	   -188.17070093	     29.89483432	     13.95017421	   -128.21250996	     42.53299001	     -7.41337298	    -25.56084975	    -30.35247859	     -6.22589780	    -26.99988910	     -0.75781576	      0.78879104	     -0.95750790
      2.25000000	     46.13391040	    159.68578538	      2.00060011	   -296.73472822	    268.12921485	   -171.50810894	     37.56395733	     14.19260266	   -117.42538952	     37.27303297	     -6.50114396	    -24.65492118	    -29.03062566	     -6.29048341	    -27.69822279	     -0.07361844	      0.10012837	     -0.81159958
      2.26000000	     43.49543023	    141.98415426	      5.31306148	   -273.47293883	    253.61324938	   -153.69194721	     43.71183155	     14.20623383	   -103.37417277	     30.58817686	     -5.35537652	    -21.68463943	    -27.65610828	     -5.86137282	    -27.35931953	      0.27059622	     -0.48034418	     -0.61026385
      2.27000000	     40.11400779	    120.09049422	      8.03382537	   -236.56337488	    234.80452506	   -127.98053378	     47.84971545	     14.05135586	    -86.77771785	     23.31276529	     -4.06281881	    -17.56103763	    -26.04521981	     -5.95986289	    -25.98791452	      0.19440003	     -0.92222978	      0.01385727
      2.28000000	     38.31508497	     91.64804711	      9.32503600	   -195.15778959	    215.03841555	   -122.44982388	     49.84652462	     13.80551639	    -68.54407134	     15.82169242	     -2.71809189	     -9.20527201	    -24.05487172	     -2.79609490	    -23.74412879	      0.24797627	     -1.21737337	     -0.00695437
      2.29000000	     37.94532263	     60.77298398	      9.46070429	   -144.99996265	    197.87663414	   -119.79770858	     49.91016603	     13.52667801	    -49.68326275	      9.17276696	     -1.39642134	      0.72475146	    -21.63542841	      1.12307985	    -20.90334107	      0.30042093	     -1.37601495	     -0.02566188
      2.30000000	     39.55514695	     29.42288139	      8.54079434	    -89.55770501	    185.98393287	   -121.25484669	     48.48512238	     13.22405800	    -31.18501416	      3.90654223	     -0.14902051	     11.55340914	    -18.83699183	      5.58387566	    -17.78578997	      0.35072994	     -1.41873700	     -0.04003533
      2.31000000	     43.26651903	     -0.38732574	      6.82745214	    -33.03150610	    180.79520767	   -126.90770273	     46.10747975	     12.85508333	    -13.90225454	      0.31530604	      1.01453438	     22.42360863	    -15.78174188	     10.27698170	    -14.68965124	      0.39666771	     -1.37238296	     -0.04842130
      2.32000000	     48.75231021	    -26.86033583	      4.68054870	     20.35428362	    182.35665970	   -135.86713088	     43.26124588	     12.34754003	      1.52460999	     -1.55503035	      2.13013954	     32.41483719	    -12.62079627	     14.84723674	    -11.84658626	      0.43522952	     -1.26694484	     -0.05010572
      2.33000000	     55.32721764	    -48.64859606	      2.48391284	     67.04760527	    189.51850361	   -146.71619646	     40.28012284	     11.63580174	     14.69943249	     -1.85614322	      3.27485171	     40.68348686	     -9.49643532	     18.95263465	     -9.41127563	      0.46347227	     -1.13304418	     -0.04544742
      2.34000000	     62.11626586	    -65.00259714	      0.57725617	    104.67825402	    200.38562267	   -158.07063784	     37.31411296	     10.69379572	     25.47347258	     -0.86182628	      4.54952030	     46.58882079	     -6.51463558	     22.31551364	     -7.46936892	      0.47929529	     -0.99906459	     -0.03572943
      2.35000000	     68.26201840	    -75.80952123	     -0.79500022	    132.28779010	    212.88223777	   -169.02348524	     34.36434113	      9.55161909	     33.92841650	      1.11301602	      6.05062660	     49.77612797	     -3.73621172	     24.75371797	     -6.05501719	      0.48183573	     -0.88997543	     -0.02278142
      2.36000000	     73.12158736	    -81.53884453	     -1.51012573	    150.29744029	    225.28717296	   -179.33317992	     31.36088069	      8.29057577	     40.34912408	      3.78070616	      7.84224224	     50.21066873	     -1.18023293	     26.18951877	     -5.16716684	      0.47153948	     -0.82602352	     -0.00851604
      2.37000000	     76.41000580	    -83.11321801	     -1.56688558	    160.25013593	    236.61761209	   -189.33234194	     28.25200017	      7.02167040	     45.18725406	      6.92670856	      9.93975234	     48.15928401	      1.16714071	     26.63765559	     -4.77970332	      0.44999443	     -0.82334937	      0.00549474
      2.38000000	     78.25016038	    -81.69256781	     -1.06376651	    164.32084246	    246.76800323	   -199.60786036	     25.07865227	      5.85501368	     48.98958039	     10.43011569	     12.31000266	     44.11409067	      3.33138078	     26.17500926	     -4.84828090	      0.41946388	     -0.89374122	      0.01832692
      2.39000000	     79.11567673	    -78.42088142	     -0.16874947	    164.69869381	    256.37472556	   -210.60831928	     22.01103651	      4.87114254	     52.30839140	     14.25771332	     14.88291936	     38.67010221	      5.32886226	     24.90088935	     -5.31284373	      0.38221248	     -1.04443745	      0.02983472
      2.40000000	     79.68820245	    -74.22414819	      0.90483220	    163.04080808	    266.46683483	   -222.37970494	     19.33575958	      4.10331021	     55.63327004	     18.43241249	     17.56275305	     32.39137716	      7.16358248	     22.90286299	     -6.09784218	      0.33987017	     -1.27861207	      0.04056588
      2.41000000	     80.67031558	    -69.67689544	      1.90966545	    160.10945468	    278.01351749	   -234.46987395	     17.41139219	      3.52900307	     59.32835784	     22.98013940	     20.22754171	     25.70266785	      8.82572587	     20.23981701	     -7.11195622	      0.29301541	     -1.59389720	      0.05146889
      2.42000000	     82.59478546	    -64.95955222	      2.56613273	    155.68985602	    291.48683653	   -246.00458653	     16.60501894	      3.07111203	     63.58516685	     27.86455344	     22.71348048	     18.82771255	     10.29261771	     16.94390183	     -8.24875225	      0.24107755	     -1.98014805	      0.06345139
      2.43000000	     85.67124719	    -59.92080509	      2.56362987	    148.82545126	    306.55510233	   -255.88202145	     17.22013397	      2.60857401	     68.40726719	     32.92472666	     24.79361926	     11.78727125	     11.53638317	     13.03719615	     -9.39066162	      0.18262607	     -2.41955554	      0.07690253
      2.44000000	     89.71027718	    -54.24056422	      1.57679967	    138.32359555	    322.01320987	   -262.95034947	     19.42529405	      1.99627256	     73.62878840	     37.83517679	     26.17268974	      4.47044836	     12.53679921	      8.55967866	    -10.41621496	      0.11606839	     -2.88717460	      0.09133248
      2.45000000	     94.15797499	    -47.65416381	     -0.68891085	    123.37363761	    335.99899852	   -266.06701404	     23.19857159	      1.09384801	     78.95956498	     42.11259817	     26.52288435	     -3.22907160	     13.29286849	      3.60318902	    -11.21019466	      0.04067572	     -3.35403729	      0.10529243
      2.46000000	     98.24091485	    -40.16789930	     -4.41775165	    104.04819954	    346.44617826	   -264.06708867	     28.29385211	     -0.19876270	     84.04921526	     45.19194696	     25.57137593	    -11.25856171	     13.83296855	     -1.65860623	    -11.67391529	     -0.04230552	     -3.79187476	      0.11668058
      2.47000000	    101.18630443	    -32.17716975	     -9.58432240	     81.48983551	    351.63859463	   -255.74142346	     34.24051345	     -1.90610941	     88.54960861	     46.57079725	     23.22107006	    -19.29826393	     14.21642074	     -6.95485813	    -11.73676564	     -0.12885033	     -4.17663735	      0.12338234
      2.48000000	    102.45194335	    -24.43334008	    -15.87309252	     57.72616902	    350.68440313	   -239.90588711	     40.38836018	     -3.95467898	     92.16127481	     45.98042334	     19.65434971	    -26.75232045	     14.52376384	    -11.92523406	    -11.36467174	     -0.21206519	     -4.49030840	      0.12400901
      2.49000000	    103.49077885	    -17.37514999	    -21.89461678	     39.10894951	    346.84229390	   -225.80904846	     45.99224736	     -6.17327537	     94.65876370	     44.57514355	     15.94145327	    -32.99591313	     14.83867325	    -15.51695287	    -10.56521714	     -1.42915709	     -4.72015219	      0.47307476
      2.50000000	    102.28644679	    -10.15642254	    -27.97031354	     23.77017291	    336.82312163	   -211.32711617	     50.32200381	     -8.32084709	     95.88735015	     41.88032951	     11.50745985	    -39.43254107	     15.22318381	    -18.67974353	     -9.38988388	     -3.38052313	     -4.85654157	      1.01449807
      2.51000000	    100.18402010	     -4.72139556	    -32.79168454	     14.83404877	    323.89832234	   -196.37034572	     52.77101256	    -10.13450280	     95.73412096	     38.70212775	      7.64425765	    -43.99136172	     15.69466010	    -20.11172842	     -7.92927713	     -5.60712885	     -4.88948063	      1.60996484
      2.52000000	     97.65415588	     -1.25009801	    -35.65688698	     12.93855405	    309.60529630	   -183.19804734	     52.95284664	    -11.38502407	     94.09497749	     35.68615754	      4.90300420	    -46.39630850	     16.20788879	    -19.52532363	     -6.30442935	     -8.09762988	     -4.80998845	      2.24663402
      2.53000000	     94.95890630	      0.44589254	    -36.18725526	     17.42185586	    295.02032576	   -173.96606536	     50.76105803	    -11.92294184	     90.87272721	     33.25447698	      3.53519702	    -46.65395974	     16.66034519	    -16.87410622	     -4.64807283	    -10.84809652	     -4.61109089	      2.91971560
      2.54000000	     92.07579009	      0.82816512	    -34.38133035	     26.40121960	    280.62299124	   -169.97696958	     46.38193369	    -11.70175887	     86.00098181	     31.50783623	      3.47337121	    -45.00542104	     16.91117342	    -12.39340397	     -3.08779075	    -13.82845395	     -4.29211648	      3.62699016
      2.55000000	     88.84254958	      0.45165437	    -30.52203864	     37.31111929	    266.58429063	   -171.54369691	     40.24061152	    -10.77001956	     79.49002305	     30.31162632	      4.44887825	    -41.79020436	     16.81874350	     -6.51929654	     -1.72826675	    -16.96589252	     -3.86314898	      4.36232228
      2.56000000	     85.08949158	     -0.21849981	    -25.06821241	     47.57619635	    253.02722286	   -178.17904354	     32.90137343	     -9.24280984	     71.48028555	     29.40661387	      6.10409922	    -37.34208056	     16.28259109	      0.20607467	     -0.64027834	    -20.14046321	     -3.34691190	      5.09809728
      2.57000000	     80.56607309	     -0.68145197	    -18.62160318	     54.64326441	    239.85575625	   -188.58460198	     24.96004320	     -7.27443706	     62.28964882	     28.51266088	      8.02617318	    -32.21363166	     15.27822687	      7.03861772	      0.14512140	    -23.17054378	     -2.77614352	      5.78026197
      2.58000000	     75.06034671	     -0.50468800	    -11.83727118	     56.51498862	    226.91716613	   -201.03636419	     16.95963357	     -5.04465568	     52.43056933	     27.43738181	      9.84753302	    -27.11098151	     13.87157411	     13.14658253	      0.63444150	    -25.82839942	     -2.18887964	      6.34073029
      2.59000000	     68.55854330	      0.41434142	     -5.33242546	     52.48698211	    214.26756633	   -213.84528846	      9.33439504	     -2.75382949	     42.58180103	     26.10722865	     11.32206980	    -22.62202787	     12.21328178	     17.83107528	      0.86335739	    -27.88770286	     -1.62116076	      6.71631024
      2.60000000	     61.23794001	      1.74261096	      0.36000075	     43.36848051	    202.16441217	   -225.42201199	      2.38643036	     -0.61473078	     33.51547186	     24.51810711	     12.31531195	    -19.06863289	     10.51785159	     20.62940725	      0.88595799	    -29.15986954	     -1.10160717	      6.86285111
      2.61000000	     52.18810347	      6.26988521	      5.63735479	     28.29844656	    188.78302507	   -228.19662527	     -3.62019543	      1.57705569	     22.35807967	     22.67479125	     12.76388251	    -16.41500788	      7.02086889	     21.38431608	      0.49179571	    -29.51924449	     -0.10645153	      6.76158036
      2.62000000	     44.84198955	      4.34120568	      8.33597855	     16.87318620	    180.27118896	   -238.02197657	     -8.70393826	      2.66419721	     18.59678778	     20.54321472	     12.62822013	    -14.29825872	      7.00669172	     20.25232032	      0.45455089	    -28.92369815	     -0.01192398	      6.42037088
      2.63000000	     38.25341721	      0.26531126	      9.33074362	      9.75443689	    174.34922531	   -242.17198655	    -12.42391434	      3.00665306	     17.30744469	     18.04244845	     11.87203866	    -12.16593938	      7.40257879	     17.64935804	      0.42128919	    -27.42189746	      0.07224709	      5.87110313
      2.64000000	     33.10776682	     -6.61865494	      8.65342312	      9.68015133	    171.92868662	   -241.25057512	    -14.46977554	      2.58604150	     18.64224574	     15.07721540	     10.47901273	     -9.44836728	      8.26665198	     14.15152445	      0.39886987	    -25.14790784	      0.14021791	      5.16035344
      2.65000000	     30.05584720	    -16.43267688	      6.52822335	     18.05137855	    173.81457839	   -236.41498792	    -14.51955860	      1.52622144	     22.41351948	     11.60276183	      8.49128085	     -5.70332003	      9.56564481	     10.37881036	      0.39160252	    -22.29965124	      0.18701429	      4.34377014
      2.66000000	     29.63034883	    -28.67082490	      3.35383354	     34.52001134	    180.55856769	   -229.12376534	    -12.30147618	      0.09166101	     28.10771642	      7.68752751	      6.03980864	     -0.72174337	     11.17822137	      6.87715193	      0.40064285	    -19.11141382	      0.20891084	      3.48199490
      2.67000000	     32.14302382	    -42.25094479	     -0.34357794	     56.98430203	    192.28563100	   -220.80993156	     -7.67811276	     -1.35256359	     34.94995928	      3.54729043	      3.34665995	      5.41262059	     12.91593053	      4.02493293	      0.42405102	    -15.82425414	      0.20380677	      2.63758632
      2.68000000	     37.57331613	    -55.68437162	     -3.97782008	     81.98263325	    208.52169286	   -212.56628349	     -0.73424025	     -2.41066312	     41.99804733	     -0.46560610	      0.69206419	     12.31701268	     14.55424801	      1.98571954	      0.45732412	    -12.65807239	      0.17164727	      1.87004680
      2.69000000	     45.49016216	    -67.33065740	     -6.98446385	    105.39937050	    228.10189544	   -204.94367475	      8.16300188	     -2.73921323	     48.25462356	     -3.92248633	     -1.64587333	     19.36587996	     15.86633780	      0.71904246	      0.49421507	     -9.78905638	      0.11478246	      1.22719559
      2.70000000	     55.05757633	    -75.68003667	     -8.90685499	    123.30149054	    249.23847048	   -197.94616218	     18.36076373	     -2.12161204	     52.78617003	     -6.41019721	     -3.45615638	     25.80475863	     16.65256253	      0.04144166	      0.52766115	     -7.33718017	      0.03806508	      0.73667115
      2.71000000	     65.15521984	    -79.60495160	     -9.47081963	    132.68775865	    269.78040902	   -191.24840100	     28.98284654	     -0.51392434	     54.83347317	     -7.61743072	     -4.63888933	     30.90804284	     16.76125445	     -0.28105005	      0.55069059	     -5.36404346	     -0.05143406	      0.40028509
      2.72000000	     74.57711528	    -78.50310761	     -8.62980596	    131.93211987	    287.58090590	   -184.53571921	     39.04609577	      1.94906522	     53.89735396	     -7.38850470	     -5.20961651	     34.11499422	     16.09903058	     -0.45719023	      0.55721430	     -3.88186255	     -0.14510451	      0.19530840
      2.73000000	     82.24806881	    -72.32944663	     -6.56839017	    120.88181645	    300.85694270	   -177.82883666	     47.60378157	      4.98701329	     49.78365547	     -5.74138330	     -5.27231479	     35.12434207	     14.63089475	     -0.62584456	      0.54261984	     -2.86861777	     -0.23375634	      0.08252228
      2.74000000	     87.40519473	    -61.53353650	     -3.66184087	    100.65189096	    308.46259918	   -171.66954841	     53.87866993	      8.23439155	     42.59680455	     -2.84115115	     -4.97600513	     33.93779062	     12.37278213	     -0.84004099	      0.50409283	     -2.28465449	     -0.30863049	      0.01633432
      2.75000000	     89.69184200	    -46.93443244	     -0.40397654	     73.22961017	    310.00452347	   -167.09894918	     57.35397881	     11.30963746	     32.68724303	      1.05397046	     -4.47552533	     30.84387858	      9.38148731	     -1.07567331	      0.44064143	     -2.08738941	     -0.36224995	     -0.04495879
      2.76000000	     89.14079537	    -29.57506437	      2.67952413	     41.02406328	    305.78462414	   -165.42404705	     57.81216001	     13.87673407	     20.57281703	      5.63923993	     -3.90900055	     26.35037195	      5.74614385	     -1.25735300	      0.35289484	     -2.24023028	     -0.38904436	     -0.13290927
      2.77000000	     86.08233114	    -10.58492708	      5.11605635	      6.46276533	    296.63786699	   -167.83369112	     55.33265673	     15.69028601	      6.85728284	     10.59198838	     -3.39064555	     21.08870605	      1.58209480	     -1.28979622	      0.24282296	     -2.71375852	     -0.38580271	     -0.26560451
      2.78000000	     81.02712139	      8.93052162	      6.55758982	    -28.31026862	    283.74309060	   -175.00432394	     50.26779240	     16.62277274	     -7.83496297	     15.57786217	     -3.01240615	     15.71483751	     -2.97441468	     -1.08711987	      0.11353180	     -3.48096207	     -0.35202749	     -0.44878242
      2.79000000	     74.56114736	     27.97061396	      6.83652671	    -61.61997506	    268.44957892	   -186.80214642	     43.21072714	     16.67747492	    -22.89668042	     20.23875839	     -2.84327836	     10.81856801	     -7.77276223	     -0.59984392	     -0.03078743	     -4.50894102	     -0.29019720	     -0.68008346
      2.80000000	     67.31817422	     45.67876096	      5.99666903	    -92.31890888	    252.20629175	   -202.16944123	     34.95515410	     15.98990482	    -37.74736486	     24.21918167	     -2.92379275	      6.86887905	    -12.65620780	      0.17972739	     -0.18480896	     -5.74713297	     -0.20584764	     -0.95170932
      2.81000000	     60.00011544	     61.33299808	      4.29116389	   -119.72292007	    236.55099469	   -219.22295382	     26.43282923	     14.81490927	    -51.82322132	     27.22698171	     -3.26324564	      4.19863455	    -17.46930462	      1.23289351	     -0.34203337	     -7.11916812	     -0.10728375	     -1.25288454
      2.82000000	     53.35886976	     74.33843323	      2.14560550	   -143.50005993	    223.03449079	   -235.41110225	     18.61562001	     13.49204931	    -64.56395929	     29.08923608	     -3.83643787	      2.98376445	    -22.06058875	      2.52232549	     -0.49484134	     -8.51803816	     -0.00472638	     -1.57162612
      2.83000000	     48.11444249	     84.23671230	      0.08248300	   -163.53763494	    213.05773085	   -247.71171937	     12.38591516	     12.38508859	    -75.41854771	     29.78291895	     -4.58337005	      3.22649234	    -26.27993004	      3.99196449	     -0.63475190	     -9.80669970	      0.09111940	     -1.89574190
      2.84000000	     44.83837763	     90.73489170	     -1.38732625	   -179.81920212	    207.67411018	   -252.97272329	      8.40176987	     11.80431054	    -83.88875568	     29.43669010	     -5.41659722	      4.76495744	    -29.97557467	      5.56918996	     -0.75305950	    -10.82810649	      0.17078945	     -2.21308707
      2.85000000	     43.84649162	     93.77809238	     -1.87929963	   -192.38623174	    207.42660495	   -248.40254149	      6.99763189	     11.93673826	    -89.61253901	     28.30339331	     -6.23231471	      7.29098675	    -32.99948922	      7.16133800	     -0.84197702	    -11.42812390	      0.22756318	     -2.51236572
      2.86000000	     45.15825948	     93.63188470	     -1.22264903	   -201.37734761	    212.29843317	   -232.13221693	      8.15492001	     12.81239380	    -92.45860064	     26.71910276	     -6.92603586	     10.37889161	    -35.22488027	      8.65436810	     -0.89610190	    -11.48671230	      0.25825757	     -2.78331721
      2.87000000	     43.84311608	     94.27091689	     -1.20673679	   -200.12950068	    216.04502805	   -233.27027003	      9.32492705	     13.13864030	    -96.51255771	     25.05243687	     -7.41246900	     13.53567860	    -36.54004644	      9.92004996	     -4.22820224	    -10.95059145	      0.66638761	     -3.01786460
      2.88000000	     46.00534193	     93.01106978	      0.56144167	   -197.69265679	    226.88030020	   -221.68403687	     13.66834797	     14.83285877	    -97.77059663	     23.64226977	     -7.63895667	     16.25619952	    -36.94810867	     10.82579386	     -6.58205844	     -9.85133926	      0.93329602	     -3.20916565
      2.89000000	     48.60663223	     91.48644504	      2.63814768	   -191.56230855	    239.96004200	   -210.47340494	     19.11064679	     16.67797571	    -97.78233070	     22.73352550	     -7.58801378	     18.07179591	    -36.11716359	     11.24213669	     -9.19972416	     -8.30715206	      1.21846730	     -3.34943867
      2.90000000	     51.16107587	     90.36987251	      4.67097959	   -182.80498005	    254.02616521	   -202.61122007	     25.18786009	     18.43194001	    -96.85944458	     22.42568629	     -7.27107737	     18.59869240	    -34.08600440	     11.05473896	    -12.06123619	     -6.50209370	      1.51907992	     -3.42559146
      2.91000000	     53.30638674	     90.05458320	      6.42681435	   -173.01208865	    267.73228727	   -199.65692613	     31.54530236	     19.91449229	    -95.14631275	     22.64629100	     -6.72007698	     17.59012777	    -31.04690905	     10.18416741	    -15.10257701	     -4.64802953	      1.81716981	     -3.42001790
      2.92000000	     54.77214919	     90.57958800	      7.80727228	   -164.05572158	    279.59512535	   -201.03486525	     37.86808150	     20.99425425	    -92.59991848	     23.17041036	     -5.98262722	     14.97859795	    -27.33190128	      8.60855128	    -18.17610328	     -2.94256829	      2.07501382	     -3.31228073
      2.93000000	     55.27152104	     91.58962807	      8.79866390	   -157.41695981	    287.93731912	   -204.51544308	     43.76209254	     21.55914262	    -89.01312546	     23.67635437	     -5.12092311	     10.90549708	    -23.31514119	      6.38629419	    -21.06180829	     -1.53318950	      2.23630493	     -3.08777513
      2.94000000	     54.53618922	     92.62757225	      9.46522785	   -153.97676915	    291.17548275	   -207.45321391	     48.79928500	     21.55504689	    -84.31828268	     23.82696343	     -4.21025668	      5.72614949	    -19.43314104	      3.66630172	    -23.51201627	     -0.49954065	      2.23977563	     -2.74442906
      2.95000000	     52.39512106	     93.26909237	      9.90823681	   -153.84814594	    288.16885675	   -207.75780994	     52.59394883	     20.98166184	    -78.71806326	     23.35217370	     -3.33295236	      0.00022163	    -16.13592118	      0.68931545	    -25.28281773	      0.14741789	      2.04238587	     -2.29616520
      2.96000000	     48.91069136	     92.95776809	     10.21158432	   -155.99134635	    278.61436275	   -204.37309026	     54.90418198	     19.89565143	    -72.47864904	     22.10304485	     -2.56101748	     -5.55201697	    -13.74038816	     -2.23075667	    -26.17948748	      0.44866768	      1.64222373	     -1.77226843
      2.97000000	     44.48747867	     90.98101636	     10.39982799	   -158.33431603	    263.31260688	   -197.32548811	     55.70241390	     18.41785924	    -65.80362126	     20.08932541	     -1.94171147	    -10.12029380	    -12.37248434	     -4.73139944	    -26.09784580	      0.47852760	      1.08617227	     -1.21398347
      2.98000000	     41.76416269	     89.16914572	      9.07879237	   -157.59508251	    247.85527318	   -178.57798211	     55.15386795	     16.71846020	    -58.78106691	     20.45480676	     -2.35595812	    -14.87360823	    -11.95285182	     -7.71955807	    -25.05146007	      0.12284642	      0.45985091	      0.00003580
      2.99000000	     37.19423187	     80.15855128	      9.16750739	   -153.90181883	    226.13716992	   -174.97631579	     53.54916665	     14.98815865	    -51.39110181	     16.31579784	     -1.78771421	    -13.98257877	    -12.23011299	     -7.27558967	    -23.17389364	      0.11367353	     -0.14120048	     -0.00004665
      3.00000000	     34.10898781	     68.12733422	      8.86339971	   -142.28933376	    205.89354378	   -169.48114481	     51.22629826	     13.40336964	    -43.53941215	     12.42577274	     -1.31422287	    -10.76190525	    -12.84438199	     -5.83156022	    -20.68734489	      0.11061458	     -0.63688686	      0.00004245
      3.01000000	     33.13856484	     53.07994685	      8.09512191	   -121.96771448	    189.61298105	   -164.35459526	     48.51147969	     12.09422119	    -35.10937413	      9.08137086	     -0.88493115	     -5.20455495	    -13.41029888	     -3.36637770	    -17.85598218	      0.11790188	     -0.98059891	      0.00047396
      3.02000000	     34.59346942	     35.41322624	      6.88633217	    -93.38116417	    179.07771816	   -161.24619689	     45.67564408	     11.11798790	    -26.03304105	      6.48348729	     -0.43727962	      2.37773612	    -13.59693536	      0.01981784	    -14.93762458	      0.13762778	     -1.16169244	      0.00149989
      3.03000000	     38.42121822	     15.91508989	      5.35552535	    -58.17371224	    175.12627455	   -160.98431920	     42.90999284	     10.44973481	    -16.35558013	      4.72765548	      0.09436161	     11.38735664	    -13.18699121	      4.11699183	    -12.15086221	      0.16956466	     -1.20046640	      0.00330795
      3.04000000	     44.22024518	     -4.33056306	      3.69127435	    -18.89171339	    177.59509068	   -163.58623766	     40.30642389	      9.99528396	     -6.25882395	      3.81876952	      0.77741329	     21.02683639	    -12.09550630	      8.63534024	     -9.65916115	      0.21152720	     -1.13602029	      0.00590600
      3.05000000	     51.31060213	    -24.09758790	      2.11369842	     21.46439187	    185.43982534	   -168.44607777	     37.85062219	      9.62410256	      3.95515384	      3.70191382	      1.68275665	     30.41327994	    -10.35561351	     13.24416461	     -7.56901453	      0.25996195	     -1.01552035	      0.00910180
      3.06000000	     58.84931934	    -42.19221278	      0.83258825	     59.91956422	    197.01432227	   -174.65891225	     35.43436210	      9.21072182	     13.91397223	      4.29873673	      2.88252392	     38.69625015	     -8.08138362	     17.61044706	     -5.93621611	      0.31047166	     -0.88329446	      0.01259455
      3.07000000	     65.98618502	    -57.60906354	      0.01294509	     93.94208456	    210.46245899	   -181.38865134	     32.90557238	      8.67216543	     23.23876900	      5.53675277	      4.44111060	     45.16598321	     -5.43262003	     21.43300836	     -4.77974717	      0.35833678	     -0.77458151	      0.01611010
      3.08000000	     72.02564666	    -69.65278578	     -0.24777313	    121.75236190	    224.12758563	   -188.15755479	     30.13556798	      7.98670035	     31.61475800	      7.36656654	      6.40126969	     49.33789608	     -2.58320172	     24.46872393	     -4.09314412	      0.39913698	     -0.71352737	      0.01951553
      3.09000000	     76.55950076	    -77.99333885	      0.07154672	    142.46474820	    236.88706899	   -194.96842395	     27.08265705	      7.19004383	     38.84680394	      9.77086249	      8.77042031	     50.99537486	      0.30123843	     26.54645306	     -3.85352474	      0.42927121	     -0.71349333	      0.02290704
      3.10000000	     79.54419577	    -82.63369389	      0.91943956	    156.01763817	    248.33966857	   -202.21054770	     23.84091920	      6.35373794	     44.88010461	     12.76752453	     11.51287886	     50.18074183	      3.07210644	     27.56684685	     -4.02624044	      0.44615318	     -0.78035294	      0.02667060
      3.11000000	     81.29167265	    -83.81557719	      2.18238097	    162.93090444	    258.78548659	   -210.40956913	     20.65064887	      5.55480883	     49.79121431	     16.40405812	     14.54948625	     47.13568805	      5.60266625	     27.48972887	     -4.56605486	      0.44811085	     -0.91632044	      0.03149224
      3.12000000	     82.37570428	    -81.90661531	      3.69264588	    163.97230651	    269.00714860	   -219.93507604	     17.86673016	      4.84689294	     53.76525386	     20.73906076	     17.76013109	     42.20686658	      7.79743653	     26.31501435	     -5.41436201	      0.43413117	     -1.12238161	      0.03828604
      3.13000000	     83.48317901	    -77.29148223	      5.22982654	    159.81877973	    279.92538334	   -230.77111546	     15.90517204	      4.24005449	     57.05332788	     25.80758711	     20.98301084	     35.74716786	      9.59594180	     24.06654165	     -6.49623655	      0.40357625	     -1.39781785	      0.04801074
      3.14000000	     85.24269070	    -70.30601954	      6.51742210	    150.84360090	    292.21864571	   -242.40900948	     15.17725925	      3.69175702	     59.92291299	     31.57037642	     24.00838879	     28.04383460	     10.97241625	     20.78614614	     -7.71843543	      0.35602224	     -1.73812594	      0.06136718
      3.15000000	     88.06170207	    -61.24257483	      7.22357787	    137.12739670	    306.00509275	   -253.89278541	     16.01837999	      3.11067264	     62.61641983	     37.85303009	     26.57168356	     19.29614121	     11.93543859	     16.54065968	     -8.97131872	      0.29138025	     -2.13277272	      0.07842029
      3.16000000	     92.00953609	    -50.43221868	      6.97699820	    118.71344608	    320.68207635	   -263.93825021	     18.62187787	      2.37274612	     65.32690785	     44.29049285	     28.35831456	      9.65652827	     12.52849461	     11.44130884	    -10.13430587	      0.21035897	     -2.56482557	      0.09825371
      3.17000000	     96.77333433	    -38.37851052	      5.41014539	     96.01548404	    334.97919524	   -271.04757296	     22.98149835	      1.34886908	     68.19070317	     50.30531365	     29.03639794	     -0.67268104	     12.83130751	      5.67003879	    -11.08432027	      0.11517449	     -3.01089283	      0.11882174
      3.18000000	    101.70766715	    -25.87040792	      2.23729762	     70.17334571	    347.21023564	   -273.59576715	     28.85095865	     -0.05859435	     71.28441456	     55.15760865	     28.32791917	    -11.32810042	     12.95556002	     -0.49911372	    -11.70854786	      0.01023404	     -3.44622380	      0.13717110
      3.19000000	    105.97283788	    -13.99728169	     -2.63572197	     43.15489953	    355.66061482	   -269.93942574	     35.72421979	     -1.87633206	     74.61112274	     58.08870582	     26.11164009	    -21.71548779	     13.03238212	     -6.69573072	    -11.91901626	     -0.09756943	     -3.84690383	      0.15009076
      3.20000000	    108.75088914	     -4.04716215	     -9.00393965	     17.56115126	    359.02208801	   -258.60147113	     42.86181723	     -4.02910661	     78.09365618	     58.53060852	     22.52431625	    -31.02112955	     13.19528341	    -12.47156427	    -11.66488464	     -0.19917366	     -4.19302033	      0.15501763
      3.21000000	    109.47109578	      2.68802828	    -16.31254759	     -3.77958239	    356.73662873	   -238.54325279	     49.37167830	     -6.33128425	     81.58865021	     56.30308583	     18.00539663	    -38.31956229	     13.56245517	    -17.34387533	    -10.94397129	     -0.28434063	     -4.46886927	      0.15083869
      3.22000000	    110.53394181	      6.22367278	    -22.59840839	    -12.88637158	    352.76426143	   -225.54905614	     54.33436441	     -8.51102835	     84.90371612	     53.58104444	     14.06637919	    -43.26529996	     14.22107030	    -20.04168792	     -9.80427426	     -2.02643301	     -4.66194482	      0.66556022
      3.23000000	    108.62006285	      6.53129406	    -28.61887238	    -14.74549150	    342.26308750	   -209.00211749	     56.95354887	    -10.26796474	     87.78782604	     48.88812724	      9.82604724	    -46.50782569	     15.20240833	    -21.66952357	     -8.34102171	     -3.92956673	     -4.76010804	      1.11910934
      3.24000000	    105.48018631	      2.94014417	    -32.77463802	     -6.62583330	    328.76070998	   -193.76148823	     56.70266192	    -11.34857793	     89.91793205	     43.75642395	      6.64349756	    -46.80707464	     16.46187351	    -21.13963401	     -6.68136812	     -6.06927208	     -4.75119002	      1.58615649
      3.25000000	    101.53520426	     -3.73089933	    -34.47950503	     10.22290297	    313.29547174	   -182.68112490	     53.43509027	    -11.61222928	     90.89912341	     38.96508860	      4.84779986	    -44.41430536	     17.86855752	    -18.43695307	     -4.96516194	     -8.43787745	     -4.62459647	      2.07294169
      3.26000000	     97.03569858	    -12.12215254	    -33.57066801	     32.93115590	    296.55986042	   -177.81491112	     47.42369112	    -11.06122542	     90.29132615	     34.99094810	      4.41695646	    -39.93158015	     19.21235244	    -13.83924494	     -3.32542002	    -11.02941002	     -4.37416198	      2.59358113
      3.27000000	     92.06090837	    -20.56641631	    -30.28019275	     57.42658735	    278.99002423	   -179.76498730	     39.32008581	     -9.82370270	     87.67297990	     31.97800745	      5.06057403	    -34.17447841	     20.23291841	     -7.88705141	     -1.87144776	    -13.81419551	     -4.00266511	      3.15891428
      3.28000000	     86.69729399	    -27.46309335	    -25.09071272	     79.38656345	    261.12255779	   -187.79304790	     30.03914671	     -8.09969882	     82.73879293	     29.85391207	      6.39640343	    -27.92793306	     20.66954792	     -1.22847749	     -0.67995703	    -16.72472065	     -3.52514509	      3.76277776
      3.29000000	     81.08895347	    -31.53079059	    -18.64000434	     94.99066274	    243.67623821	   -200.16334206	     20.59884040	     -6.09918316	     75.40705748	     28.42885667	      8.04689465	    -21.87048643	     20.32021301	      5.45254721	      0.20786963	    -19.64483299	     -2.96995836	      4.36699881
      3.30000000	     75.35621426	    -31.78913384	    -11.67907294	    101.11308421	    227.34750826	   -214.43482336	     11.95467438	     -4.00027314	     65.89585568	     27.49704977	      9.66877398	    -16.74260302	     19.08886444	     11.38145484	      0.78375192	    -22.39272993	     -2.37469273	      4.90534134
      3.31000000	     69.70617382	    -27.82757231	     -4.95254031	     96.08099380	    212.92158526	   -228.14960246	      4.86239642	     -1.94002185	     54.75715280	     26.92782124	     11.04011898	    -13.16117060	     17.01756430	     15.87058040	      1.06913639	    -24.74087412	     -1.78031714	      5.30372910
      3.32000000	     64.46208857	    -20.00705019	      0.88531303	     80.18956133	    201.26387501	   -239.31656255	     -0.19938257	     -0.03245838	     42.84957126	     26.66046825	     12.07438534	    -11.43624272	     14.29003648	     18.46741120	      1.10824611	    -26.46017238	     -1.22550255	      5.50332666
      3.33000000	     59.46623115	     -4.95824560	      5.86720301	     52.88326070	    191.74879599	   -236.66267521	     -2.41290756	      1.90275056	     26.97471998	     26.64304051	     12.77213544	    -11.50048136	      8.50902495	     19.01100454	      0.53889274	    -27.36460691	     -0.14518301	      5.47523385
      3.34000000	     56.15874166	      4.78897081	      8.46903609	     23.61399489	    188.23319849	   -245.37020801	     -3.37760059	      3.08722083	     18.47263063	     26.78130745	     13.15995948	    -12.91723825	      6.69195356	     17.64569301	      0.47129817	    -27.34532749	     -0.07335414	      5.22592934
      3.35000000	     54.16843616	     13.96291464	      9.31199267	     -5.41160706	    188.84689399	   -247.41140669	     -2.37976769	      3.77246150	     11.97803378	     26.91083310	     13.24048134	    -14.99155870	      4.99379340	     14.77136339	      0.39688882	    -26.40057793	     -0.01511517	      4.79332951
      3.36000000	     53.58440844	     20.82628382	      8.55319916	    -29.84814660	    193.36814865	   -243.91741717	      0.31818244	      3.93042337	      8.09819550	     26.80845541	     12.97876401	    -16.92913395	      3.66606744	     10.95540224	      0.32611115	    -24.63478504	      0.02563128	      4.23462177
      3.37000000	     54.37094109	     24.10796605	      6.54019987	    -46.29588750	    201.22680328	   -236.51929562	      4.42610298	      3.61658907	      7.05671268	     26.23952367	     12.32438297	    -17.99377613	      2.87554093	      6.82356186	      0.26748993	    -22.23673848	      0.04727937	      3.61053109
      3.38000000	     56.40043891	     23.22277933	      3.74745347	    -52.90997405	    211.62782332	   -227.03811820	      9.66018412	      2.98036269	      8.66329057	     25.02520078	     11.25234331	    -17.63546579	      2.68054853	      2.95416321	      0.22635128	    -19.44127942	      0.05030719	      2.97500310
      3.39000000	     59.48940318	     18.33186639	      0.69363106	    -49.63350518	    223.69056812	   -217.17115772	     15.75142597	      2.24502035	     12.36931662	     23.10043610	      9.79797722	    -15.57937120	      3.03336330	     -0.21008589	      0.20440509	    -16.49065716	      0.03663860	      2.37032652
      3.40000000	     63.41272558	     10.24737006	     -2.13585174	    -38.03681697	    236.53799180	   -208.22546941	     22.42998565	      1.66337774	     17.38171423	     20.54248065	      8.06781423	    -11.85740708	      3.80355172	     -2.41120033	      0.20007714	    -13.59922434	      0.00902260	      1.82638583
      3.41000000	     67.89903096	      0.22358689	     -4.34834505	    -20.83486604	    249.33628658	   -200.95765465	     29.40246982	      1.46272898	     22.80667880	     17.56134474	      6.22126937	     -6.78354504	      4.81344998	     -3.58438331	      0.20941361	    -10.93317122	     -0.02941667	      1.36304890
      3.42000000	     72.62877898	    -10.31298229	     -5.68181957	     -1.22673147	    261.32275448	   -195.55158370	     36.34095566	      1.79633708	     27.79251432	     14.45655675	      4.43053853	     -0.87299053	      5.87478409	     -3.82602294	      0.22724571	     -8.60446861	     -0.07547942	      0.99003742
      3.43000000	     77.25473095	    -20.02776926	     -6.01991557	     17.75975164	    271.84164754	   -191.74505735	     42.89149043	      2.71622948	     31.64152591	     11.55974846	      2.83670835	      5.27721705	      6.81658038	     -3.33289591	      0.24821800	     -6.67314960	     -0.12601709	      0.70800514
      3.44000000	     81.43650449	    -27.87884269	     -5.38617822	     33.76391930	    280.38530928	   -189.06438660	     48.70000683	      4.17240636	     33.87210929	      9.17221260	      1.51811872	     11.11236780	      7.49905246	     -2.33803462	      0.26742639	     -5.15942379	     -0.17791336	      0.50847679
      3.45000000	     84.87972567	    -33.21160900	     -3.92209943	     45.31892737	    286.61948945	   -187.06250131	     53.44554125	      6.03289057	     34.22331900	      7.51942843	      0.48264472	     16.21530660	      7.81292797	     -1.05937001	      0.28061844	     -4.05635867	     -0.22800535	      0.37584130
      3.46000000	     87.35858213	    -35.74608647	     -1.85562887	     51.80977076	    290.36601254	   -185.49455124	     56.86751585	      8.11328907	     32.61273311	      6.72743537	     -0.31846248	     20.35064590	      7.66965655	      0.32913999	      0.28411975	     -3.34161583	     -0.27303468	      0.29021279
      3.47000000	     88.71778029	    -35.50619203	      0.53300228	     53.28239498	    291.54974139	   -184.40632560	     58.77859743	     10.20644146	     29.08057569	      6.81925743	     -0.96568149	     23.46401092	      6.99361965	      1.70703121	      0.27477262	     -2.98661297	     -0.30968562	      0.23127073
      3.48000000	     88.85998270	    -32.74772459	      2.94329372	     50.24419767	    290.14141581	   -184.11849686	     59.06304017	     12.10850132	     23.75258311	      7.72424638	     -1.54746380	     25.65408555	      5.72582163	      3.00425696	      0.25005302	     -2.96281879	     -0.33470412	      0.18160598
      3.49000000	     87.72820616	    -27.89962236	      5.08476891	     43.50177611	    286.12510489	   -185.11712426	     57.67006135	     13.64142588	     16.82938561	      9.29342208	     -2.14239360	     27.12557959	      3.83887912	      4.18912000	      0.20833151	     -3.24493694	     -0.34509148	      0.12851215
      3.50000000	     85.29949919	    -21.49780854	      6.70595732	     33.99904487	    279.51364273	   -187.88276929	     54.61749905	     14.67247992	      8.58593529	     11.32154004	     -2.80815561	     28.12686791	      1.35367284	      5.25125399	      0.14917343	     -3.80988992	     -0.33840478	      0.06461403
      3.51000000	     81.60081413	    -14.10022209	      7.62371965	     22.62802733	    270.41819601	   -192.72051423	     50.01510477	     15.13150140	     -0.63889283	     13.57247627	     -3.57595220	     28.88489318	     -1.65332397	      6.18600666	      0.07356626	     -4.63230002	     -0.31317548	     -0.01340271
      3.52000000	     76.75083015	     -6.20050293	      7.75336890	     10.04621171	    259.16048599	   -199.64142984	     44.10242841	     15.02707914	    -10.46742330	     15.80618009	     -4.44856061	     29.55741101	     -5.05690579	      6.98711222	     -0.01605386	     -5.67797503	     -0.26940473	     -0.10745541
      3.53000000	     71.01356539	      1.85032854	      7.13581124	     -3.46529629	    246.38629731	   -208.27667978	     37.28236841	     14.46065641	    -20.51559455	     17.81044802	     -5.39819768	     30.19895511	     -8.70234784	      7.64200936	     -0.11604318	     -6.89621709	     -0.20902072	     -0.21902877
      3.54000000	     64.82520169	      9.88722749	      5.95302423	    -18.04609449	    233.10667428	   -217.81789245	     30.12372667	     13.63133291	    -30.42321027	     19.42469164	     -6.36509116	     30.74786046	    -12.43045645	      8.12872154	     -0.22197712	     -8.21453159	     -0.13609024	     -0.34937276
      3.55000000	     58.78213236	     17.89423717	      4.51371419	    -34.13721332	    220.63947174	   -227.03769504	     23.31081299	     12.81840995	    -39.87251680	     20.56260748	     -7.26616150	     31.06569893	    -16.09838533	      8.43103590	     -0.32906831	     -9.53685912	     -0.05656472	     -0.49952075
      3.56000000	     53.56744612	     25.91731384	      3.19706139	    -52.24639188	    210.42750428	   -234.35498650	     17.53878603	     12.33125732	    -48.58872424	     21.23067199	     -8.01267295	     30.99338067	    -19.58672725	      8.55448804	     -0.43240388	    -10.74630561	      0.02251701	     -0.66947179
      3.57000000	     49.81979313	     33.96021293	      2.36166525	    -72.66139567	    203.76243697	   -237.95885539	     13.38096447	     12.43061793	    -56.32851255	     21.52832782	     -8.53249764	     30.40301852	    -22.79118753	      8.53311119	     -0.52699962	    -11.71610761	      0.09422072	     -0.85789499
      3.58000000	     47.98623708	     41.91923965	      2.24692149	    -95.22815688	    201.49774462	   -235.98758454	     11.17239425	     13.24625540	    -62.87476193	     21.62966972	     -8.78783680	     29.22397024	    -25.60793750	      8.42299113	     -0.60788805	    -12.32310517	      0.15294470	     -1.06205808
      3.59000000	     48.21787635	     49.58252666	      2.90274845	   -119.25980016	    203.85719538	   -226.77945457	     10.95072259	     14.72654494	    -68.04613307	     21.75271868	     -8.78339162	     27.44012215	    -27.92485437	      8.28288137	     -0.67045954	    -12.46513562	      0.19523669	     -1.27701872
      3.60000000	     50.34183796	     56.65193865	      4.17703856	   -143.54288260	    210.39448759	   -209.19968238	     12.47091206	     16.64364461	    -71.70876275	     22.11437175	     -8.56646015	     25.09037837	    -29.62427689	      8.15637720	     -0.71100772	    -12.08144632	      0.21993334	     -1.49666217
      3.61000000	     53.90745061	     62.77342738	      5.76600227	   -166.44347404	    220.08530157	   -182.95565126	     15.28047695	     18.65318512	    -73.78178006	     22.88053376	     -8.21778254	     22.27498907	    -30.59775671	      8.06058176	     -0.72730345	    -11.16934291	      0.22771922	     -1.71240845
      3.62000000	     58.27633837	     67.58802156	      7.30855850	   -186.14797906	    231.50432399	   -148.80025304	     18.82471303	     20.38644802	    -74.24447735	     24.12002718	     -7.83178911	     19.15396345	    -30.77035397	      7.98190056	     -0.71908856	     -9.79035752	      0.22043975	     -1.91366165
      3.63000000	     62.73372718	     70.79815661	      8.48898602	   -200.99241778	    243.04089135	   -108.55405033	     22.54992522	     21.54150362	    -73.14604166	     25.77962825	     -7.49031308	     15.92914653	    -30.12538827	      7.87694915	     -0.68831531	     -8.06679996	      0.20048020	     -2.08523328
      3.64000000	     66.60009922	     72.20518595	      9.11178003	   -209.76037688	    253.11684925	    -64.94560588	     25.98223754	     21.94344923	    -70.60790717	     27.68638795	     -7.24161408	     12.82877232	    -28.71794321	      7.68840754	     -0.63892546	     -6.16540307	      0.17035426	     -2.20640002
      3.65000000	     69.32902546	     71.70416605	      9.12876360	   -211.84975464	    260.38490762	    -21.28484797	     28.77397687	     21.56150414	    -66.81269315	     29.57966121	     -7.09180742	     10.09808477	    -26.67138660	      7.37246449	     -0.57618575	     -4.27128763	      0.13250108	     -2.25223329
      3.66000000	     70.57203564	     69.25659589	      8.62266440	   -207.26778399	    263.88843082	     19.01624585	     30.72128534	     20.48935412	    -61.98205092	     31.15940085	     -7.00700076	      7.98571980	    -24.15910889	      6.92338366	     -0.50583768	     -2.55660315	      0.08923048	     -2.20109983
      3.67000000	     70.21226393	     64.86584699	      7.76009717	   -196.48332592	    263.17619626	     52.97456001	     31.76168685	     18.90505552	    -56.35154654	     32.14483971	     -6.92570032	      6.72297432	    -21.37860277	      6.38689821	     -0.43333906	     -1.14964119	      0.04273643	     -2.04262225
      3.68000000	     68.37426455	     58.58418197	      6.73032177	   -180.24177424	    258.37639920	     78.46856856	     31.95923959	     17.02612947	    -50.14865887	     32.33719910	     -6.77736668	      6.48547065	    -18.52469649	      5.85020000	     -0.36330955	     -0.11901097	     -0.00488673	     -1.78190888
      3.69000000	     65.40940701	     50.53428723	      5.68846372	   -159.43133460	    250.20801674	     94.42088717	     31.48203134	     15.06994750	    -43.57450281	     31.66710262	     -6.50309382	      7.35838798	    -15.76615684	      5.42090936	     -0.29916785	      0.52627147	     -0.05162767	     -1.44063258
      3.70000000	     61.85450008	     40.92695515	      4.72190508	   -135.02656231	    239.90658381	    100.72420817	     30.57484908	     13.22476880	    -36.79511030	     30.21272884	     -6.07118339	      9.32562901	    -13.23037865	      5.20830867	     -0.24298877	      0.82477132	     -0.09553147	     -1.05262754
      3.71000000	     58.34761828	     30.10699348	      3.85059971	   -108.14671381	    229.03904874	     98.06301496	     29.52638887	     11.63129318	    -29.95419652	     28.17965088	     -5.47996126	     12.25433770	    -11.00076478	      5.29690049	     -0.19565277	      0.84731463	     -0.13472877	     -0.65787900
      3.72000000	     55.68039219	     20.91334562	      2.67018340	    -80.56977444	    220.12830008	     94.52312149	     28.62841893	     10.37073841	    -23.20200132	     26.78855939	     -5.05665484	     13.81095953	     -9.12411840	      4.18777161	     -0.15720236	      0.39469712	     -0.16755140	      0.00618009
      3.73000000	     54.04783643	      7.95570913	      2.03550211	    -53.98017409	    212.34384650	     72.04602765	     28.12922159	      9.45876917	    -16.71469839	     23.93777223	     -4.08574811	     19.10270588	     -7.61895345	      6.11174274	     -0.12714346	      0.41838053	     -0.19264083	      0.00337352
      3.74000000	     53.87402634	     -3.76855501	      1.38048645	    -28.94044710	    208.17240240	     48.26318720	     28.19016848	      8.84914671	    -10.69119421	     21.60362626	     -3.09167780	     23.90406943	     -6.48004564	      7.93117916	     -0.10456530	      0.42479366	     -0.20902670	      0.00365535
      3.75000000	     55.19524244	    -13.54086487	      0.71062617	     -7.20045119	    207.93037702	     24.63989683	     28.85466492	      8.44895368	     -5.33321079	     19.98746878	     -2.11011297	     27.82350766	     -5.68043971	      9.51479190	     -0.08819474	      0.41462719	     -0.21625785	      0.00721091
      3.76000000	     57.78202733	    -20.83961203	      0.07062095	      9.87324426	    211.27346289	      2.52240942	     30.03555594	      8.14222249	     -0.81449497	     19.16572259	     -1.13886965	     30.57200378	     -5.17182460	     10.76653382	     -0.07648106	      0.39008231	     -0.21455046	      0.01368731
      3.77000000	     61.18509271	    -25.42028385	     -0.46875727	     21.49487647	    217.28697533	    -17.00451024	     31.52665200	      7.81623762	      2.75376217	     19.08277741	     -0.14247397	     31.99135965	     -4.88514211	     11.64164610	     -0.06768682	      0.35472342	     -0.20483489	      0.02220760
      3.78000000	     64.82143215	    -27.33994083	     -0.83167942	     27.55166430	    224.67906255	    -33.23242267	     33.04100842	      7.38450105	      5.34931314	     19.57076426	      0.93042273	     32.05726923	     -4.73537967	     12.15188115	     -0.06001780	      0.31300518	     -0.18869228	      0.03153235
      3.79000000	     68.07924982	    -26.92199363	     -0.95822189	     28.57578782	    232.02504092	    -45.89585102	     34.26777158	      6.80085246	      7.04835020	     20.38808794	      2.12390878	     30.85804653	     -4.63195133	     12.35790315	     -0.05187550	      0.26965300	     -0.16823398	      0.04030058
      3.80000000	     70.42247270	    -24.67526157	     -0.82130075	     25.61656501	    238.01465078	    -55.17334687	     34.93304408	      6.06189995	      8.01605706	     21.27007174	      3.45459079	     28.55721447	     -4.49216445	     12.35097964	     -0.04215062	      0.22900940	     -0.14591263	      0.04728410
      3.81000000	     71.48354556	    -21.19242028	     -0.43739989	     20.05591025	    241.67294505	    -61.61405473	     34.85391678	      5.19957991	      8.48402392	     21.98412181	      4.90163687	     25.35162468	     -4.25352910	     12.22855683	     -0.03036618	      0.19435566	     -0.12425992	      0.05160669
      3.82000000	     71.13212902	    -17.05713274	      0.13205012	     13.41929430	    242.52829660	    -65.99938872	     33.97732058	      4.26814874	      8.72397191	     22.37723021	      6.41098119	     21.43731399	     -3.88132076	     12.06916337	     -0.01663210	      0.16738170	     -0.10563551	      0.05287633
      3.83000000	     69.50454522	    -12.77200446	      0.79052440	      7.19895133	    240.69703483	    -69.16586428	     32.39594855	      3.32926676	      9.02000872	     22.40576388	      7.91185840	     16.98748873	     -3.37112338	     11.91043778	     -0.00154289	      0.14800432	     -0.09205579	      0.05121310
      3.84000000	     66.98504270	     -8.70422171	      1.42505688	      2.67574759	    236.86428050	    -71.82522877	     30.33769492	      2.43773952	      9.63661019	     22.14380268	      9.33858637	     12.14007759	     -2.74825197	     11.73303051	      0.01387323	      0.13455158	     -0.08507926	      0.04720370
      3.85000000	     64.14458408	     -5.05626361	      1.92605802	      0.75410509	    232.16815197	    -74.41952676	     28.13120098	      1.62959242	     10.78789972	     21.77116912	     10.64863212	      6.99609021	     -2.06356257	     11.45507876	      0.02821215	      0.12417932	     -0.08571926	      0.04182362
      3.86000000	     61.65439522	     -1.87426367	      2.19939489	      1.84797365	    228.01793090	    -77.03973693	     26.15623020	      0.91337155	     12.61936904	     21.54453042	     11.82998825	      1.63111006	     -1.38368782	     10.94176203	      0.03989127	      0.11334772	     -0.09439526	      0.03634656
      3.87000000	     60.18853247	      0.91572439	      2.16780622	      5.82705837	    225.87198393	    -79.42738562	     24.78898345	      0.26572027	     15.20271064	     21.75531082	     12.89544121	     -3.88811126	     -0.77751195	     10.02917343	      0.04746245	      0.09831661	     -0.11091383	      0.03223380
      3.88000000	     60.32419891	      3.46265934	      1.76500534	     12.02580974	    226.99411686	    -81.06510796	     24.34891792	     -0.36726620	     18.53844358	     22.67912633	     13.86626459	     -9.49288208	     -0.30258607	      8.55779045	      0.04992165	      0.07571826	     -0.13446705	      0.03098214
      3.89000000	     62.45084050	      5.93539549	      0.92612719	     19.35576440	    232.22026088	    -81.33072513	     25.05323868	     -1.06222831	     22.56983099	     24.52027160	     14.75113112	    -15.10678847	      0.00796868	      6.41083283	      0.04701661	      0.04315662	     -0.16370897	      0.03390392
      3.90000000	     66.69658244	      8.44867929	     -0.42272700	     26.55418219	    241.77235453	    -79.65806774	     26.98610742	     -1.90507993	     27.21208208	     27.35147137	     15.52661087	    -20.63699662	      0.15816505	      3.55143884	      0.03957980	     -0.00029945	     -0.19697451	      0.04181894
      3.91000000	     72.87542585	     10.97711716	     -2.37188513	     32.53462959	    255.14928679	    -75.64426414	     30.08549662	     -2.97358413	     32.38858468	     31.05332176	     16.12476774	    -25.95787408	      0.19849753	      0.04989628	      0.02977838	     -0.05379247	     -0.23259742	      0.05469118
      3.92000000	     80.46750326	     13.27514176	     -5.02765017	     36.74922357	    271.13191468	    -69.06930406	     34.14601469	     -4.31844470	     38.06042110	     35.27228190	     16.43347076	    -30.88539476	      0.22800425	     -3.90684158	      0.02112818	     -0.11452704	     -0.26921103	      0.07133642
      3.93000000	     88.65769507	     14.82947985	     -8.49653606	     39.44299342	    287.94113147	    -59.84016426	     38.83379280	     -5.94634527	     44.23607997	     39.42965945	     16.31642251	    -35.14700022	      0.38616088	     -8.02696027	      0.01817787	     -0.17783208	     -0.30591394	      0.08939040
      3.94000000	     96.44917354	     14.88943895	    -12.84080627	     41.66610794	    303.54490782	    -47.92078185	     43.70643859	     -7.80818326	     50.94374951	     42.81219230	     15.65819448	    -38.36711366	      0.83178587	    -11.94709114	      0.02580942	     -0.23755039	     -0.34217811	      0.10568780
      3.95000000	    102.84334259	     12.60521998	    -18.00087656	     44.98842327	    316.05189301	    -33.31883125	     48.23589899	     -9.79531173	     58.16277240	     44.74519265	     14.42815458	    -40.09339837	      1.70999372	    -15.28205733	      0.04823626	     -0.28681593	     -0.37747355	      0.11703999
      3.96000000	    107.05368653	      7.23377421	    -23.71576639	     51.04125230	    324.10304910	    -16.15195541	     51.84890648	    -11.74850386	     65.75304729	     44.79692464	     12.73757836	    -39.86649767	      3.11726672	    -17.67808221	      0.08803850	     -0.31904060	     -0.41083943	      0.12116689
      3.97000000	    108.68811168	     -1.65508714	    -29.49568732	     61.06970179	    327.14643533	      3.23845659	     53.99997009	    -13.48405065	     73.42321689	     42.92784177	     10.85196178	    -37.31707529	      5.07468814	    -18.85787605	      0.14553972	     -0.32888342	     -0.44069251	      0.11739661
      3.98000000	    107.81540746	    -13.99866390	    -34.67683306	     75.57028991	    325.47078360	     24.17972439	     54.26572029	    -14.83303380	     80.72971545	     39.51600155	      9.13373497	    -32.27294335	      7.50972243	    -18.65672209	      0.21848924	     -0.31316653	     -0.46491222	      0.10683787
      3.99000000	    104.88187354	    -29.11876393	    -38.54923261	     94.05531989	    319.97697354	     45.62730764	     52.43495454	    -15.68097384	     87.09058200	     35.24532464	      7.92828106	    -24.84780740	     10.24674169	    -17.05054715	      0.30195248	     -0.27167187	     -0.48110779	      0.09197800
      4.00000000	    100.53225123	    -45.72262390	    -40.52231569	    115.02590166	    311.82270816	     66.23630344	     48.57607278	    -15.99432148	     91.83115027	     30.90196383	      7.44296277	    -15.47471367	     13.01382223	    -14.17044535	      0.38852593	     -0.20755441	     -0.48702925	      0.07588226
      4.01000000	     95.42571995	    -62.05840512	    -40.27220248	    136.17914327	    302.11701603	     84.53577738	     43.06273364	    -15.82318020	     94.27579615	     27.16277827	      7.67777218	     -4.87063321	     15.47222831	    -10.29734341	      0.46901474	     -0.12714573	     -0.48104906	      0.06131029
      4.02000000	     90.10859345	    -76.18280383	    -37.81329195	    154.77387009	    291.75506326	     99.14175463	     36.53357136	    -15.27447335	     93.86577380	     24.45746150	      8.44030028	      6.04933488	     17.26644371	     -5.83525211	      0.53353427	     -0.03915003	     -0.46256398	      0.05008687
      4.03000000	     84.95989089	    -86.26206169	    -33.47131799	    168.04702092	    281.38350776	    108.93502253	     29.78017434	    -14.46167646	     90.26600111	     22.94007752	      9.43433946	     16.28036202	     18.08462886	     -1.26553063	      0.57286080	      0.04657478	     -0.43218825	      0.04291123
      4.04000000	     80.19743478	    -90.84241766	    -27.78157451	    173.60985055	    271.44328879	    113.16447944	     23.59108840	    -13.45155233	     83.43306430	     22.54857885	     10.37965017	     24.84488346	     17.71590934	      2.91413526	      0.57982591	      0.12041366	     -0.39167508	      0.03955393
      4.05000000	     75.92154508	    -89.05859830	    -21.36116797	    169.79536740	    262.24072003	    111.47752531	     18.60018093	    -12.23310601	     73.63602998	     23.09859890	     11.11372071	     30.91695336	     16.09230510	      6.26066051	      0.55054576	      0.17437867	     -0.34358031	      0.03924595
      4.06000000	     72.16358592	    -80.75043288	    -14.79575082	    155.89940456	    253.99675747	    103.89724624	     15.18084671	    -10.72238333	     61.42526764	     24.36250133	     11.63920132	     33.94011565	     13.30504872	      8.45402257	      0.48521562	      0.20325305	     -0.29074305	      0.04106610
      4.07000000	     68.90035725	    -66.44479845	     -8.55509818	    132.20741476	    246.81947902	     90.77252423	     13.40333686	     -8.79532019	     47.53801016	     26.11009811	     12.10525945	     33.70479021	      9.58804406	      9.34474734	      0.38818417	      0.20519561	     -0.23567181	      0.04420414
      4.08000000	     66.02910435	    -47.21203925	     -2.94432210	     99.79884854	    240.61331550	     72.73761440	     13.05934633	     -6.33073489	     32.76052947	     28.10910509	     12.73605448	     30.36619196	      5.27277428	      8.96954395	      0.26726713	      0.18171926	     -0.18001603	      0.04803741
      4.09000000	     63.34907805	    -24.49068851	      1.89723506	     60.31115795	    235.03100283	     50.71145079	     13.75058665	     -3.25237912	     17.81414597	     30.09964244	     13.73299157	     24.42081830	      0.73296884	      7.53984649	      0.13261119	      0.13732684	     -0.12440596	      0.05203298
