Model Marker Errors from IK
version=1
nRows=393
nColumns=4
inDegrees=no
endheader
time	total_squared_error	marker_error_RMS	marker_error_max
      0.00000000	      0.00051377	      0.00566665	      0.01394550
      0.01000000	      0.00052616	      0.00573455	      0.01563985
      0.02000000	      0.00057810	      0.00601093	      0.01785695
      0.03000000	      0.00065782	      0.00641200	      0.02016131
      0.04000000	      0.00073992	      0.00680035	      0.02192025
      0.05000000	      0.00080561	      0.00709583	      0.02296875
      0.06000000	      0.00083857	      0.00723952	      0.02319180
      0.07000000	      0.00083245	      0.00721305	      0.02260061
      0.08000000	      0.00079050	      0.00702897	      0.02123500
      0.09000000	      0.00072551	      0.00673383	      0.01934175
      0.10000000	      0.00065312	      0.00638903	      0.01720082
      0.11000000	      0.00058671	      0.00605552	      0.01515153
      0.12000000	      0.00053543	      0.00578483	      0.01339120
      0.13000000	      0.00050148	      0.00559842	      0.01227523
      0.14000000	      0.00048462	      0.00550350	      0.01161458
      0.15000000	      0.00048370	      0.00549828	      0.01127117
      0.16000000	      0.00049215	      0.00554610	      0.01109086
      0.17000000	      0.00050873	      0.00563878	      0.01095764
      0.18000000	      0.00053388	      0.00577647	      0.01078133
      0.19000000	      0.00056009	      0.00591654	      0.01093801
      0.20000000	      0.00057778	      0.00600926	      0.01116165
      0.21000000	      0.00058747	      0.00605947	      0.01149520
      0.22000000	      0.00058668	      0.00605538	      0.01154035
      0.23000000	      0.00057259	      0.00598222	      0.01145800
      0.24000000	      0.00055263	      0.00587703	      0.01129484
      0.25000000	      0.00053309	      0.00577219	      0.01097210
      0.26000000	      0.00051331	      0.00566410	      0.01116088
      0.27000000	      0.00049706	      0.00557372	      0.01125692
      0.28000000	      0.00047689	      0.00545944	      0.01126002
      0.29000000	      0.00045248	      0.00531787	      0.01118604
      0.30000000	      0.00041998	      0.00512332	      0.01092087
      0.31000000	      0.00038316	      0.00489362	      0.01050145
      0.32000000	      0.00035194	      0.00469005	      0.01001718
      0.33000000	      0.00033487	      0.00457490	      0.00952102
      0.34000000	      0.00033940	      0.00460570	      0.00910790
      0.35000000	      0.00036865	      0.00480004	      0.00883893
      0.36000000	      0.00042125	      0.00513106	      0.00932763
      0.37000000	      0.00049221	      0.00554647	      0.01105194
      0.38000000	      0.00057505	      0.00599503	      0.01284996
      0.39000000	      0.00066298	      0.00643708	      0.01466286
      0.40000000	      0.00075041	      0.00684839	      0.01641301
      0.41000000	      0.00083210	      0.00721153	      0.01806698
      0.42000000	      0.00090454	      0.00751891	      0.01956216
      0.43000000	      0.00096526	      0.00776717	      0.02084313
      0.44000000	      0.00101362	      0.00795935	      0.02192366
      0.45000000	      0.00104848	      0.00809507	      0.02279378
      0.46000000	      0.00107120	      0.00818231	      0.02343486
      0.47000000	      0.00108032	      0.00821707	      0.02385820
      0.48000000	      0.00108105	      0.00821984	      0.02407529
      0.49000000	      0.00107478	      0.00819597	      0.02406136
      0.50000000	      0.00107002	      0.00817780	      0.02388618
      0.51000000	      0.00106947	      0.00817569	      0.02355371
      0.52000000	      0.00107684	      0.00820381	      0.02308690
      0.53000000	      0.00109382	      0.00826824	      0.02252364
      0.54000000	      0.00111883	      0.00836222	      0.02190647
      0.55000000	      0.00114750	      0.00846868	      0.02126386
      0.56000000	      0.00117684	      0.00857628	      0.02065881
      0.57000000	      0.00119142	      0.00862924	      0.02004822
      0.58000000	      0.00119358	      0.00863706	      0.01948721
      0.59000000	      0.00117219	      0.00855933	      0.01889882
      0.60000000	      0.00112765	      0.00839513	      0.01823996
      0.61000000	      0.00105912	      0.00813605	      0.01743868
      0.62000000	      0.00097022	      0.00778710	      0.01642192
      0.63000000	      0.00086183	      0.00733925	      0.01513164
      0.64000000	      0.00074374	      0.00681791	      0.01358002
      0.65000000	      0.00062221	      0.00623602	      0.01183230
      0.66000000	      0.00051809	      0.00569040	      0.01007959
      0.67000000	      0.00043947	      0.00524089	      0.00931364
      0.68000000	      0.00039671	      0.00497937	      0.00950872
      0.69000000	      0.00038729	      0.00491993	      0.00968501
      0.70000000	      0.00039996	      0.00499978	      0.00990601
      0.71000000	      0.00041807	      0.00511168	      0.00998358
      0.72000000	      0.00042573	      0.00515828	      0.00972107
      0.73000000	      0.00042299	      0.00514168	      0.00986989
      0.74000000	      0.00041723	      0.00510655	      0.00993378
      0.75000000	      0.00042214	      0.00513652	      0.00977305
      0.76000000	      0.00044921	      0.00529863	      0.00949481
      0.77000000	      0.00050647	      0.00562622	      0.00925926
      0.78000000	      0.00059026	      0.00607380	      0.01011119
      0.79000000	      0.00069103	      0.00657188	      0.01171861
      0.80000000	      0.00079809	      0.00706260	      0.01332451
      0.81000000	      0.00090193	      0.00750804	      0.01484812
      0.82000000	      0.00099777	      0.00789689	      0.01621050
      0.83000000	      0.00107413	      0.00819346	      0.01727156
      0.84000000	      0.00113413	      0.00841921	      0.01797811
      0.85000000	      0.00117270	      0.00856119	      0.01823079
      0.86000000	      0.00119561	      0.00864440	      0.01804422
      0.87000000	      0.00119938	      0.00865803	      0.01736336
      0.88000000	      0.00119242	      0.00863285	      0.01634919
      0.89000000	      0.00117727	      0.00857785	      0.01615222
      0.90000000	      0.00115617	      0.00850062	      0.01585518
      0.91000000	      0.00112908	      0.00840045	      0.01548048
      0.92000000	      0.00109158	      0.00825976	      0.01531726
      0.93000000	      0.00104001	      0.00806229	      0.01522596
      0.94000000	      0.00097404	      0.00780239	      0.01481944
      0.95000000	      0.00089480	      0.00747829	      0.01421284
      0.96000000	      0.00081416	      0.00713335	      0.01361247
      0.97000000	      0.00073710	      0.00678737	      0.01343063
      0.98000000	      0.00068950	      0.00656456	      0.01410143
      0.99000000	      0.00067070	      0.00647449	      0.01554597
      1.00000000	      0.00068345	      0.00653574	      0.01751015
      1.01000000	      0.00072495	      0.00673124	      0.01960232
      1.02000000	      0.00077490	      0.00695928	      0.02141393
      1.03000000	      0.00082036	      0.00716049	      0.02267317
      1.04000000	      0.00084167	      0.00725290	      0.02318390
      1.05000000	      0.00082900	      0.00719811	      0.02286308
      1.06000000	      0.00078385	      0.00699934	      0.02181382
      1.07000000	      0.00070985	      0.00666076	      0.02009730
      1.08000000	      0.00061959	      0.00622291	      0.01786293
      1.09000000	      0.00053181	      0.00576525	      0.01562295
      1.10000000	      0.00045755	      0.00534763	      0.01347065
      1.11000000	      0.00040929	      0.00505775	      0.01173891
      1.12000000	      0.00038900	      0.00493078	      0.01083422
      1.13000000	      0.00039722	      0.00498258	      0.01057474
      1.14000000	      0.00042726	      0.00516757	      0.01074886
      1.15000000	      0.00046301	      0.00537943	      0.01114911
      1.16000000	      0.00049272	      0.00554930	      0.01164410
      1.17000000	      0.00050476	      0.00561670	      0.01189194
      1.18000000	      0.00050407	      0.00561286	      0.01207028
      1.19000000	      0.00048316	      0.00549525	      0.01217444
      1.20000000	      0.00045609	      0.00533905	      0.01220009
      1.21000000	      0.00042727	      0.00516765	      0.01222928
      1.22000000	      0.00039994	      0.00499965	      0.01214750
      1.23000000	      0.00037610	      0.00484832	      0.01206328
      1.24000000	      0.00035480	      0.00470900	      0.01180614
      1.25000000	      0.00033833	      0.00459845	      0.01149887
      1.26000000	      0.00032882	      0.00453336	      0.01106688
      1.27000000	      0.00033410	      0.00456958	      0.01064156
      1.28000000	      0.00035632	      0.00471910	      0.01015090
      1.29000000	      0.00040032	      0.00500201	      0.00970258
      1.30000000	      0.00046472	      0.00538936	      0.01081736
      1.31000000	      0.00054528	      0.00583781	      0.01228178
      1.32000000	      0.00063497	      0.00629964	      0.01359620
      1.33000000	      0.00072644	      0.00673815	      0.01465285
      1.34000000	      0.00081301	      0.00712833	      0.01544203
      1.35000000	      0.00089218	      0.00746735	      0.01613916
      1.36000000	      0.00096000	      0.00774598	      0.01758978
      1.37000000	      0.00101714	      0.00797314	      0.01882872
      1.38000000	      0.00106460	      0.00815706	      0.01992761
      1.39000000	      0.00110482	      0.00830970	      0.02082170
      1.40000000	      0.00113910	      0.00843764	      0.02157271
      1.41000000	      0.00116974	      0.00855036	      0.02217384
      1.42000000	      0.00119826	      0.00865396	      0.02260487
      1.43000000	      0.00122533	      0.00875118	      0.02294345
      1.44000000	      0.00125081	      0.00884170	      0.02311316
      1.45000000	      0.00127475	      0.00892591	      0.02316380
      1.46000000	      0.00129577	      0.00899920	      0.02307135
      1.47000000	      0.00131319	      0.00905948	      0.02283709
      1.48000000	      0.00132611	      0.00910394	      0.02251871
      1.49000000	      0.00133052	      0.00911909	      0.02205934
      1.50000000	      0.00132856	      0.00911236	      0.02152830
      1.51000000	      0.00131845	      0.00907761	      0.02095613
      1.52000000	      0.00129748	      0.00900512	      0.02035445
      1.53000000	      0.00126579	      0.00889448	      0.01977220
      1.54000000	      0.00122326	      0.00874378	      0.01917953
      1.55000000	      0.00117116	      0.00855554	      0.01859152
      1.56000000	      0.00111208	      0.00833697	      0.01802848
      1.57000000	      0.00104252	      0.00807202	      0.01737373
      1.58000000	      0.00096667	      0.00777283	      0.01664789
      1.59000000	      0.00088183	      0.00742392	      0.01574427
      1.60000000	      0.00079075	      0.00703008	      0.01463092
      1.61000000	      0.00069298	      0.00658115	      0.01329989
      1.62000000	      0.00058971	      0.00607097	      0.01179210
      1.63000000	      0.00048481	      0.00550461	      0.01040648
      1.64000000	      0.00039003	      0.00493729	      0.00966696
      1.65000000	      0.00031700	      0.00445113	      0.00905930
      1.66000000	      0.00027349	      0.00413436	      0.00870436
      1.67000000	      0.00026126	      0.00404092	      0.00873658
      1.68000000	      0.00027190	      0.00412235	      0.00910869
      1.69000000	      0.00029016	      0.00425850	      0.00946090
      1.70000000	      0.00030439	      0.00436169	      0.00979449
      1.71000000	      0.00030444	      0.00436208	      0.00989760
      1.72000000	      0.00028874	      0.00424808	      0.00973391
      1.73000000	      0.00026495	      0.00406930	      0.00945230
      1.74000000	      0.00024023	      0.00387487	      0.00899100
      1.75000000	      0.00022546	      0.00375380	      0.00849136
      1.76000000	      0.00022626	      0.00376047	      0.00803098
      1.77000000	      0.00024309	      0.00389783	      0.00765411
      1.78000000	      0.00027139	      0.00411846	      0.00734091
      1.79000000	      0.00031194	      0.00441542	      0.00722435
      1.80000000	      0.00035388	      0.00470290	      0.00704979
      1.81000000	      0.00040078	      0.00500489	      0.00772134
      1.82000000	      0.00045253	      0.00531819	      0.00855518
      1.83000000	      0.00051248	      0.00565949	      0.00935805
      1.84000000	      0.00058100	      0.00602598	      0.01013291
      1.85000000	      0.00065626	      0.00640441	      0.01138462
      1.86000000	      0.00073260	      0.00676665	      0.01284559
      1.87000000	      0.00080031	      0.00707242	      0.01407314
      1.88000000	      0.00085052	      0.00729094	      0.01496237
      1.89000000	      0.00087274	      0.00738555	      0.01539817
      1.90000000	      0.00085984	      0.00733076	      0.01530800
      1.91000000	      0.00081063	      0.00711791	      0.01466133
      1.92000000	      0.00072929	      0.00675134	      0.01345652
      1.93000000	      0.00062817	      0.00626582	      0.01232707
      1.94000000	      0.00052290	      0.00571676	      0.01157492
      1.95000000	      0.00042957	      0.00518149	      0.01101321
      1.96000000	      0.00036591	      0.00478221	      0.01098402
      1.97000000	      0.00034057	      0.00461362	      0.01160911
      1.98000000	      0.00035399	      0.00470365	      0.01275952
      1.99000000	      0.00039810	      0.00498812	      0.01414366
      2.00000000	      0.00045927	      0.00535763	      0.01551778
      2.01000000	      0.00051789	      0.00568930	      0.01647040
      2.02000000	      0.00056211	      0.00592721	      0.01704161
      2.03000000	      0.00058008	      0.00602119	      0.01704031
      2.04000000	      0.00056995	      0.00596842	      0.01652109
      2.05000000	      0.00053694	      0.00579298	      0.01556373
      2.06000000	      0.00048969	      0.00553226	      0.01442942
      2.07000000	      0.00044032	      0.00524597	      0.01309135
      2.08000000	      0.00040110	      0.00500690	      0.01174923
      2.09000000	      0.00037736	      0.00485647	      0.01088734
      2.10000000	      0.00037810	      0.00486117	      0.01037754
      2.11000000	      0.00039581	      0.00497375	      0.01035091
      2.12000000	      0.00043152	      0.00519325	      0.01065553
      2.13000000	      0.00046796	      0.00540812	      0.01096078
      2.14000000	      0.00050178	      0.00560011	      0.01137632
      2.15000000	      0.00051990	      0.00570032	      0.01157586
      2.16000000	      0.00052524	      0.00572954	      0.01171168
      2.17000000	      0.00051511	      0.00567399	      0.01178752
      2.18000000	      0.00049644	      0.00557026	      0.01183416
      2.19000000	      0.00047536	      0.00545071	      0.01182752
      2.20000000	      0.00045376	      0.00532541	      0.01190193
      2.21000000	      0.00043210	      0.00519674	      0.01191488
      2.22000000	      0.00041372	      0.00508505	      0.01177895
      2.23000000	      0.00039769	      0.00498552	      0.01154452
      2.24000000	      0.00038835	      0.00492663	      0.01119203
      2.25000000	      0.00039073	      0.00494175	      0.01073989
      2.26000000	      0.00040984	      0.00506115	      0.01021783
      2.27000000	      0.00044930	      0.00529916	      0.01149636
      2.28000000	      0.00050987	      0.00564506	      0.01312241
      2.29000000	      0.00058891	      0.00606685	      0.01474108
      2.30000000	      0.00068251	      0.00653124	      0.01634517
      2.31000000	      0.00078460	      0.00700267	      0.01789306
      2.32000000	      0.00088836	      0.00745136	      0.01937756
      2.33000000	      0.00099108	      0.00787035	      0.02077298
      2.34000000	      0.00108786	      0.00824570	      0.02205939
      2.35000000	      0.00117714	      0.00857738	      0.02321911
      2.36000000	      0.00125600	      0.00886002	      0.02422418
      2.37000000	      0.00132324	      0.00909410	      0.02506381
      2.38000000	      0.00137572	      0.00927269	      0.02571805
      2.39000000	      0.00141191	      0.00939385	      0.02617280
      2.40000000	      0.00143107	      0.00945739	      0.02641249
      2.41000000	      0.00143398	      0.00946699	      0.02642957
      2.42000000	      0.00142116	      0.00942458	      0.02622526
      2.43000000	      0.00139984	      0.00935361	      0.02582031
      2.44000000	      0.00136963	      0.00925211	      0.02520779
      2.45000000	      0.00133818	      0.00914530	      0.02443100
      2.46000000	      0.00130874	      0.00904414	      0.02354746
      2.47000000	      0.00128079	      0.00894703	      0.02257522
      2.48000000	      0.00125249	      0.00884763	      0.02157646
      2.49000000	      0.00122095	      0.00873553	      0.02057877
      2.50000000	      0.00118546	      0.00860762	      0.01964580
      2.51000000	      0.00113861	      0.00843581	      0.01875399
      2.52000000	      0.00108387	      0.00823054	      0.01864399
      2.53000000	      0.00101504	      0.00796494	      0.01813554
      2.54000000	      0.00093638	      0.00765009	      0.01727034
      2.55000000	      0.00085029	      0.00728991	      0.01616148
      2.56000000	      0.00075525	      0.00687043	      0.01480023
      2.57000000	      0.00066037	      0.00642444	      0.01348852
      2.58000000	      0.00056099	      0.00592129	      0.01206728
      2.59000000	      0.00046588	      0.00539606	      0.01066018
      2.60000000	      0.00038398	      0.00489887	      0.00935663
      2.61000000	      0.00033411	      0.00456965	      0.00860160
      2.62000000	      0.00032227	      0.00448800	      0.00853557
      2.63000000	      0.00035071	      0.00468180	      0.00917801
      2.64000000	      0.00040652	      0.00504057	      0.01016431
      2.65000000	      0.00047059	      0.00542328	      0.01129310
      2.66000000	      0.00051487	      0.00567268	      0.01191433
      2.67000000	      0.00053134	      0.00576268	      0.01228121
      2.68000000	      0.00051549	      0.00567613	      0.01227061
      2.69000000	      0.00047216	      0.00543233	      0.01187985
      2.70000000	      0.00041913	      0.00511814	      0.01124282
      2.71000000	      0.00037274	      0.00482660	      0.01046159
      2.72000000	      0.00034455	      0.00464055	      0.00978356
      2.73000000	      0.00033995	      0.00460943	      0.00907759
      2.74000000	      0.00035698	      0.00472350	      0.00852887
      2.75000000	      0.00039206	      0.00495013	      0.00812517
      2.76000000	      0.00042862	      0.00517576	      0.00782168
      2.77000000	      0.00047108	      0.00542609	      0.00802394
      2.78000000	      0.00051393	      0.00566752	      0.00859035
      2.79000000	      0.00055616	      0.00589577	      0.00917127
      2.80000000	      0.00059691	      0.00610795	      0.00963351
      2.81000000	      0.00063432	      0.00629644	      0.01001097
      2.82000000	      0.00066553	      0.00644946	      0.01061777
      2.83000000	      0.00068566	      0.00654627	      0.01106896
      2.84000000	      0.00069329	      0.00658258	      0.01128533
      2.85000000	      0.00068623	      0.00654898	      0.01125891
      2.86000000	      0.00066282	      0.00643631	      0.01090299
      2.87000000	      0.00062967	      0.00627333	      0.01024350
      2.88000000	      0.00059099	      0.00607755	      0.01000039
      2.89000000	      0.00055336	      0.00588090	      0.01036751
      2.90000000	      0.00052278	      0.00571612	      0.01114701
      2.91000000	      0.00050280	      0.00560581	      0.01226202
      2.92000000	      0.00049760	      0.00557673	      0.01361826
      2.93000000	      0.00050638	      0.00562575	      0.01504695
      2.94000000	      0.00052778	      0.00574336	      0.01640699
      2.95000000	      0.00055739	      0.00590226	      0.01758373
      2.96000000	      0.00058984	      0.00607166	      0.01847602
      2.97000000	      0.00061870	      0.00621844	      0.01901136
      2.98000000	      0.00063844	      0.00631682	      0.01915859
      2.99000000	      0.00064518	      0.00635011	      0.01894937
      3.00000000	      0.00063631	      0.00630630	      0.01831908
      3.01000000	      0.00061359	      0.00619269	      0.01738391
      3.02000000	      0.00058217	      0.00603207	      0.01627553
      3.03000000	      0.00054243	      0.00582255	      0.01503137
      3.04000000	      0.00050346	      0.00560945	      0.01378488
      3.05000000	      0.00046953	      0.00541713	      0.01264414
      3.06000000	      0.00044337	      0.00526408	      0.01166561
      3.07000000	      0.00042625	      0.00516148	      0.01090045
      3.08000000	      0.00042172	      0.00513393	      0.01025118
      3.09000000	      0.00042604	      0.00516020	      0.00980023
      3.10000000	      0.00043847	      0.00523491	      0.00942573
      3.11000000	      0.00045157	      0.00531252	      0.00916018
      3.12000000	      0.00045923	      0.00535741	      0.00902822
      3.13000000	      0.00045803	      0.00535043	      0.00895305
      3.14000000	      0.00045012	      0.00530399	      0.00891358
      3.15000000	      0.00044143	      0.00525255	      0.00912611
      3.16000000	      0.00043982	      0.00524297	      0.00942294
      3.17000000	      0.00045370	      0.00532508	      0.01001725
      3.18000000	      0.00048772	      0.00552107	      0.01192921
      3.19000000	      0.00054008	      0.00580990	      0.01376706
      3.20000000	      0.00061361	      0.00619280	      0.01556348
      3.21000000	      0.00070155	      0.00662172	      0.01721947
      3.22000000	      0.00079744	      0.00705974	      0.01871234
      3.23000000	      0.00090325	      0.00751355	      0.02008914
      3.24000000	      0.00101300	      0.00795691	      0.02135276
      3.25000000	      0.00111774	      0.00835814	      0.02250235
      3.26000000	      0.00121562	      0.00871644	      0.02357450
      3.27000000	      0.00129977	      0.00901307	      0.02456213
      3.28000000	      0.00136604	      0.00924000	      0.02545479
      3.29000000	      0.00141166	      0.00939301	      0.02623278
      3.30000000	      0.00143509	      0.00947066	      0.02686247
      3.31000000	      0.00143594	      0.00947346	      0.02730675
      3.32000000	      0.00141550	      0.00940579	      0.02754071
      3.33000000	      0.00137521	      0.00927094	      0.02751167
      3.34000000	      0.00132044	      0.00908448	      0.02721974
      3.35000000	      0.00125725	      0.00886441	      0.02665632
      3.36000000	      0.00119389	      0.00863819	      0.02583169
      3.37000000	      0.00113871	      0.00843621	      0.02477153
      3.38000000	      0.00109982	      0.00829088	      0.02356298
      3.39000000	      0.00108058	      0.00821805	      0.02221158
      3.40000000	      0.00108143	      0.00822127	      0.02082194
      3.41000000	      0.00109806	      0.00828423	      0.01940930
      3.42000000	      0.00112195	      0.00837386	      0.01817582
      3.43000000	      0.00114252	      0.00845031	      0.01928151
      3.44000000	      0.00114967	      0.00847670	      0.01989067
      3.45000000	      0.00113460	      0.00842096	      0.02004699
      3.46000000	      0.00109251	      0.00826328	      0.01978909
      3.47000000	      0.00102326	      0.00799713	      0.01906679
      3.48000000	      0.00093132	      0.00762939	      0.01806950
      3.49000000	      0.00082361	      0.00717466	      0.01672608
      3.50000000	      0.00071529	      0.00668623	      0.01518820
      3.51000000	      0.00061608	      0.00620526	      0.01345744
      3.52000000	      0.00053985	      0.00580866	      0.01244065
      3.53000000	      0.00049055	      0.00553711	      0.01261221
      3.54000000	      0.00046833	      0.00541023	      0.01275657
      3.55000000	      0.00046479	      0.00538975	      0.01283360
      3.56000000	      0.00046979	      0.00541865	      0.01286743
      3.57000000	      0.00047283	      0.00543619	      0.01292573
      3.58000000	      0.00047171	      0.00542970	      0.01283511
      3.59000000	      0.00046135	      0.00536975	      0.01277153
      3.60000000	      0.00044729	      0.00528730	      0.01262280
      3.61000000	      0.00043289	      0.00520153	      0.01265976
      3.62000000	      0.00042092	      0.00512907	      0.01253811
      3.63000000	      0.00041629	      0.00510078	      0.01250431
      3.64000000	      0.00041745	      0.00510791	      0.01253177
      3.65000000	      0.00042157	      0.00513301	      0.01271707
      3.66000000	      0.00042790	      0.00517147	      0.01282139
      3.67000000	      0.00043287	      0.00520140	      0.01293611
      3.68000000	      0.00043484	      0.00521322	      0.01299313
      3.69000000	      0.00043309	      0.00520267	      0.01296528
      3.70000000	      0.00042634	      0.00516197	      0.01287653
      3.71000000	      0.00041612	      0.00509973	      0.01266753
      3.72000000	      0.00040384	      0.00502394	      0.01236381
      3.73000000	      0.00038876	      0.00492925	      0.01199071
      3.74000000	      0.00037426	      0.00483645	      0.01156747
      3.75000000	      0.00036069	      0.00474793	      0.01114682
      3.76000000	      0.00034995	      0.00467673	      0.01077924
      3.77000000	      0.00034088	      0.00461571	      0.01048101
      3.78000000	      0.00033647	      0.00458580	      0.01030082
      3.79000000	      0.00033662	      0.00458678	      0.01023643
      3.80000000	      0.00034156	      0.00462034	      0.01028820
      3.81000000	      0.00035287	      0.00469621	      0.01041896
      3.82000000	      0.00036876	      0.00480075	      0.01064819
      3.83000000	      0.00038922	      0.00493218	      0.01099432
      3.84000000	      0.00041254	      0.00507776	      0.01141506
      3.85000000	      0.00043734	      0.00522819	      0.01201374
      3.86000000	      0.00046327	      0.00538092	      0.01277381
      3.87000000	      0.00048938	      0.00553051	      0.01377390
      3.88000000	      0.00051865	      0.00569345	      0.01499014
      3.89000000	      0.00055374	      0.00588292	      0.01647870
      3.90000000	      0.00060050	      0.00612630	      0.01824998
      3.91000000	      0.00066602	      0.00645185	      0.02022566
      3.92000000	      0.00076035	      0.00689360	      0.02240880
